{"type": "FeatureCollection", "features": [{"type": "Feature", "properties": {"id": "OODQ", "site": "Duqm", "prior": "2", "obsTime": "2018-09-17T20:50:00Z", "temp": 24.0, "dewp": 22.0, "wspd": 22, "wdir": 200, "ceil": 9, "cover": "BKN", "fltcat": "IFR", "altim": 1006.0, "rawOb": "OODQ 172050Z AUTO 20022KT //// R22///// BKN009 BKN040 24/22 Q1006 NOSIG"}, "geometry": {"type": "Point", "coordinates": [57.657, 19.511]}}, {"type": "Feature", "properties": {"id": "OIZJ", "site": "Jask Arpt", "prior": "3", "obsTime": "2018-09-17T21:00:00Z", "temp": 28.0, "dewp": 25.0, "wspd": 12, "wdir": 120, "cover": "CLR", "visib": 2.49, "fltcat": "IFR", "altim": 1005.0, "wx": "BR", "rawOb": "OIZJ 172100Z 12012KT 4000 BR NSC 28/25 Q1005"}, "geometry": {"type": "Point", "coordinates": [57.798, 25.653]}}, {"type": "Feature", "properties": {"id": "OOMS", "site": "Muscat/Seeb Intl", "prior": "2", "obsTime": "2018-09-17T20:50:00Z", "temp": 28.0, "dewp": 27.0, "wspd": 7, "wdir": 70, "cover": "FEW", "visib": 4.35, "fltcat": "MVFR", "altim": 1005.0, "rawOb": "OOMS 172050Z 07007KT 7000 FEW020 28/27 Q1005 NOSIG"}, "geometry": {"type": "Point", "coordinates": [58.283, 23.593]}}, {"type": "Feature", "properties": {"id": "UTAA", "site": "Ashgabat Intl", "prior": "1", "obsTime": "2018-09-17T21:00:00Z", "temp": 26.0, "dewp": 4.0, "wspd": 10, "wdir": 260, "ceil": 200, "cover": "BKN", "visib": 5.59, "fltcat": "VFR", "altim": 1012.0, "rawOb": "UTAA 172100Z 26010KT 9000 SCT100 BKN200 26/04 Q1012 R88/CLRD70 NOSIG"}, "geometry": {"type": "Point", "coordinates": [58.363, 37.986]}}, {"type": "Feature", "properties": {"id": "OIMQ", "site": "Kashmar", "prior": "2", "obsTime": "2018-09-17T21:00:00Z", "temp": 22.0, "dewp": -6.0, "wspd": 2, "wdir": 110, "altim": 1015.0, "rawOb": "OIMQ 172100Z AUTO 11002KT //// // ////// 22/M06 Q1015"}, "geometry": {"type": "Point", "coordinates": [58.46, 35.23]}}, {"type": "Feature", "properties": {"id": "UWOR", "site": "Orsk Arpt", "prior": "2", "obsTime": "2018-09-17T21:00:00Z", "temp": 16.0, "dewp": 4.0, "wspd": 10, "wdir": 150, "ceil": 50, "cover": "BKN", "visib": 6.21, "fltcat": "VFR", "altim": 1014.0, "rawOb": "UWOR 172100Z 15005MPS 9999 BKN050CB 16/04 Q1014 R07/CLRD65 NOSIG RMK QFE736/0981"}, "geometry": {"type": "Point", "coordinates": [58.594, 51.073]}}, {"type": "Feature", "properties": {"id": "USCM", "site": "Magnitogorsk Intl", "prior": "2", "obsTime": "2018-09-17T21:00:00Z", "temp": 12.0, "dewp": 6.0, "wspd": 2, "wdir": 170, "cover": "FEW", "visib": 3.73, "fltcat": "MVFR", "altim": 1015.0, "rawOb": "USCM 172100Z 17001MPS 6000 FEW040 12/06 Q1015 R36/090065 NOSIG RMK QFE723"}, "geometry": {"type": "Point", "coordinates": [58.756, 53.394]}}, {"type": "Feature", "properties": {"id": "OIMB", "site": "Birjand Intl", "prior": "2", "obsTime": "2018-09-17T21:00:00Z", "temp": 17.0, "dewp": -16.0, "wspd": 6, "wdir": 110, "cover": "CAVOK", "visib": 6.21, "fltcat": "VFR", "altim": 1018.0, "rawOb": "OIMB 172100Z 11006KT CAVOK 17/M16 Q1018"}, "geometry": {"type": "Point", "coordinates": [59.292, 32.894]}}, {"type": "Feature", "properties": {"id": "UTNN", "site": "Nukus Arpt", "prior": "1", "obsTime": "2018-09-17T21:00:00Z", "temp": 16.0, "dewp": 3.0, "wspd": 0, "wdir": 0, "cover": "CAVOK", "visib": 6.21, "fltcat": "VFR", "altim": 1011.0, "rawOb": "UTNN 172100Z 00000KT CAVOK 16/03 Q1011 R33/CLRD60 NOSIG"}, "geometry": {"type": "Point", "coordinates": [59.624, 42.488]}}, {"type": "Feature", "properties": {"id": "OIMM", "site": "Mashhad Intl", "prior": "3", "obsTime": "2018-09-17T21:00:00Z", "temp": 20.0, "dewp": -9.0, "wspd": 4, "wdir": 10, "cover": "CAVOK", "visib": 6.21, "fltcat": "VFR", "altim": 1017.0, "rawOb": "OIMM 172100Z 01004KT CAVOK 20/M09 Q1017 A3003"}, "geometry": {"type": "Point", "coordinates": [59.643, 36.235]}}, {"type": "Feature", "properties": {"id": "UTAT", "site": "Dashoguz Arpt", "prior": "4", "obsTime": "2018-09-17T21:00:00Z", "temp": 17.0, "dewp": 7.0, "wspd": 6, "wdir": 50, "cover": "CAVOK", "visib": 6.21, "fltcat": "VFR", "altim": 1010.0, "rawOb": "UTAT 172100Z 05006KT CAVOK 17/07 Q1010 NOSIG"}, "geometry": {"type": "Point", "coordinates": [59.841, 41.762]}}, {"type": "Feature", "properties": {"id": "UTNU", "site": "Urgench Arpt", "prior": "3", "obsTime": "2018-09-17T21:00:00Z", "temp": 15.0, "dewp": 7.0, "wspd": 4, "wdir": 60, "cover": "CAVOK", "visib": 6.21, "fltcat": "VFR", "altim": 1010.0, "rawOb": "UTNU 172100Z 06004KT CAVOK 15/07 Q1010 R31/CLRD70 NOSIG"}, "geometry": {"type": "Point", "coordinates": [60.641, 41.585]}}, {"type": "Feature", "properties": {"id": "OIZI", "site": "Iranshahr Arpt", "prior": "3", "obsTime": "2018-09-17T21:00:00Z", "temp": 30.0, "dewp": 14.0, "wspd": 4, "wdir": 290, "cover": "CAVOK", "visib": 6.21, "fltcat": "VFR", "altim": 1008.0, "rawOb": "OIZI 172100Z 29004KT CAVOK 30/14 Q1008"}, "geometry": {"type": "Point", "coordinates": [60.72, 27.236]}}, {"type": "Feature", "properties": {"id": "USSS", "site": "Yekaterinburg/Koltso", "prior": "2", "obsTime": "2018-09-17T21:00:00Z", "temp": 14.0, "dewp": 9.0, "wspd": 4, "wdir": 120, "cover": "CAVOK", "visib": 6.21, "fltcat": "VFR", "altim": 1014.0, "rawOb": "USSS 172100Z 12002MPS CAVOK 14/09 Q1014 R08L/010060 R08R/010060 NOSIG RMK QFE741/0988"}, "geometry": {"type": "Point", "coordinates": [60.804, 56.745]}}, {"type": "Feature", "properties": {"id": "OIZH", "site": "Zahedan Intl", "prior": "2", "obsTime": "2018-09-17T21:00:00Z", "temp": 15.0, "dewp": -16.0, "wspd": 4, "wdir": 180, "cover": "CAVOK", "visib": 6.21, "fltcat": "VFR", "altim": 1015.0, "rawOb": "OIZH 172100Z 18004KT CAVOK 15/M16 Q1015 A3000"}, "geometry": {"type": "Point", "coordinates": [60.905, 29.474]}}, {"type": "Feature", "properties": {"id": "OIMC", "site": "Sarakhs Arpt", "prior": "3", "obsTime": "2018-09-17T21:00:00Z", "temp": 20.0, "dewp": 1.0, "wspd": 14, "wdir": 220, "altim": 1012.0, "rawOb": "OIMC 172100Z AUTO 22014KT //// // ////// 20/01 Q1012"}, "geometry": {"type": "Point", "coordinates": [61.064, 36.502]}}, {"type": "Feature", "properties": {"id": "USCC", "site": "Cheljabinsk Arpt", "prior": "3", "obsTime": "2018-09-17T21:00:00Z", "temp": 10.0, "dewp": 6.0, "wspd": 6, "wdir": 150, "cover": "CAVOK", "visib": 6.21, "fltcat": "VFR", "altim": 1016.0, "rawOb": "USCC 172100Z 15003MPS CAVOK 10/06 Q1016 R09/000060 NOSIG RMK QFE741"}, "geometry": {"type": "Point", "coordinates": [61.507, 55.304]}}, {"type": "Feature", "properties": {"id": "OIZB", "site": "Zabol Arpt", "prior": "3", "obsTime": "2018-09-17T21:00:00Z", "temp": 20.0, "dewp": -16.0, "wspd": 4, "wdir": 320, "cover": "CAVOK", "visib": 6.21, "fltcat": "VFR", "altim": 1007.0, "rawOb": "OIZB 172100Z 32004KT CAVOK 20/M16 Q1007"}, "geometry": {"type": "Point", "coordinates": [61.544, 31.097]}}, {"type": "Feature", "properties": {"id": "UTAM", "site": "Mary Arpt", "prior": "2", "obsTime": "2018-09-17T21:00:00Z", "temp": 19.0, "dewp": 7.0, "wspd": 2, "wdir": 330, "cover": "CLR", "visib": 3.73, "fltcat": "MVFR", "altim": 1012.0, "rawOb": "UTAM 172100Z 33002KT 6000 NSC 19/07 Q1012 NOSIG"}, "geometry": {"type": "Point", "coordinates": [61.895, 37.62]}}, {"type": "Feature", "properties": {"id": "UAUU", "site": "Kostanay Arpt", "prior": "1", "obsTime": "2018-09-17T21:00:00Z", "temp": 14.0, "dewp": 2.0, "wspd": 6, "wdir": 150, "cover": "CAVOK", "visib": 6.21, "fltcat": "VFR", "altim": 1019.0, "rawOb": "UAUU 172100Z 15003MPS CAVOK 14/02 Q1019 R15/CLRD70 NOSIG RMK QFE748/0997"}, "geometry": {"type": "Point", "coordinates": [63.55, 53.207]}}, {"type": "Feature", "properties": {"id": "UTAV", "site": "Turkmenabat Arpt", "prior": "3", "obsTime": "2018-09-17T21:00:00Z", "temp": 16.0, "dewp": -1.0, "wspd": 4, "wdir": 260, "cover": "CAVOK", "visib": 6.21, "fltcat": "VFR", "altim": 1010.0, "rawOb": "UTAV 172100Z 26004KT CAVOK 16/M01 Q1010 NOSIG"}, "geometry": {"type": "Point", "coordinates": [63.61, 39.086]}}, {"type": "Feature", "properties": {"id": "UTSB", "site": "Bukhara Arpt", "prior": "1", "obsTime": "2018-09-17T21:00:00Z", "temp": 19.0, "dewp": 6.0, "wspd": 2, "wdir": 0, "cover": "CAVOK", "visib": 6.21, "fltcat": "VFR", "altim": 1010.0, "rawOb": "UTSB 172100Z VRB02KT CAVOK 19/06 Q1010 R01/CLRD70 NOSIG"}, "geometry": {"type": "Point", "coordinates": [64.481, 39.773]}}, {"type": "Feature", "properties": {"id": "UTSA", "site": "Navoi Arpt", "prior": "4", "obsTime": "2018-09-17T20:30:00Z", "temp": 16.0, "dewp": -5.0, "wspd": 4, "wdir": 100, "cover": "CLR", "visib": 6.21, "fltcat": "VFR", "altim": 1011.0, "rawOb": "UTSA 172030Z 10004KT 9999 NSC 16/M05 Q1011 R07/CLRD70 NOSIG"}, "geometry": {"type": "Point", "coordinates": [65.172, 40.118]}}, {"type": "Feature", "properties": {"id": "USTR", "site": "Tyumen/Roschino Intl", "prior": "1", "obsTime": "2018-09-17T21:00:00Z", "temp": 12.0, "dewp": 5.0, "wspd": 12, "wdir": 180, "cover": "CAVOK", "visib": 6.21, "fltcat": "VFR", "altim": 1017.0, "rawOb": "USTR 172100Z 18006MPS 150V210 CAVOK 12/05 Q1017 R21/CLRD65 NOSIG RMK QFE753/1005"}, "geometry": {"type": "Point", "coordinates": [65.343, 57.18]}}, {"type": "Feature", "properties": {"id": "UAOO", "site": "Kzylorda Arpt", "prior": "0", "obsTime": "2018-09-17T21:00:00Z", "temp": 16.0, "dewp": -1.0, "wspd": 8, "wdir": 70, "cover": "CAVOK", "visib": 6.21, "fltcat": "VFR", "altim": 1014.0, "rawOb": "UAOO 172100Z 07004MPS CAVOK 16/M01 Q1014 R05/CLRD70 NOSIG RMK QFE749/0999"}, "geometry": {"type": "Point", "coordinates": [65.591, 44.706]}}, {"type": "Feature", "properties": {"id": "UTSK", "site": "Karshi Arpt", "prior": "3", "obsTime": "2018-09-17T20:30:00Z", "temp": 21.0, "dewp": 0.0, "wspd": 2, "wdir": 0, "cover": "CAVOK", "visib": 6.21, "fltcat": "VFR", "altim": 1011.0, "rawOb": "UTSK 172030Z VRB02KT CAVOK 21/M00 Q1011 R16/CLRD70"}, "geometry": {"type": "Point", "coordinates": [65.773, 38.804]}}, {"type": "Feature", "properties": {"id": "UTSS", "site": "Samarkand Arpt", "prior": "3", "obsTime": "2018-09-17T20:30:00Z", "temp": 17.0, "dewp": 7.0, "wspd": 2, "wdir": 0, "cover": "CLR", "visib": 3.73, "fltcat": "MVFR", "altim": 1013.0, "rawOb": "UTSS 172030Z VRB02KT 6000 NSC 17/07 Q1013 R09/CLRD70 NOSIG"}, "geometry": {"type": "Point", "coordinates": [66.989, 39.7]}}, {"type": "Feature", "properties": {"id": "OPKC", "site": "Karachi/Jinnah Intl", "prior": "0", "obsTime": "2018-09-17T20:55:00Z", "temp": 26.0, "dewp": 21.0, "wspd": 10, "wdir": 250, "ceil": 20, "cover": "BKN", "visib": 3.73, "fltcat": "MVFR", "altim": 1008.0, "rawOb": "OPKC 172055Z 25010KT 6000 BKN020 26/21 Q1008 NOSIG"}, "geometry": {"type": "Point", "coordinates": [67.163, 24.907]}}, {"type": "Feature", "properties": {"id": "UTST", "site": "Termez Arpt", "prior": "1", "obsTime": "2018-09-17T21:00:00Z", "temp": 19.0, "dewp": 5.0, "wspd": 6, "wdir": 120, "cover": "CAVOK", "visib": 6.21, "fltcat": "VFR", "altim": 1010.0, "rawOb": "UTST 172100Z 12006KT CAVOK 19/05 Q1010 R88/CLRD70 NOSIG"}, "geometry": {"type": "Point", "coordinates": [67.308, 37.286]}}, {"type": "Feature", "properties": {"id": "OPNH", "site": "Nawabshah Arpt", "prior": "3", "obsTime": "2018-09-17T21:00:00Z", "temp": 28.0, "dewp": 21.0, "wspd": 6, "wdir": 180, "cover": "CLR", "visib": 3.11, "fltcat": "MVFR", "altim": 1005.0, "wx": "HZ", "rawOb": "OPNH 172100Z 18006KT 5000M HZ NSC 28/21 Q1005 NOSIG"}, "geometry": {"type": "Point", "coordinates": [68.39, 26.22]}}, {"type": "Feature", "properties": {"id": "OPSK", "site": "Sukkur Arpt", "prior": "2", "obsTime": "2018-09-17T21:00:00Z", "temp": 29.0, "dewp": 24.0, "wspd": 0, "wdir": 0, "cover": "CLR", "visib": 2.49, "fltcat": "IFR", "wx": "HZ", "rawOb": "OPSK 172100Z 00000KT 4000 HZ NSC 29/24 QNH 1003 NOSIG"}, "geometry": {"type": "Point", "coordinates": [68.793, 27.721]}}, {"type": "Feature", "properties": {"id": "UTDD", "site": "Dushanbe Arpt", "prior": "2", "obsTime": "2018-09-17T21:00:00Z", "temp": 16.0, "dewp": 6.0, "wspd": 4, "wdir": 100, "cover": "CLR", "visib": 6.21, "fltcat": "VFR", "altim": 1014.0, "rawOb": "UTDD 172100Z 10002MPS 9999 NSC 16/06 Q1014 R09/CLRD// NOSIG RMK QFE692/0923"}, "geometry": {"type": "Point", "coordinates": [68.821, 38.544]}}, {"type": "Feature", "properties": {"id": "UTDT", "site": "Qurghonteppa Intl", "prior": "4", "obsTime": "2018-09-17T21:00:00Z", "temp": 17.0, "dewp": 13.0, "wspd": 4, "wdir": 360, "cover": "CLR", "visib": 6.21, "fltcat": "VFR", "altim": 1011.0, "rawOb": "UTDT 172100Z 36002MPS 9999 NSC 17/13 Q1011 35////// RMK QFE719/0959"}, "geometry": {"type": "Point", "coordinates": [68.865, 37.867]}}, {"type": "Feature", "properties": {"id": "OAKB", "site": "Kabul Intl", "prior": "2", "obsTime": "2018-09-17T20:50:00Z", "temp": 15.0, "dewp": 2.0, "wspd": 3, "wdir": 0, "cover": "CLR", "visib": 3.11, "fltcat": "MVFR", "altim": 1017.0, "wx": "HZ", "rawOb": "OAKB 172050Z VRB03KT 5000 HZ NSC 15/02 Q1017 NOSIG RMK A3005 WHT WHT"}, "geometry": {"type": "Point", "coordinates": [69.212, 34.566]}}, {"type": "Feature", "properties": {"id": "UTTT", "site": "Taskent Intl", "prior": "1", "obsTime": "2018-09-17T21:00:00Z", "temp": 17.0, "dewp": 4.0, "wspd": 6, "wdir": 60, "cover": "CLR", "visib": 2.49, "fltcat": "IFR", "altim": 1012.0, "wx": "FU", "rawOb": "UTTT 172100Z 06006KT 4000 FU NSC 17/04 Q1012 R08R/CLRD70 NOSIG"}, "geometry": {"type": "Point", "coordinates": [69.279, 41.258]}}, {"type": "Feature", "properties": {"id": "UAII", "site": "Shymkent Intl", "prior": "3", "obsTime": "2018-09-17T21:00:00Z", "temp": 19.0, "dewp": -1.0, "wspd": 4, "wdir": 140, "cover": "CAVOK", "visib": 6.21, "fltcat": "VFR", "altim": 1012.0, "rawOb": "UAII 172100Z 14002MPS 120V180 CAVOK 19/M01 Q1012 R10/0///70 NOSIG RMK QFE724/0965"}, "geometry": {"type": "Point", "coordinates": [69.478, 42.364]}}, {"type": "Feature", "properties": {"id": "UTDL", "site": "Khudzhand Arpt", "prior": "3", "obsTime": "2018-09-17T21:00:00Z", "temp": 18.0, "dewp": 9.0, "wspd": 6, "wdir": 250, "cover": "CLR", "visib": 6.21, "fltcat": "VFR", "altim": 1012.0, "rawOb": "UTDL 172100Z 25003MPS 9999 NSC 18/09 Q1012 R26/CLRD70 NOSIG RMK QFE721/0962"}, "geometry": {"type": "Point", "coordinates": [69.698, 40.216]}}, {"type": "Feature", "properties": {"id": "UTDK", "site": "Kolub Arpt", "prior": "3", "obsTime": "2018-09-17T21:00:00Z", "temp": 21.0, "dewp": 5.0, "wspd": 12, "wdir": 20, "cover": "CLR", "visib": 6.21, "fltcat": "VFR", "altim": 1013.0, "rawOb": "UTDK 172100Z 02006MPS 9999 NSC 21/05 Q1013 R01/09//70 RMK QFE702/0937"}, "geometry": {"type": "Point", "coordinates": [69.805, 37.988]}}, {"type": "Feature", "properties": {"id": "UADD", "site": "Taraz Auliye", "prior": "2", "obsTime": "2018-09-17T21:00:00Z", "temp": 13.0, "dewp": 1.0, "wspd": 2, "wdir": 0, "cover": "CLR", "visib": 6.21, "fltcat": "VFR", "altim": 1015.0, "rawOb": "UADD 172100Z VRB01MPS 9999 NSC 13/01 Q1015 R13/0///65 NOSIG RMK QFE704/0939"}, "geometry": {"type": "Point", "coordinates": [71.304, 42.854]}}, {"type": "Feature", "properties": {"id": "OPMT", "site": "Multan Intl", "prior": "1", "obsTime": "2018-09-17T21:00:00Z", "temp": 29.0, "dewp": 22.0, "wspd": 4, "wdir": 180, "cover": "CLR", "visib": 2.49, "fltcat": "IFR", "altim": 1004.0, "wx": "FU", "rawOb": "OPMT 172100Z 18004KT 4000 FU NSC 29/22 Q1004 NOSIG"}, "geometry": {"type": "Point", "coordinates": [71.419, 30.205]}}, {"type": "Feature", "properties": {"id": "UACC", "site": "Astana Intl", "prior": "1", "obsTime": "2018-09-17T21:00:00Z", "temp": 2.0, "dewp": 1.0, "wspd": 6, "wdir": 70, "cover": "CAVOK", "visib": 6.21, "fltcat": "VFR", "altim": 1025.0, "rawOb": "UACC 172100Z 07003MPS CAVOK 02/01 Q1025 R04/0///70 NOSIG RMK QFE737/0982"}, "geometry": {"type": "Point", "coordinates": [71.469, 51.025]}}, {"type": "Feature", "properties": {"id": "OPPS", "site": "Peshawar/Khan Intl", "prior": "3", "obsTime": "2018-09-17T21:00:00Z", "temp": 23.0, "dewp": 16.0, "wspd": 4, "wdir": 360, "cover": "SKC", "visib": 3.11, "fltcat": "MVFR", "altim": 1006.0, "wx": "HZ", "rawOb": "OPPS 172100Z 36004KT 5000 HZ SKC 23/16 Q1006"}, "geometry": {"type": "Point", "coordinates": [71.515, 33.991]}}, {"type": "Feature", "properties": {"id": "UTFN", "site": "Namangan Arpt", "prior": "3", "obsTime": "2018-09-17T21:00:00Z", "temp": 18.0, "dewp": 7.0, "wspd": 6, "wdir": 330, "cover": "CLR", "visib": 6.21, "fltcat": "VFR", "altim": 1012.0, "rawOb": "UTFN 172100Z 33006KT 9999 NSC 18/07 Q1012 R28/CLRD70 NOSIG"}, "geometry": {"type": "Point", "coordinates": [71.559, 40.985]}}, {"type": "Feature", "properties": {"id": "VAAH", "site": "Ahmadabad/Patel Intl", "prior": "1", "obsTime": "2018-09-17T21:00:00Z", "temp": 27.0, "dewp": 22.0, "wspd": 4, "wdir": 230, "cover": "FEW", "visib": 2.49, "fltcat": "IFR", "altim": 1007.0, "wx": "HZ", "rawOb": "VAAH 172100Z 23004KT 4000 HZ FEW080 27/22 Q1007 NOSIG"}, "geometry": {"type": "Point", "coordinates": [72.635, 23.077]}}, {"type": "Feature", "properties": {"id": "UCFO", "site": "Osh Intl", "prior": "7", "obsTime": "2018-09-17T21:00:00Z", "temp": 18.0, "dewp": 4.0, "wspd": 8, "wdir": 170, "cover": "CLR", "visib": 6.21, "fltcat": "VFR", "altim": 1014.0, "rawOb": "UCFO 172100Z 17004MPS 9999 NSC 18/04 Q1014 R12/CLRD70 NOSIG"}, "geometry": {"type": "Point", "coordinates": [72.793, 40.608]}}, {"type": "Feature", "properties": {"id": "VABB", "site": "Mumbai/Shivaji Intl", "prior": "0", "obsTime": "2018-09-17T21:00:00Z", "temp": 27.0, "dewp": 23.0, "wspd": 5, "wdir": 80, "cover": "FEW", "visib": 1.86, "fltcat": "IFR", "altim": 1008.0, "wx": "HZ", "rawOb": "VABB 172100Z 08005KT 3000 HZ FEW020 27/23 Q1008 NOSIG"}, "geometry": {"type": "Point", "coordinates": [72.864, 19.09]}}, {"type": "Feature", "properties": {"id": "OPRN", "site": "Islamabad/Bhuto Intl", "prior": "0", "obsTime": "2018-09-17T21:00:00Z", "temp": 21.0, "dewp": 17.0, "wspd": 4, "wdir": 50, "cover": "CAVOK", "visib": 6.21, "fltcat": "VFR", "altim": 1008.0, "rawOb": "OPRN 172100Z 05004KT CAVOK 21/17 Q1008 NOSIG RMK A2978"}, "geometry": {"type": "Point", "coordinates": [73.101, 33.616]}}, {"type": "Feature", "properties": {"id": "UNOO", "site": "Omsk Arpt", "prior": "0", "obsTime": "2018-09-17T21:00:00Z", "temp": 5.0, "dewp": 5.0, "wspd": 4, "wdir": 120, "cover": "CLR", "visib": 5.59, "fltcat": "VFR", "altim": 1027.0, "wx": "MIFG", "rawOb": "UNOO 172100Z 12002MPS 9000 MIFG NSC 05/05 Q1027 R25/CLRD60 NOSIG RMK QFE762"}, "geometry": {"type": "Point", "coordinates": [73.312, 54.967]}}, {"type": "Feature", "properties": {"id": "UAKK", "site": "Karaganda/Sary-Arka", "prior": "3", "obsTime": "2018-09-17T21:00:00Z", "temp": 0.0, "dewp": 0.0, "wspd": 6, "wdir": 100, "cover": "CAVOK", "visib": 6.21, "fltcat": "VFR", "altim": 1024.0, "rawOb": "UAKK 172100Z 10003MPS CAVOK 00/M00 Q1024 R05/0///70 NOSIG RMK QFE720/0961"}, "geometry": {"type": "Point", "coordinates": [73.337, 49.673]}}, {"type": "Feature", "properties": {"id": "VRMM", "site": "Male/Nasir Intl", "prior": "1", "obsTime": "2018-09-17T20:00:00Z", "temp": 29.0, "dewp": 24.0, "wspd": 10, "wdir": 240, "ceil": 270, "cover": "BKN", "visib": 6.21, "fltcat": "VFR", "altim": 1010.0, "rawOb": "VRMM 172000Z 24010KT 9999 SCT018TCU BKN270 29/24 Q1010 TEMPO FEW018CB"}, "geometry": {"type": "Point", "coordinates": [73.529, 4.19]}}, {"type": "Feature", "properties": {"id": "OPST", "site": "Sailkot Arpt", "prior": "4", "obsTime": "2018-09-17T20:00:00Z", "temp": 24.0, "dewp": 19.0, "wspd": 0, "wdir": 0, "cover": "CLR", "visib": 2.49, "fltcat": "IFR", "altim": 1006.0, "wx": "FU", "rawOb": "OPST 172000Z 00000KT 4000 FU NSC 24/19 Q1006 NOSIG RH75"}, "geometry": {"type": "Point", "coordinates": [74.363, 32.536]}}, {"type": "Feature", "properties": {"id": "OPLA", "site": "Lahore/Iqbal Intl", "prior": "2", "obsTime": "2018-09-17T20:55:00Z", "temp": 23.0, "dewp": 20.0, "wspd": 0, "wdir": 0, "cover": "CLR", "visib": 2.49, "fltcat": "IFR", "altim": 1006.0, "wx": "FU", "rawOb": "OPLA 172055Z 00000KT 4000 FU NSC 23/20 Q1006 NOSIG RMK QFE980 RMK A29.69"}, "geometry": {"type": "Point", "coordinates": [74.405, 31.52]}}, {"type": "Feature", "properties": {"id": "UCFM", "site": "Manas Intl", "prior": "2", "obsTime": "2018-09-17T21:00:00Z", "temp": 13.0, "dewp": 2.0, "wspd": 8, "wdir": 110, "cover": "CAVOK", "visib": 6.21, "fltcat": "VFR", "altim": 1014.0, "rawOb": "UCFM 172100Z 11004MPS CAVOK 13/02 Q1014 R08/CLRD70 NOSIG"}, "geometry": {"type": "Point", "coordinates": [74.478, 43.062]}}, {"type": "Feature", "properties": {"id": "VIAR", "site": "Amritsar/Jee Intl", "prior": "6", "obsTime": "2018-09-17T21:00:00Z", "temp": 23.0, "dewp": 22.0, "wspd": 0, "wdir": 0, "cover": "FEW", "visib": 3.11, "fltcat": "MVFR", "altim": 1006.0, "wx": "BR", "rawOb": "VIAR 172100Z 00000KT 5000 BR FEW035 23/22 Q1006 NOSIG"}, "geometry": {"type": "Point", "coordinates": [74.797, 31.706]}}, {"type": "Feature", "properties": {"id": "VOML", "site": "Mangalore/Bajpe", "prior": "2", "obsTime": "2018-09-17T21:00:00Z", "temp": 25.0, "dewp": 23.0, "wspd": 0, "wdir": 0, "cover": "SCT", "visib": 3.73, "fltcat": "MVFR", "altim": 1008.0, "rawOb": "VOML 172100Z 00000KT 6000 FEW008 SCT015 25/23 Q1008 BECMG 4000 BR"}, "geometry": {"type": "Point", "coordinates": [74.89, 12.961]}}, {"type": "Feature", "properties": {"id": "VIJP", "site": "Jaipur Intl", "prior": "3", "obsTime": "2018-09-17T21:00:00Z", "temp": 26.0, "dewp": 19.0, "wspd": 0, "wdir": 0, "cover": "CLR", "visib": 1.55, "fltcat": "IFR", "altim": 1007.0, "wx": "HZ", "rawOb": "VIJP 172100Z 00000KT 2500 HZ NSC 26/19 Q1007 NOSIG"}, "geometry": {"type": "Point", "coordinates": [75.81, 26.824]}}, {"type": "Feature", "properties": {"id": "VOCL", "site": "Calicut Intl", "prior": "3", "obsTime": "2018-09-17T21:00:00Z", "temp": 25.0, "dewp": 22.0, "wspd": 0, "wdir": 0, "cover": "SCT", "visib": 3.73, "fltcat": "MVFR", "altim": 1008.0, "rawOb": "VOCL 172100Z 00000KT 6000 FEW015 SCT090 25/22 Q1008 NOSIG"}, "geometry": {"type": "Point", "coordinates": [75.957, 11.136]}}, {"type": "Feature", "properties": {"id": "ZWSH", "site": "Kashgar Arpt", "prior": "1", "obsTime": "2018-09-17T21:00:00Z", "temp": 14.0, "dewp": 8.0, "wspd": 6, "wdir": 310, "cover": "CAVOK", "visib": 6.21, "fltcat": "VFR", "altim": 1019.0, "rawOb": "ZWSH 172100Z 31003MPS CAVOK 14/08 Q1019 NOSIG"}, "geometry": {"type": "Point", "coordinates": [76.016, 39.542]}}, {"type": "Feature", "properties": {"id": "VOCI", "site": "Cochin Intl", "prior": "0", "obsTime": "2018-09-17T21:00:00Z", "temp": 26.0, "dewp": 23.0, "wspd": 0, "wdir": 0, "cover": "SCT", "visib": 2.17, "fltcat": "IFR", "altim": 1008.0, "wx": "HZ", "rawOb": "VOCI 172100Z 00000KT 3500 HZ SCT015 SCT090 26/23 Q1008 NOSIG"}, "geometry": {"type": "Point", "coordinates": [76.4, 10.15]}}, {"type": "Feature", "properties": {"id": "UCFL", "site": "Tamchy/Issyk-Kul Int", "prior": "3", "obsTime": "2018-09-17T21:00:00Z", "temp": 10.0, "dewp": -3.0, "wspd": 10, "wdir": 350, "cover": "CLR", "visib": 6.21, "fltcat": "VFR", "altim": 1020.0, "rawOb": "UCFL 172100Z 35005MPS 9999 NSC 10/M03 Q1020 R07/CLRD70"}, "geometry": {"type": "Point", "coordinates": [76.704, 42.586]}}, {"type": "Feature", "properties": {"id": "VOTV", "site": "Thiruvananthapuram I", "prior": "3", "obsTime": "2018-09-17T21:00:00Z", "temp": 26.0, "dewp": 23.0, "wspd": 5, "wdir": 300, "cover": "SCT", "visib": 1.86, "fltcat": "IFR", "altim": 1008.0, "wx": "HZ", "rawOb": "VOTV 172100Z 30005KT 3000 HZ FEW015 SCT090 26/23 Q1008 NOSIG"}, "geometry": {"type": "Point", "coordinates": [76.919, 8.483]}}, {"type": "Feature", "properties": {"id": "UAAA", "site": "Almaty Intl", "prior": "2", "obsTime": "2018-09-17T21:00:00Z", "temp": 11.0, "dewp": 2.0, "wspd": 6, "wdir": 160, "cover": "FEW", "visib": 6.21, "fltcat": "VFR", "altim": 1016.0, "rawOb": "UAAA 172100Z 16003MPS 9999 FEW100 11/02 Q1016 R23L/CLRD65 NOSIG"}, "geometry": {"type": "Point", "coordinates": [77.039, 43.353]}}, {"type": "Feature", "properties": {"id": "VOCB", "site": "Coimbatore Arpt", "prior": "4", "obsTime": "2018-09-17T21:00:00Z", "temp": 24.0, "dewp": 22.0, "wspd": 5, "wdir": 200, "cover": "FEW", "visib": 3.73, "fltcat": "MVFR", "altim": 1009.0, "rawOb": "VOCB 172100Z 20005KT 6000 FEW015 24/22 Q1009 TEMPO 5000 BR"}, "geometry": {"type": "Point", "coordinates": [77.047, 11.034]}}, {"type": "Feature", "properties": {"id": "UASP", "site": "Pavlodar Arpt", "prior": "2", "obsTime": "2018-09-17T21:00:00Z", "temp": 3.0, "dewp": 3.0, "wspd": 4, "wdir": 30, "cover": "CLR", "visib": 6.21, "fltcat": "VFR", "altim": 1026.0, "wx": "MIFG", "rawOb": "UASP 172100Z 03002MPS 9999 MIFG NSC 03/03 Q1026 R21/0///70 NOSIG RMK QFE758/1011"}, "geometry": {"type": "Point", "coordinates": [77.074, 52.196]}}, {"type": "Feature", "properties": {"id": "VIDP", "site": "New Delhi/Gandhi Int", "prior": "0", "obsTime": "2018-09-17T21:00:00Z", "temp": 27.0, "dewp": 25.0, "wspd": 5, "wdir": 270, "cover": "CLR", "visib": 2.49, "fltcat": "IFR", "altim": 1006.0, "wx": "BR", "rawOb": "VIDP 172100Z 27005KT 4000 BR NSC 27/25 Q1006 NOSIG"}, "geometry": {"type": "Point", "coordinates": [77.088, 28.556]}}, {"type": "Feature", "properties": {"id": "VOBL", "site": "Bangalore Intl", "prior": "2", "obsTime": "2018-09-17T21:00:00Z", "temp": 21.0, "dewp": 21.0, "wspd": 4, "wdir": 300, "cover": "SCT", "visib": 3.73, "fltcat": "MVFR", "altim": 1012.0, "rawOb": "VOBL 172100Z 30004KT 6000 SCT012 SCT080 21/21 Q1012 NOSIG"}, "geometry": {"type": "Point", "coordinates": [77.707, 13.207]}}, {"type": "Feature", "properties": {"id": "VOMD", "site": "Madurai Intl", "prior": "3", "obsTime": "2018-09-17T21:00:00Z", "temp": 27.0, "dewp": 22.0, "wspd": 3, "wdir": 340, "cover": "SCT", "visib": 2.49, "fltcat": "IFR", "altim": 1007.0, "wx": "HZ", "rawOb": "VOMD 172100Z 34003KT 4000 HZ FEW018 SCT090 27/22 Q1007 NOSIG"}, "geometry": {"type": "Point", "coordinates": [78.093, 9.834]}}, {"type": "Feature", "properties": {"id": "VOHS", "site": "Hyderabad/Gandhi Int", "prior": "1", "obsTime": "2018-09-17T21:00:00Z", "temp": 22.0, "dewp": 21.0, "wspd": 3, "wdir": 200, "ceil": 80, "cover": "BKN", "visib": 3.11, "fltcat": "MVFR", "altim": 1009.0, "wx": "HZ", "rawOb": "VOHS 172100Z 20003KT 5000 HZ SCT015 BKN080 22/21 Q1009 NOSIG"}, "geometry": {"type": "Point", "coordinates": [78.429, 17.24]}}, {"type": "Feature", "properties": {"id": "VOTR", "site": "Tiruchchirapalli Arp", "prior": "2", "obsTime": "2018-09-17T21:00:00Z", "temp": 28.0, "dewp": 23.0, "wspd": 8, "wdir": 290, "cover": "SCT", "visib": 3.73, "fltcat": "MVFR", "altim": 1006.0, "rawOb": "VOTR 172100Z 29008KT 6000 FEW018 SCT100 28/23 Q1006 NOSIG"}, "geometry": {"type": "Point", "coordinates": [78.71, 10.765]}}, {"type": "Feature", "properties": {"id": "VANP", "site": "Nagpur/Ambedkar Intl", "prior": "1", "obsTime": "2018-09-17T21:00:00Z", "temp": 25.0, "dewp": 23.0, "wspd": 0, "wdir": 0, "cover": "SCT", "visib": 3.11, "fltcat": "MVFR", "altim": 1007.0, "wx": "HZ", "rawOb": "VANP 172100Z 00000KT 5000 HZ FEW020 SCT100 25/23 Q1007 NOSIG"}, "geometry": {"type": "Point", "coordinates": [79.048, 21.092]}}, {"type": "Feature", "properties": {"id": "VCBI", "site": "Colombo/Katunay", "prior": "1", "obsTime": "2018-09-17T20:10:00Z", "temp": 28.0, "dewp": 23.0, "wspd": 9, "wdir": 230, "cover": "FEW", "visib": 6.21, "fltcat": "VFR", "altim": 1009.0, "rawOb": "VCBI 172010Z 23009KT 9999 FEW017 28/23 Q1009 NOSIG"}, "geometry": {"type": "Point", "coordinates": [79.88, 7.17]}}, {"type": "Feature", "properties": {"id": "VOMM", "site": "Chennai Intl", "prior": "1", "obsTime": "2018-09-17T21:00:00Z", "temp": 23.0, "dewp": 23.0, "wspd": 8, "wdir": 250, "ceil": 80, "cover": "OVC", "visib": 1.86, "fltcat": "IFR", "altim": 1006.0, "wx": "TSRA", "rawOb": "VOMM 172100Z 25008KT 3000 TSRA SCT015 FEW025CB OVC080 23/23 Q1006 TEMPO 1500 +TSRA"}, "geometry": {"type": "Point", "coordinates": [80.181, 12.994]}}, {"type": "Feature", "properties": {"id": "VILK", "site": "Lucknow/Singh Arpt", "prior": "1", "obsTime": "2018-09-17T21:00:00Z", "temp": 27.0, "dewp": 25.0, "wspd": 2, "wdir": 0, "cover": "CLR", "visib": 1.86, "fltcat": "IFR", "altim": 1005.0, "wx": "BR", "rawOb": "VILK 172100Z VRB02KT 3000 BR NSC 27/25 Q1005 NOSIG"}, "geometry": {"type": "Point", "coordinates": [80.888, 26.76]}}, {"type": "Feature", "properties": {"id": "UASK", "site": "Oskemen Arpt", "prior": "1", "obsTime": "2018-09-17T21:00:00Z", "temp": 4.0, "dewp": 3.0, "wspd": 6, "wdir": 290, "cover": "FEW", "visib": 6.21, "fltcat": "VFR", "altim": 1021.0, "rawOb": "UASK 172100Z 29003MPS 9999 FEW230 04/03 Q1021 R30/090060 NOSIG RMK QFE740/0987"}, "geometry": {"type": "Point", "coordinates": [82.498, 50.034]}}, {"type": "Feature", "properties": {"id": "UNNT", "site": "Novosibirsk/Tolmache", "prior": "3", "obsTime": "2018-09-17T21:00:00Z", "temp": -1.0, "dewp": -2.0, "wspd": 4, "wdir": 280, "cover": "CAVOK", "visib": 6.21, "fltcat": "VFR", "altim": 1026.0, "rawOb": "UNNT 172100Z 28002MPS CAVOK M01/M02 Q1026 R25/090070 R16/090070 NOSIG RMK QFE759/1012"}, "geometry": {"type": "Point", "coordinates": [82.659, 55.013]}}, {"type": "Feature", "properties": {"id": "VEBN", "site": "Varanasi/Shastri Int", "prior": "3", "obsTime": "2018-09-17T20:30:00Z", "temp": 28.0, "dewp": 24.0, "wspd": 2, "wdir": 0, "cover": "SCT", "visib": 2.17, "fltcat": "IFR", "altim": 1004.0, "wx": "HZ", "rawOb": "VEBN 172030Z VRB02KT 3500 HZ SCT100 28/24 Q1004 BECMG 3000 HZ"}, "geometry": {"type": "Point", "coordinates": [82.858, 25.452]}}, {"type": "Feature", "properties": {"id": "UNBB", "site": "Barnaul Arpt", "prior": "2", "obsTime": "2018-09-17T21:00:00Z", "temp": 5.0, "dewp": 1.0, "wspd": 4, "wdir": 320, "cover": "CAVOK", "visib": 6.21, "fltcat": "VFR", "altim": 1024.0, "rawOb": "UNBB 172100Z 32002MPS CAVOK 05/01 Q1024 R06/190057 NOSIG RMK QFE746"}, "geometry": {"type": "Point", "coordinates": [83.544, 53.365]}}, {"type": "Feature", "properties": {"id": "VEGY", "site": "Gaya Arpt", "prior": "4", "obsTime": "2018-09-17T21:00:00Z", "temp": 26.0, "dewp": 24.0, "wspd": 5, "wdir": 180, "cover": "CLR", "visib": 2.49, "fltcat": "IFR", "altim": 1005.0, "wx": "HZ", "rawOb": "VEGY 172100Z 18005KT 4000 HZ NSC 26/24 Q1005"}, "geometry": {"type": "Point", "coordinates": [84.951, 24.744]}}, {"type": "Feature", "properties": {"id": "VEPT", "site": "Patna/Narayan Intl", "prior": "1", "obsTime": "2018-09-17T21:00:00Z", "temp": 28.0, "dewp": 26.0, "wspd": 0, "wdir": 0, "cover": "SCT", "visib": 2.49, "fltcat": "IFR", "altim": 1004.0, "wx": "HZ", "rawOb": "VEPT 172100Z 00000KT 4000 HZ FEW020 SCT100 28/26 Q1004 NOSIG"}, "geometry": {"type": "Point", "coordinates": [85.088, 25.591]}}, {"type": "Feature", "properties": {"id": "UNTT", "site": "Tomsk/Bogashevo Arpt", "prior": "3", "obsTime": "2018-09-17T21:00:00Z", "temp": -1.0, "dewp": -2.0, "wspd": 4, "wdir": 220, "cover": "CAVOK", "visib": 6.21, "fltcat": "VFR", "altim": 1023.0, "rawOb": "UNTT 172100Z 22002MPS CAVOK M01/M02 Q1023 NOSIG RMK QFE752"}, "geometry": {"type": "Point", "coordinates": [85.211, 56.383]}}, {"type": "Feature", "properties": {"id": "VERC", "site": "Ranchi Arpt", "prior": "2", "obsTime": "2018-09-17T21:00:00Z", "temp": 24.0, "dewp": 22.0, "wspd": 0, "wdir": 0, "cover": "FEW", "visib": 1.86, "fltcat": "IFR", "altim": 1009.0, "wx": "HZ", "rawOb": "VERC 172100Z 00000KT 3000 HZ FEW100 24/22 Q1009 NOSIG"}, "geometry": {"type": "Point", "coordinates": [85.322, 23.314]}}, {"type": "Feature", "properties": {"id": "VNKT", "site": "Kathmandu/Tribhuvan", "prior": "1", "obsTime": "2018-09-17T19:50:00Z", "temp": 20.0, "dewp": 19.0, "wspd": 2, "wdir": 0, "cover": "FEW", "visib": 4.97, "fltcat": "MVFR", "altim": 1014.0, "rawOb": "VNKT 171950Z VRB02KT 8000 FEW015 20/19 Q1014 NOSIG"}, "geometry": {"type": "Point", "coordinates": [85.359, 27.696]}}, {"type": "Feature", "properties": {"id": "VEBS", "site": "Bhubaneswar Intl", "prior": "2", "obsTime": "2018-09-17T21:00:00Z", "temp": 27.0, "dewp": 26.0, "wspd": 3, "wdir": 300, "cover": "SCT", "visib": 2.17, "fltcat": "IFR", "altim": 1004.0, "wx": "HZ", "rawOb": "VEBS 172100Z 30003KT 3500 HZ SCT020 27/26 Q1004 NOSIG"}, "geometry": {"type": "Point", "coordinates": [85.818, 20.244]}}, {"type": "Feature", "properties": {"id": "UNEE", "site": "Kemerovo Intl", "prior": "2", "obsTime": "2018-09-17T21:00:00Z", "temp": 5.0, "dewp": 3.0, "wspd": 6, "wdir": 290, "cover": "CAVOK", "visib": 6.21, "fltcat": "VFR", "altim": 1023.0, "rawOb": "UNEE 172100Z 29003MPS CAVOK 05/03 Q1023 R23/CLRD60 NOSIG RMK QFE744"}, "geometry": {"type": "Point", "coordinates": [86.113, 55.272]}}, {"type": "Feature", "properties": {"id": "ZWWW", "site": "Urum-Qi/Diwopu Arpt", "prior": "0", "obsTime": "2018-09-17T21:00:00Z", "temp": 15.0, "dewp": 2.0, "wspd": 8, "wdir": 250, "cover": "CAVOK", "visib": 6.21, "fltcat": "VFR", "altim": 1013.0, "rawOb": "ZWWW 172100Z 25004MPS CAVOK 15/02 Q1013 NOSIG"}, "geometry": {"type": "Point", "coordinates": [87.476, 43.905]}}, {"type": "Feature", "properties": {"id": "VECC", "site": "Kolkata/Bose Intl", "prior": "0", "obsTime": "2018-09-17T21:00:00Z", "temp": 29.0, "dewp": 27.0, "wspd": 3, "wdir": 310, "cover": "SCT", "visib": 1.99, "fltcat": "IFR", "altim": 1003.0, "wx": "HZ", "rawOb": "VECC 172100Z 31003KT 3200 HZ SCT020 SCT100 29/27 Q1003 NOSIG"}, "geometry": {"type": "Point", "coordinates": [88.447, 22.653]}}, {"type": "Feature", "properties": {"id": "VGHS", "site": "Dhaka/Shahjalal Intl", "prior": "2", "obsTime": "2018-09-17T21:00:00Z", "temp": 28.0, "dewp": 25.0, "wspd": 4, "wdir": 340, "cover": "FEW", "visib": 2.17, "fltcat": "IFR", "altim": 1003.0, "wx": "HZ", "rawOb": "VGHS 172100Z 34004KT 3500 HZ FEW015 28/25 Q1003 NOSIG"}, "geometry": {"type": "Point", "coordinates": [90.397, 23.845]}}, {"type": "Feature", "properties": {"id": "UNAA", "site": "Abakan Intl Arpt", "prior": "1", "obsTime": "2018-09-17T21:00:00Z", "temp": 7.0, "dewp": 4.0, "wspd": 4, "wdir": 330, "cover": "SCT", "visib": 6.21, "fltcat": "VFR", "altim": 1021.0, "rawOb": "UNAA 172100Z 33002MPS 9999 SCT048CB 07/04 Q1021 R02/290055 NOSIG RMK QFE743"}, "geometry": {"type": "Point", "coordinates": [91.388, 53.744]}}, {"type": "Feature", "properties": {"id": "VEGT", "site": "Gauhati Arpt", "prior": "2", "obsTime": "2018-09-17T21:00:00Z", "temp": 28.0, "dewp": 27.0, "wspd": 2, "wdir": 180, "cover": "SCT", "visib": 1.55, "fltcat": "IFR", "altim": 1004.0, "wx": "BR", "rawOb": "VEGT 172100Z 18002KT 2500 BR FEW018 SCT100 28/27 Q1004 NOSIG"}, "geometry": {"type": "Point", "coordinates": [91.59, 26.107]}}, {"type": "Feature", "properties": {"id": "UNKL", "site": "Krasnoyarsk Arpt", "prior": "2", "obsTime": "2018-09-17T21:00:00Z", "temp": 2.0, "dewp": 2.0, "wspd": 2, "wdir": 270, "cover": "SCT", "visib": 6.21, "fltcat": "VFR", "altim": 1020.0, "rawOb": "UNKL 172100Z 27001MPS 9999 SCT048 02/02 Q1020 R29/CLRD65 NOSIG RMK QFE739"}, "geometry": {"type": "Point", "coordinates": [92.491, 56.173]}}, {"type": "Feature", "properties": {"id": "KRAW", "site": "Warsaw Muni", "prior": "6", "obsTime": "2018-09-17T20:55:00Z", "wspd": 0, "wdir": 0, "cover": "CLR", "visib": 10.0, "fltcat": "VFR", "altim": 1014.3, "rawOb": "KRAW 172055Z AUTO 00000KT 10SM CLR A2995 RMK AO2"}, "geometry": {"type": "Point", "coordinates": [93.345, 38.347]}}, {"type": "Feature", "properties": {"id": "VYYY", "site": "Yangon Intl", "prior": "1", "obsTime": "2018-09-17T21:00:00Z", "temp": 26.0, "dewp": 25.0, "wspd": 3, "wdir": 110, "cover": "SCT", "visib": 3.73, "fltcat": "MVFR", "altim": 1002.0, "rawOb": "VYYY 172100Z 11003KT 6000 SCT016 FEW020CB SCT100 26/25 Q1002"}, "geometry": {"type": "Point", "coordinates": [96.133, 16.906]}}, {"type": "Feature", "properties": {"id": "VTSP", "site": "Phuket Intl", "prior": "3", "obsTime": "2018-09-17T21:00:00Z", "temp": 25.0, "dewp": 22.0, "wspd": 6, "wdir": 240, "ceil": 100, "cover": "BKN", "visib": 4.97, "fltcat": "MVFR", "altim": 1010.0, "rawOb": "VTSP 172100Z 24006KT 160V280 8000 SCT020 BKN100 25/22 Q1010 NOSIG"}, "geometry": {"type": "Point", "coordinates": [98.316, 8.113]}}, {"type": "Feature", "properties": {"id": "VTSR", "site": "Ranong Arpt", "prior": "3", "obsTime": "2018-09-17T21:00:00Z", "temp": 23.0, "dewp": 23.0, "wspd": 5, "wgst": 15, "wdir": 250, "ceil": 15, "cover": "BKN", "visib": 3.73, "fltcat": "MVFR", "altim": 1008.0, "wx": "-RA", "rawOb": "VTSR 172100Z 25005G15KT 170V310 6000 -RA BKN015 23/23 Q1008 NOSIG"}, "geometry": {"type": "Point", "coordinates": [98.586, 9.778]}}, {"type": "Feature", "properties": {"id": "WIMM", "site": "Medan/Polonia Intl", "prior": "2", "obsTime": "2018-09-17T19:30:00Z", "temp": 24.0, "dewp": 23.0, "wspd": 3, "wdir": 180, "cover": "SCT", "visib": 2.49, "fltcat": "IFR", "altim": 1009.0, "wx": "BR", "rawOb": "WIMM 171930Z 18003KT 4000 BR SCT018 24/23 Q1009 NOSIG"}, "geometry": {"type": "Point", "coordinates": [98.672, 3.559]}}, {"type": "Feature", "properties": {"id": "VTCC", "site": "Chiang Mai Intl", "prior": "1", "obsTime": "2018-09-17T21:00:00Z", "temp": 25.0, "dewp": 22.0, "wspd": 5, "wdir": 350, "cover": "FEW", "visib": 6.21, "fltcat": "VFR", "altim": 1006.0, "rawOb": "VTCC 172100Z 35005KT 9999 FEW035 25/22 Q1006 NOSIG"}, "geometry": {"type": "Point", "coordinates": [98.963, 18.768]}}, {"type": "Feature", "properties": {"id": "VTSG", "site": "Krabi Arpt", "prior": "5", "obsTime": "2018-09-17T21:00:00Z", "temp": 24.0, "dewp": 24.0, "wspd": 13, "wgst": 23, "wdir": 250, "ceil": 18, "cover": "OVC", "visib": 0.81, "fltcat": "LIFR", "altim": 1009.0, "wx": "+RA", "rawOb": "VTSG 172100Z 25013G23KT 1300 +RA BKN018 OVC020 24/24 Q1009 TEMPO TL2115 1300 +RA"}, "geometry": {"type": "Point", "coordinates": [98.986, 8.099]}}, {"type": "Feature", "properties": {"id": "WMKL", "site": "Langkawi Arpt", "prior": "5", "obsTime": "2018-09-17T21:00:00Z", "temp": 24.0, "dewp": 23.0, "wspd": 3, "wdir": 0, "ceil": 270, "cover": "BKN", "visib": 4.35, "fltcat": "MVFR", "altim": 1009.0, "rawOb": "WMKL 172100Z VRB03KT 7000 FEW010 SCT140 BKN270 24/23 Q1009"}, "geometry": {"type": "Point", "coordinates": [99.729, 6.33]}}, {"type": "Feature", "properties": {"id": "VTCT", "site": "Chiang Rai Intl", "prior": "3", "obsTime": "2018-09-17T21:00:00Z", "temp": 24.0, "dewp": 24.0, "wspd": 4, "wdir": 30, "cover": "FEW", "visib": 6.21, "fltcat": "VFR", "altim": 1005.0, "rawOb": "VTCT 172100Z 03004KT 9999 FEW030 24/24 Q1005 NOSIG"}, "geometry": {"type": "Point", "coordinates": [99.883, 19.952]}}, {"type": "Feature", "properties": {"id": "WMKP", "site": "Penang Intl", "prior": "3", "obsTime": "2018-09-17T21:00:00Z", "temp": 24.0, "dewp": 23.0, "wspd": 1, "wdir": 0, "ceil": 260, "cover": "BKN", "visib": 4.35, "fltcat": "MVFR", "altim": 1009.0, "wx": "-RA", "rawOb": "WMKP 172100Z VRB01KT 7000 -RA FEW008 SCT024 BKN260 24/23 Q1009 NOSIG"}, "geometry": {"type": "Point", "coordinates": [100.276, 5.296]}}, {"type": "Feature", "properties": {"id": "WIEE", "site": "Padang/Minangkabau I", "prior": "2", "obsTime": "2018-09-17T19:30:00Z", "temp": 24.0, "dewp": 23.0, "wspd": 2, "wdir": 330, "ceil": 75, "cover": "OVC", "visib": 4.35, "fltcat": "MVFR", "altim": 1009.0, "rawOb": "WIEE 171930Z AUTO 33002KT 7000 OVC075 24/23 Q1009"}, "geometry": {"type": "Point", "coordinates": [100.286, -0.788]}}, {"type": "Feature", "properties": {"id": "WMKB", "site": "Butterworth Arpt", "prior": "6", "obsTime": "2018-09-17T21:00:00Z", "temp": 24.0, "dewp": 23.0, "wspd": 2, "wdir": 0, "ceil": 260, "cover": "BKN", "visib": 4.35, "fltcat": "MVFR", "altim": 1009.0, "wx": "-RA", "rawOb": "WMKB 172100Z VRB02KT 7000 -RA SCT024 SCT140 BKN260 24/23 Q1009 NOSIG"}, "geometry": {"type": "Point", "coordinates": [100.391, 5.465]}}, {"type": "Feature", "properties": {"id": "VTSS", "site": "Hat Yai Intl", "prior": "1", "obsTime": "2018-09-17T21:00:00Z", "temp": 23.0, "dewp": 22.0, "wspd": 5, "wdir": 230, "ceil": 100, "cover": "BKN", "visib": 6.21, "fltcat": "VFR", "altim": 1009.0, "rawOb": "VTSS 172100Z 23005KT 9999 FEW020 BKN100 23/22 Q1009 NOSIG"}, "geometry": {"type": "Point", "coordinates": [100.395, 6.934]}}, {"type": "Feature", "properties": {"id": "WMKA", "site": "Alor Setar/Halim Arp", "prior": "4", "obsTime": "2018-09-17T21:00:00Z", "temp": 23.0, "dewp": 23.0, "wspd": 0, "wdir": 0, "ceil": 260, "cover": "OVC", "visib": 4.97, "fltcat": "MVFR", "altim": 1009.0, "wx": "-RA", "rawOb": "WMKA 172100Z 00000KT 8000 -RA SCT030 SCT140 OVC260 23/23 Q1009"}, "geometry": {"type": "Point", "coordinates": [100.398, 6.19]}}, {"type": "Feature", "properties": {"id": "VTBD", "site": "Bangkok Intl", "prior": "0", "obsTime": "2018-09-17T21:00:00Z", "temp": 28.0, "dewp": 24.0, "wspd": 6, "wdir": 190, "cover": "FEW", "visib": 6.21, "fltcat": "VFR", "altim": 1006.0, "rawOb": "VTBD 172100Z 19006KT 9999 FEW020 28/24 Q1006 NOSIG"}, "geometry": {"type": "Point", "coordinates": [100.607, 13.917]}}, {"type": "Feature", "properties": {"id": "WMBA", "site": "Sitiawan Airstrip", "prior": "3", "obsTime": "2018-09-17T21:00:00Z", "temp": 22.0, "dewp": 22.0, "wspd": 4, "wdir": 20, "ceil": 260, "cover": "OVC", "visib": 2.49, "fltcat": "IFR", "altim": 1010.0, "wx": "RA", "rawOb": "WMBA 172100Z 02004KT 290V080 4000 RA SCT026 SCT160 OVC260 22/22 Q1010"}, "geometry": {"type": "Point", "coordinates": [100.699, 4.222]}}, {"type": "Feature", "properties": {"id": "VTBS", "site": "Bangkok/Suvarnabhumi", "prior": "6", "obsTime": "2018-09-17T21:00:00Z", "temp": 28.0, "dewp": 22.0, "wspd": 8, "wdir": 200, "cover": "FEW", "visib": 6.21, "fltcat": "VFR", "altim": 1005.0, "rawOb": "VTBS 172100Z 20008KT 160V230 9999 FEW020 28/22 Q1005 NOSIG"}, "geometry": {"type": "Point", "coordinates": [100.747, 13.682]}}, {"type": "Feature", "properties": {"id": "VTBU", "site": "Rayong/U-Tapao Intl", "prior": "3", "obsTime": "2018-09-17T21:00:00Z", "temp": 27.0, "dewp": 22.0, "wspd": 6, "wdir": 220, "cover": "FEW", "visib": 4.35, "fltcat": "MVFR", "altim": 1006.0, "rawOb": "VTBU 172100Z 22006KT 7000 FEW020 27/22 Q1006 NOSIG"}, "geometry": {"type": "Point", "coordinates": [101.005, 12.681]}}, {"type": "Feature", "properties": {"id": "WMKI", "site": "Ipoh/Azlan Shah Arpt", "prior": "5", "obsTime": "2018-09-17T21:00:00Z", "temp": 22.0, "dewp": 22.0, "wspd": 4, "wdir": 120, "ceil": 260, "cover": "BKN", "visib": 1.86, "fltcat": "IFR", "altim": 1010.0, "wx": "TSRA", "rawOb": "WMKI 172100Z 12004KT 070V180 3000 TSRA FEW007 FEW017CB SCT130 BKN260 22/22 Q1010"}, "geometry": {"type": "Point", "coordinates": [101.092, 4.568]}}, {"type": "Feature", "properties": {"id": "WIBB", "site": "Pakanbaru/Tiga Arpt", "prior": "3", "obsTime": "2018-09-17T21:00:00Z", "temp": 24.0, "dewp": 23.0, "wspd": 0, "wdir": 0, "cover": "FEW", "visib": 4.35, "fltcat": "MVFR", "altim": 1008.0, "rawOb": "WIBB 172100Z 00000KT 7000 FEW015 24/23 Q1008"}, "geometry": {"type": "Point", "coordinates": [101.444, 0.461]}}, {"type": "Feature", "properties": {"id": "WMSA", "site": "Kuala Lumpur/Shah Ar", "prior": "2", "obsTime": "2018-09-17T21:00:00Z", "temp": 24.0, "dewp": 22.0, "wspd": 0, "wdir": 0, "ceil": 260, "cover": "OVC", "visib": 4.35, "fltcat": "MVFR", "altim": 1011.0, "rawOb": "WMSA 172100Z 00000KT 7000 FEW008 FEW017CB SCT140 OVC260 24/22 Q1011"}, "geometry": {"type": "Point", "coordinates": [101.55, 3.129]}}, {"type": "Feature", "properties": {"id": "UIBB", "site": "Bratsk Arpt", "prior": "0", "obsTime": "2018-09-17T21:00:00Z", "temp": 2.0, "dewp": 2.0, "wspd": 4, "wdir": 270, "cover": "CLR", "visib": 6.21, "fltcat": "VFR", "altim": 1016.0, "rawOb": "UIBB 172100Z AUTO 27002MPS 130V290 9999 // NCD 02/02 Q1016 RMK QFE719/0959"}, "geometry": {"type": "Point", "coordinates": [101.7, 56.37]}}, {"type": "Feature", "properties": {"id": "WMKK", "site": "Kuala Lumpur Intl", "prior": "6", "obsTime": "2018-09-17T21:00:00Z", "temp": 23.0, "dewp": 23.0, "wspd": 5, "wdir": 140, "ceil": 270, "cover": "BKN", "visib": 3.11, "fltcat": "MVFR", "altim": 1010.0, "wx": "-TSRA", "rawOb": "WMKK 172100Z 14005KT 090V180 5000 -TSRA FEW008 FEW016CB SCT028 BKN270 23/23 Q1010 TEMPO 4000 TSRA"}, "geometry": {"type": "Point", "coordinates": [101.712, 2.747]}}, {"type": "Feature", "properties": {"id": "WMKM", "site": "Malacca/Lapangen Arp", "prior": "3", "obsTime": "2018-09-17T21:00:00Z", "temp": 25.0, "dewp": 23.0, "wspd": 3, "wdir": 0, "ceil": 270, "cover": "BKN", "visib": 5.59, "fltcat": "VFR", "altim": 1010.0, "wx": "TS", "rawOb": "WMKM 172100Z VRB03KT 9000 TS FEW017CB SCT028 BKN270 25/23 Q1010"}, "geometry": {"type": "Point", "coordinates": [102.252, 2.264]}}, {"type": "Feature", "properties": {"id": "WMKC", "site": "Kota Bharu Arpt", "prior": "3", "obsTime": "2018-09-17T21:00:00Z", "temp": 23.0, "dewp": 22.0, "wspd": 3, "wdir": 0, "ceil": 220, "cover": "BKN", "visib": 6.21, "fltcat": "VFR", "altim": 1010.0, "rawOb": "WMKC 172100Z VRB03KT 9999 FEW017CB SCT140 BKN220 23/22 Q1010"}, "geometry": {"type": "Point", "coordinates": [102.293, 6.167]}}, {"type": "Feature", "properties": {"id": "VTUQ", "site": "Nakhon Ratchasima Ar", "prior": "4", "obsTime": "2018-09-17T21:00:00Z", "temp": 23.0, "dewp": 23.0, "wspd": 3, "wdir": 0, "altim": 1006.0, "rawOb": "VTUQ 172100Z AUTO VRB03KT ////NDV ////// 23/23 Q1006 A2973"}, "geometry": {"type": "Point", "coordinates": [102.313, 14.949]}}, {"type": "Feature", "properties": {"id": "ZPPP", "site": "Kunming/Changshui In", "prior": "1", "obsTime": "2018-09-17T21:00:00Z", "temp": 14.0, "dewp": 13.0, "wspd": 8, "wdir": 40, "ceil": 36, "cover": "OVC", "visib": 2.49, "fltcat": "IFR", "altim": 1019.0, "wx": "-RA BR", "rawOb": "ZPPP 172100Z 04004MPS 4000 -RA BR FEW006 SCT023 OVC036 14/13 Q1019 NOSIG"}, "geometry": {"type": "Point", "coordinates": [102.748, 24.998]}}, {"type": "Feature", "properties": {"id": "VTUK", "site": "Khon Kaen Arpt", "prior": "3", "obsTime": "2018-09-17T21:00:00Z", "temp": 24.0, "dewp": 24.0, "wspd": 3, "wdir": 0, "ceil": 100, "cover": "BKN", "visib": 4.35, "fltcat": "MVFR", "altim": 1006.0, "rawOb": "VTUK 172100Z VRB03KT 7000 FEW025 BKN100 24/24 Q1006 NOSIG"}, "geometry": {"type": "Point", "coordinates": [102.783, 16.465]}}, {"type": "Feature", "properties": {"id": "WMKN", "site": "Kuala Terengganu Arp", "prior": "2", "obsTime": "2018-09-17T20:00:00Z", "temp": 25.0, "dewp": 24.0, "wspd": 3, "wdir": 190, "ceil": 300, "cover": "BKN", "visib": 6.21, "fltcat": "VFR", "altim": 1008.0, "rawOb": "WMKN 172000Z 19003KT 150V240 9999 FEW017CB SCT022 BKN300 25/24 Q1008"}, "geometry": {"type": "Point", "coordinates": [103.103, 5.383]}}, {"type": "Feature", "properties": {"id": "WMKD", "site": "Kuantan Arpt", "prior": "3", "obsTime": "2018-09-17T21:00:00Z", "temp": 25.0, "dewp": 24.0, "wspd": 0, "wdir": 0, "ceil": 280, "cover": "BKN", "visib": 4.97, "fltcat": "MVFR", "altim": 1009.0, "rawOb": "WMKD 172100Z 00000KT 8000 FEW024 SCT160 BKN280 25/24 Q1009 NOSIG"}, "geometry": {"type": "Point", "coordinates": [103.209, 3.773]}}, {"type": "Feature", "properties": {"id": "WMKE", "site": "Kerteh Arpt", "prior": "4", "obsTime": "2018-09-17T21:00:00Z", "temp": 25.0, "dewp": 24.0, "wspd": 0, "wdir": 0, "altim": 1008.0, "rawOb": "WMKE 172100Z AUTO 00000KT //// // 25/24 Q1008"}, "geometry": {"type": "Point", "coordinates": [103.427, 4.537]}}, {"type": "Feature", "properties": {"id": "ZLLL", "site": "Lanzhou/Zhongchuan A", "prior": "0", "obsTime": "2018-09-17T21:00:00Z", "temp": 9.0, "dewp": 9.0, "wspd": 2, "wdir": 20, "ceil": 6, "cover": "OVC", "visib": 4.35, "fltcat": "IFR", "altim": 1023.0, "wx": "-RA", "rawOb": "ZLLL 172100Z 02001MPS 7000 -RA BKN006 OVC046 09/09 Q1023 NOSIG"}, "geometry": {"type": "Point", "coordinates": [103.621, 36.511]}}, {"type": "Feature", "properties": {"id": "VDSV", "site": "Sihanoukville Intl", "prior": "3", "obsTime": "2018-09-17T21:00:00Z", "temp": 25.0, "dewp": 25.0, "wspd": 1, "wdir": 0, "ceil": 40, "cover": "BKN", "visib": 5.59, "fltcat": "VFR", "altim": 1008.0, "rawOb": "VDSV 172100Z VRB01KT 9000 SCT015 BKN040 25/25 Q1008"}, "geometry": {"type": "Point", "coordinates": [103.637, 10.58]}}, {"type": "Feature", "properties": {"id": "WMKJ", "site": "Johore Bharu/Senai A", "prior": "5", "obsTime": "2018-09-17T21:00:00Z", "temp": 25.0, "dewp": 24.0, "wspd": 0, "wdir": 0, "ceil": 280, "cover": "BKN", "visib": 6.21, "fltcat": "VFR", "altim": 1008.0, "rawOb": "WMKJ 172100Z 00000KT 9999 FEW023 SCT140 BKN280 25/24 Q1008"}, "geometry": {"type": "Point", "coordinates": [103.671, 1.637]}}, {"type": "Feature", "properties": {"id": "VDSR", "site": "Siem Reap/Angkor Int", "prior": "2", "obsTime": "2018-09-17T21:00:00Z", "temp": 27.0, "dewp": 24.0, "wspd": 5, "wdir": 210, "cover": "SCT", "visib": 5.59, "fltcat": "VFR", "altim": 1005.0, "rawOb": "VDSR 172100Z 21005KT 9000 SCT015 SCT040 27/24 Q1005"}, "geometry": {"type": "Point", "coordinates": [103.812, 13.409]}}, {"type": "Feature", "properties": {"id": "WSSL", "site": "Singapore/Seletar Ar", "prior": "6", "obsTime": "2018-09-17T21:00:00Z", "temp": 28.0, "dewp": 23.0, "wspd": 3, "wdir": 130, "cover": "CAVOK", "visib": 6.21, "fltcat": "VFR", "altim": 1009.0, "rawOb": "WSSL 172100Z 13003KT CAVOK 28/23 Q1009"}, "geometry": {"type": "Point", "coordinates": [103.868, 1.417]}}, {"type": "Feature", "properties": {"id": "WMAU", "site": "Mersing Arpt", "prior": "4", "obsTime": "2018-09-17T21:00:00Z", "temp": 23.0, "dewp": 23.0, "wspd": 4, "wdir": 220, "visib": 0.63, "fltcat": "LIFR", "rawOb": "WMAU 172100Z AUTO 22004KT //// // 23/23 Q//// QFF1009"}, "geometry": {"type": "Point", "coordinates": [103.875, 2.388]}}, {"type": "Feature", "properties": {"id": "WSAP", "site": "Singapore/Pays(AB)", "prior": "6", "obsTime": "2018-09-17T21:00:00Z", "temp": 28.0, "dewp": 24.0, "wspd": 2, "wdir": 130, "ceil": 150, "cover": "BKN", "visib": 6.21, "fltcat": "VFR", "altim": 1009.0, "rawOb": "WSAP 172100Z 13002KT 9999 FEW018 BKN150 28/24 Q1009"}, "geometry": {"type": "Point", "coordinates": [103.91, 1.36]}}, {"type": "Feature", "properties": {"id": "ZUUU", "site": "Chengdu/Shuangliu In", "prior": "1", "obsTime": "2018-09-17T21:00:00Z", "temp": 22.0, "dewp": 21.0, "wspd": 2, "wdir": 0, "cover": "SCT", "visib": 6.21, "fltcat": "VFR", "altim": 1013.0, "rawOb": "ZUUU 172100Z VRB01MPS 9999 SCT040 22/21 Q1013 NOSIG"}, "geometry": {"type": "Point", "coordinates": [103.947, 30.579]}}, {"type": "Feature", "properties": {"id": "VVPQ", "site": "Phu Quoc Arpt", "prior": "4", "obsTime": "2018-09-17T21:00:00Z", "temp": 26.0, "dewp": 24.0, "wspd": 3, "wdir": 0, "ceil": 40, "cover": "BKN", "visib": 6.21, "fltcat": "VFR", "altim": 1007.0, "rawOb": "VVPQ 172100Z VRB03KT 9999 SCT015 BKN040 26/24 Q1007 NOSIG"}, "geometry": {"type": "Point", "coordinates": [103.967, 10.227]}}, {"type": "Feature", "properties": {"id": "WSSS", "site": "Singapore/Changi Int", "prior": "0", "obsTime": "2018-09-17T21:00:00Z", "temp": 28.0, "dewp": 24.0, "wspd": 4, "wdir": 160, "ceil": 150, "cover": "BKN", "visib": 6.21, "fltcat": "VFR", "altim": 1009.0, "rawOb": "WSSS 172100Z 16004KT 130V200 9999 FEW018 BKN150 28/24 Q1009 NOSIG"}, "geometry": {"type": "Point", "coordinates": [103.99, 1.359]}}, {"type": "Feature", "properties": {"id": "WIDD", "site": "Batam/Hang Nadim", "prior": "5", "obsTime": "2018-09-17T21:00:00Z", "temp": 26.0, "dewp": 24.0, "wspd": 0, "wdir": 0, "cover": "FEW", "visib": 6.21, "fltcat": "VFR", "altim": 1010.0, "rawOb": "WIDD 172100Z 00000KT 9999 FEW014 26/24 Q1010"}, "geometry": {"type": "Point", "coordinates": [104.119, 1.121]}}, {"type": "Feature", "properties": {"id": "UIII", "site": "Irkutsk Intl", "prior": "2", "obsTime": "2018-09-17T21:00:00Z", "temp": 10.0, "dewp": 9.0, "wspd": 10, "wdir": 300, "ceil": 12, "cover": "OVC", "visib": 6.21, "fltcat": "MVFR", "altim": 1015.0, "rawOb": "UIII 172100Z 30005MPS 9999 OVC012CB 10/09 Q1015 R30/CLRD60 NOSIG RMK QFE716/0955"}, "geometry": {"type": "Point", "coordinates": [104.387, 52.269]}}, {"type": "Feature", "properties": {"id": "WIPP", "site": "Palembang/Badaruddin", "prior": "2", "obsTime": "2018-09-17T21:00:00Z", "temp": 24.0, "dewp": 22.0, "wspd": 3, "wdir": 190, "cover": "FEW", "visib": 1.86, "fltcat": "IFR", "altim": 1009.0, "wx": "HZ", "rawOb": "WIPP 172100Z 19003KT 3000 HZ FEW010 24/22 Q1009 NOSIG"}, "geometry": {"type": "Point", "coordinates": [104.701, -2.897]}}, {"type": "Feature", "properties": {"id": "VDPP", "site": "Phnom-Penh Intl", "prior": "2", "obsTime": "2018-09-17T21:00:00Z", "temp": 25.0, "dewp": 24.0, "wspd": 5, "wdir": 180, "cover": "SCT", "visib": 5.59, "fltcat": "VFR", "altim": 1006.0, "rawOb": "VDPP 172100Z 18005KT 9000 SCT017 SCT040 25/24 Q1006"}, "geometry": {"type": "Point", "coordinates": [104.847, 11.549]}}, {"type": "Feature", "properties": {"id": "VTUU", "site": "Ubon Ratchathan Intl", "prior": "2", "obsTime": "2018-09-17T21:00:00Z", "temp": 25.0, "dewp": 24.0, "wspd": 3, "wdir": 120, "cover": "SCT", "visib": 5.59, "fltcat": "VFR", "altim": 1007.0, "rawOb": "VTUU 172100Z 12003KT 9000 FEW021 SCT100 25/24 Q1007 NOSIG"}, "geometry": {"type": "Point", "coordinates": [104.87, 15.251]}}, {"type": "Feature", "properties": {"id": "VVCT", "site": "Can Tho Arpt", "prior": "3", "obsTime": "2018-09-17T21:00:00Z", "temp": 24.0, "dewp": 24.0, "wspd": 2, "wdir": 230, "ceil": 40, "cover": "BKN", "visib": 4.97, "fltcat": "MVFR", "altim": 1008.0, "rawOb": "VVCT 172100Z 23002KT 8000 SCT013 BKN040 24/24 Q1008 NOSIG"}, "geometry": {"type": "Point", "coordinates": [105.712, 10.085]}}, {"type": "Feature", "properties": {"id": "VVNB", "site": "Hanoi/Noi Bai Intl", "prior": "2", "obsTime": "2018-09-17T21:00:00Z", "temp": 24.0, "dewp": 24.0, "wspd": 6, "wdir": 40, "ceil": 45, "cover": "BKN", "visib": 4.97, "fltcat": "MVFR", "altim": 1006.0, "wx": "-RA", "rawOb": "VVNB 172100Z 04006KT 360V060 8000 -RA FEW005 BKN045 24/24 Q1006 NOSIG"}, "geometry": {"type": "Point", "coordinates": [105.807, 21.219]}}, {"type": "Feature", "properties": {"id": "ZUCK", "site": "Chongqing/Jiangbei I", "prior": "2", "obsTime": "2018-09-17T21:00:00Z", "temp": 20.0, "dewp": 20.0, "wspd": 2, "wdir": 200, "ceil": 26, "cover": "OVC", "visib": 0.5, "fltcat": "LIFR", "altim": 1012.0, "wx": "FG", "rawOb": "ZUCK 172100Z 20001MPS 0800 R20R/1500 R20L/1500 R21/0300 FG SCT002 SCT004 OVC026 20/20 Q1012 NOSIG"}, "geometry": {"type": "Point", "coordinates": [106.645, 29.719]}}, {"type": "Feature", "properties": {"id": "VVTS", "site": "Ho Chi Minh/Nhat Int", "prior": "1", "obsTime": "2018-09-17T21:00:00Z", "temp": 25.0, "dewp": 24.0, "wspd": 4, "wdir": 240, "ceil": 40, "cover": "BKN", "visib": 6.21, "fltcat": "VFR", "altim": 1008.0, "rawOb": "VVTS 172100Z 24004KT 9999 FEW017 BKN040 25/24 Q1008 NOSIG"}, "geometry": {"type": "Point", "coordinates": [106.655, 10.818]}}, {"type": "Feature", "properties": {"id": "WIII", "site": "Jakarta Intl", "prior": "1", "obsTime": "2018-09-17T21:00:00Z", "temp": 26.0, "dewp": 22.0, "wspd": 3, "wdir": 0, "cover": "SCT", "visib": 4.97, "fltcat": "MVFR", "altim": 1010.0, "rawOb": "WIII 172100Z VRB03KT 8000 SCT021 26/22 Q1010 NOSIG"}, "geometry": {"type": "Point", "coordinates": [106.658, -6.125]}}, {"type": "Feature", "properties": {"id": "VVCI", "site": "Cat Bi Intl", "prior": "3", "obsTime": "2018-09-17T21:00:00Z", "temp": 24.0, "dewp": 24.0, "wspd": 9, "wdir": 240, "ceil": 35, "cover": "BKN", "visib": 3.11, "fltcat": "MVFR", "altim": 1006.0, "wx": "TSRA", "rawOb": "VVCI 172100Z 24009KT 5000 TSRA FEW009 FEW023CB BKN035 24/24 Q1006 TEMPO 3000 +TSRA"}, "geometry": {"type": "Point", "coordinates": [106.727, 20.823]}}, {"type": "Feature", "properties": {"id": "ZMUB", "site": "Ulan-Bator/Khaan Arp", "prior": "0", "obsTime": "2018-09-17T21:00:00Z", "temp": 0.0, "dewp": -3.0, "wspd": 2, "wdir": 0, "cover": "CAVOK", "visib": 6.21, "fltcat": "VFR", "altim": 1014.0, "rawOb": "ZMUB 172100Z VRB01MPS CAVOK M00/M03 Q1014 NOSIG RMK QFE653.8 79"}, "geometry": {"type": "Point", "coordinates": [106.766, 47.843]}}, {"type": "Feature", "properties": {"id": "ZUGY", "site": "Guizhou/Longdongbao", "prior": "3", "obsTime": "2018-09-17T21:00:00Z", "temp": 19.0, "dewp": 18.0, "wspd": 4, "wdir": 40, "ceil": 16, "cover": "OVC", "visib": 6.21, "fltcat": "MVFR", "altim": 1015.0, "wx": "-RA", "rawOb": "ZUGY 172100Z 04002MPS 9999 -RA FEW008 BKN016 OVC030 19/18 Q1015 NOSIG"}, "geometry": {"type": "Point", "coordinates": [106.801, 26.538]}}, {"type": "Feature", "properties": {"id": "UIUU", "site": "Ulan-Ude Arpt", "prior": "1", "obsTime": "2018-09-17T21:00:00Z", "temp": 8.0, "dewp": 3.0, "wspd": 6, "wdir": 240, "cover": "CLR", "visib": 6.21, "fltcat": "VFR", "altim": 1011.0, "rawOb": "UIUU 172100Z 24003MPS 190V270 9999 NSC 08/03 Q1011 R26/CLRD60 NOSIG RMK QFE714/0952"}, "geometry": {"type": "Point", "coordinates": [107.443, 51.808]}}, {"type": "Feature", "properties": {"id": "VVPB", "site": "Hue/Phu Bai Arpt", "prior": "1", "obsTime": "2018-09-17T21:00:00Z", "temp": 26.0, "dewp": 24.0, "wspd": 2, "wdir": 0, "cover": "SCT", "visib": 6.21, "fltcat": "VFR", "altim": 1006.0, "rawOb": "VVPB 172100Z VRB02KT 9999 FEW020 SCT100 26/24 Q1006 NOSIG"}, "geometry": {"type": "Point", "coordinates": [107.702, 16.401]}}, {"type": "Feature", "properties": {"id": "ZGNN", "site": "Nanning/Wuwei Intl", "prior": "1", "obsTime": "2018-09-17T21:00:00Z", "temp": 25.0, "dewp": 24.0, "wspd": 6, "wdir": 80, "ceil": 36, "cover": "BKN", "visib": 6.21, "fltcat": "VFR", "altim": 1008.0, "rawOb": "ZGNN 172100Z 08003MPS 9999 SCT009 FEW026CB BKN036 25/24 Q1008 NOSIG"}, "geometry": {"type": "Point", "coordinates": [108.176, 22.608]}}, {"type": "Feature", "properties": {"id": "ZLXY", "site": "Xianyang Intl Arpt", "prior": "1", "obsTime": "2018-09-17T21:00:00Z", "temp": 16.0, "dewp": 15.0, "wspd": 0, "wdir": 0, "ceil": 40, "cover": "OVC", "visib": 2.17, "fltcat": "IFR", "altim": 1018.0, "wx": "BR", "rawOb": "ZLXY 172100Z 00000MPS 3500 BR SCT023 OVC040 16/15 Q1018 NOSIG"}, "geometry": {"type": "Point", "coordinates": [108.76, 34.44]}}, {"type": "Feature", "properties": {"id": "VVCR", "site": "Cam Ranh Intl", "prior": "2", "obsTime": "2018-09-17T21:00:00Z", "temp": 27.0, "dewp": 25.0, "wspd": 3, "wdir": 330, "cover": "FEW", "visib": 6.21, "fltcat": "VFR", "altim": 1007.0, "rawOb": "VVCR 172100Z 33003KT 9999 FEW017 27/25 Q1007 NOSIG"}, "geometry": {"type": "Point", "coordinates": [109.219, 11.998]}}, {"type": "Feature", "properties": {"id": "ZJSY", "site": "Sanya/Phoenix Intl", "prior": "2", "obsTime": "2018-09-17T21:00:00Z", "temp": 27.0, "dewp": 26.0, "wspd": 6, "wdir": 90, "cover": "SCT", "visib": 6.21, "fltcat": "VFR", "altim": 1007.0, "rawOb": "ZJSY 172100Z 09003MPS 9999 SCT015 27/26 Q1007 NOSIG"}, "geometry": {"type": "Point", "coordinates": [109.411, 18.303]}}, {"type": "Feature", "properties": {"id": "ZGKL", "site": "Guilin/Liangjiang In", "prior": "2", "obsTime": "2018-09-17T21:00:00Z", "temp": 24.0, "dewp": 23.0, "wspd": 2, "wdir": 0, "cover": "SCT", "visib": 4.35, "fltcat": "MVFR", "altim": 1012.0, "rawOb": "ZGKL 172100Z VRB01MPS 7000 FEW026 SCT046 24/23 Q1012 NOSIG"}, "geometry": {"type": "Point", "coordinates": [110.04, 25.22]}}, {"type": "Feature", "properties": {"id": "WBGG", "site": "Kuching Arpt", "prior": "1", "obsTime": "2018-09-17T21:00:00Z", "temp": 24.0, "dewp": 22.0, "wspd": 5, "wdir": 220, "ceil": 150, "cover": "BKN", "visib": 6.21, "fltcat": "VFR", "altim": 1009.0, "rawOb": "WBGG 172100Z 22005KT 190V260 9999 SCT020 BKN150 24/22 Q1009 NOSIG"}, "geometry": {"type": "Point", "coordinates": [110.353, 1.487]}}, {"type": "Feature", "properties": {"id": "WAHS", "site": "Semarang/Uani Arpt", "prior": "2", "obsTime": "2018-09-17T21:00:00Z", "temp": 26.0, "dewp": 17.0, "wspd": 3, "wdir": 80, "cover": "FEW", "visib": 3.73, "fltcat": "MVFR", "altim": 1009.0, "rawOb": "WAHS 172100Z 08003KT 6000 FEW014 26/17 Q1009 NOSIG"}, "geometry": {"type": "Point", "coordinates": [110.377, -6.976]}}, {"type": "Feature", "properties": {"id": "ZJHK", "site": "Haikou/Meilan Intl", "prior": "3", "obsTime": "2018-09-17T21:00:00Z", "temp": 26.0, "dewp": 26.0, "wspd": 4, "wdir": 110, "cover": "SCT", "visib": 6.21, "fltcat": "VFR", "altim": 1008.0, "rawOb": "ZJHK 172100Z 11002MPS 9999 FEW010 FEW023TCU SCT023 26/26 Q1008 NOSIG"}, "geometry": {"type": "Point", "coordinates": [110.46, 19.935]}}, {"type": "Feature", "properties": {"id": "WBGY", "site": "Sri Aman/Simanggang?", "prior": "3", "obsTime": "2018-09-17T21:00:00Z", "temp": 23.0, "dewp": 23.0, "wspd": 0, "wdir": 0, "altim": 1008.0, "rawOb": "WBGY 172100Z AUTO 00000KT //// // 23/23 Q1008"}, "geometry": {"type": "Point", "coordinates": [111.45, 1.22]}}, {"type": "Feature", "properties": {"id": "ZBHH", "site": "Hohhot/Baita Intl", "prior": "2", "obsTime": "2018-09-17T21:00:00Z", "temp": 10.0, "dewp": 5.0, "wspd": 2, "wdir": 40, "cover": "FEW", "visib": 6.21, "fltcat": "VFR", "altim": 1021.0, "rawOb": "ZBHH 172100Z 04001MPS 9999 FEW040 10/05 Q1021 NOSIG"}, "geometry": {"type": "Point", "coordinates": [111.824, 40.849]}}, {"type": "Feature", "properties": {"id": "WBGS", "site": "Sibu Arpt", "prior": "3", "obsTime": "2018-09-17T21:00:00Z", "temp": 23.0, "dewp": 22.0, "wspd": 4, "wdir": 130, "ceil": 150, "cover": "BKN", "visib": 6.21, "fltcat": "VFR", "altim": 1009.0, "rawOb": "WBGS 172100Z 13004KT 100V170 9999 SCT018 BKN150 23/22 Q1009"}, "geometry": {"type": "Point", "coordinates": [111.984, 2.263]}}, {"type": "Feature", "properties": {"id": "ZBYN", "site": "Taiyuan/Wusu Intl", "prior": "1", "obsTime": "2018-09-17T21:00:00Z", "temp": 14.0, "dewp": 13.0, "wspd": 2, "wdir": 100, "cover": "SCT", "visib": 3.11, "fltcat": "MVFR", "altim": 1020.0, "wx": "BR", "rawOb": "ZBYN 172100Z 10001MPS 5000 BR SCT020 14/13 Q1020 NOSIG"}, "geometry": {"type": "Point", "coordinates": [112.627, 37.747]}}, {"type": "Feature", "properties": {"id": "WBGB", "site": "Bintulu Arpt", "prior": "2", "obsTime": "2018-09-17T21:00:00Z", "temp": 24.0, "dewp": 24.0, "wspd": 0, "wdir": 0, "ceil": 150, "cover": "BKN", "visib": 6.21, "fltcat": "VFR", "altim": 1009.0, "rawOb": "WBGB 172100Z 00000KT 9999 FEW014 BKN150 24/24 Q1009"}, "geometry": {"type": "Point", "coordinates": [113.02, 3.124]}}, {"type": "Feature", "properties": {"id": "ZGHA", "site": "Changsha/Huanghua Ar", "prior": "2", "obsTime": "2018-09-17T21:00:00Z", "temp": 23.0, "dewp": 21.0, "wspd": 4, "wdir": 340, "ceil": 15, "cover": "BKN", "visib": 2.49, "fltcat": "IFR", "altim": 1014.0, "wx": "BR", "rawOb": "ZGHA 172100Z 34002MPS 4000 BR BKN015 23/21 Q1014 NOSIG"}, "geometry": {"type": "Point", "coordinates": [113.219, 28.193]}}, {"type": "Feature", "properties": {"id": "ZGGG", "site": "Guangzhou/Baiyun Int", "prior": "3", "obsTime": "2018-09-17T21:00:00Z", "temp": 26.0, "dewp": 24.0, "wspd": 4, "wdir": 70, "cover": "FEW", "visib": 6.21, "fltcat": "VFR", "altim": 1012.0, "rawOb": "ZGGG 172100Z 07002MPS 9999 FEW043 26/24 Q1012 NOSIG"}, "geometry": {"type": "Point", "coordinates": [113.298, 23.391]}}, {"type": "Feature", "properties": {"id": "UIAA", "site": "Kadala Arpt", "prior": "2", "obsTime": "2018-09-17T21:00:00Z", "temp": 2.0, "dewp": 1.0, "wspd": 4, "wdir": 330, "cover": "CLR", "visib": 6.21, "fltcat": "VFR", "altim": 1015.0, "rawOb": "UIAA 172100Z 33002MPS 290V360 9999 NSC 02/01 Q1015 R29/CLRD70 NOSIG RMK QFE702/0937"}, "geometry": {"type": "Point", "coordinates": [113.31, 52.026]}}, {"type": "Feature", "properties": {"id": "VMMC", "site": "Macao Intl", "prior": "4", "obsTime": "2018-09-17T21:00:00Z", "temp": 27.0, "dewp": 26.0, "wspd": 13, "wdir": 110, "cover": "SCT", "visib": 6.21, "fltcat": "VFR", "altim": 1012.0, "rawOb": "VMMC 172100Z 11013KT 9999 FEW008 SCT025 27/26 Q1012 NOSIG"}, "geometry": {"type": "Point", "coordinates": [113.592, 22.148]}}, {"type": "Feature", "properties": {"id": "ZGSZ", "site": "Shenzhen/Boan Intl", "prior": "5", "obsTime": "2018-09-17T21:00:00Z", "temp": 27.0, "dewp": 25.0, "wspd": 10, "wdir": 110, "ceil": 43, "cover": "BKN", "visib": 6.21, "fltcat": "VFR", "altim": 1012.0, "rawOb": "ZGSZ 172100Z 11005MPS 9999 FEW020 BKN043 27/25 Q1012 NOSIG"}, "geometry": {"type": "Point", "coordinates": [113.811, 22.637]}}, {"type": "Feature", "properties": {"id": "ZHCC", "site": "Zhengzhou/Xinzheng A", "prior": "2", "obsTime": "2018-09-17T21:00:00Z", "temp": 19.0, "dewp": 18.0, "wspd": 6, "wdir": 20, "ceil": 30, "cover": "OVC", "visib": 2.17, "fltcat": "IFR", "altim": 1018.0, "wx": "-RA BR", "rawOb": "ZHCC 172100Z 02003MPS 3500 -RA BR OVC030 19/18 Q1018 NOSIG"}, "geometry": {"type": "Point", "coordinates": [113.84, 34.52]}}, {"type": "Feature", "properties": {"id": "VHHH", "site": "Hong Kong Intl", "prior": "0", "obsTime": "2018-09-17T21:00:00Z", "temp": 27.0, "dewp": 25.0, "wspd": 14, "wdir": 110, "cover": "SCT", "visib": 6.21, "fltcat": "VFR", "altim": 1012.0, "wx": "-SHRA", "rawOb": "VHHH 172100Z 11014KT 090V150 9999 -SHRA FEW014 SCT025 27/25 Q1012 NOSIG"}, "geometry": {"type": "Point", "coordinates": [113.92, 22.31]}}, {"type": "Feature", "properties": {"id": "WBGR", "site": "Miri Arpt", "prior": "4", "obsTime": "2018-09-17T21:00:00Z", "temp": 24.0, "dewp": 23.0, "wspd": 4, "wdir": 110, "ceil": 150, "cover": "BKN", "visib": 6.21, "fltcat": "VFR", "altim": 1009.0, "rawOb": "WBGR 172100Z 11004KT 9999 SCT014 BKN150 24/23 Q1009"}, "geometry": {"type": "Point", "coordinates": [113.987, 4.322]}}, {"type": "Feature", "properties": {"id": "ZHHH", "site": "Wuhan/Tianhe Intl", "prior": "1", "obsTime": "2018-09-17T21:00:00Z", "temp": 24.0, "dewp": 23.0, "wspd": 8, "wdir": 60, "ceil": 26, "cover": "BKN", "visib": 5.59, "fltcat": "MVFR", "altim": 1013.0, "rawOb": "ZHHH 172100Z 06004MPS 9000 BKN026 24/23 Q1013 NOSIG"}, "geometry": {"type": "Point", "coordinates": [114.208, 30.782]}}, {"type": "Feature", "properties": {"id": "ZBSJ", "site": "Zhengding Arpt", "prior": "3", "obsTime": "2018-09-17T21:00:00Z", "temp": 18.0, "dewp": 17.0, "wspd": 2, "wdir": 330, "cover": "CAVOK", "visib": 6.21, "fltcat": "VFR", "altim": 1018.0, "rawOb": "ZBSJ 172100Z 33001MPS CAVOK 18/17 Q1018 NOSIG"}, "geometry": {"type": "Point", "coordinates": [114.698, 38.279]}}, {"type": "Feature", "properties": {"id": "WAOO", "site": "Syamsudin Noor Arpt", "prior": "2", "obsTime": "2018-09-17T19:30:00Z", "temp": 23.0, "dewp": 23.0, "wspd": 1, "wdir": 140, "visib": 0.99, "fltcat": "LIFR", "altim": 1008.0, "wx": "BR", "rawOb": "WAOO 171930Z AUTO 14001KT 1600 BR ////// 23/23 Q1008"}, "geometry": {"type": "Point", "coordinates": [114.76, -3.442]}}, {"type": "Feature", "properties": {"id": "WBSB", "site": "Brunei Intl Arpt", "prior": "1", "obsTime": "2018-09-17T21:00:00Z", "temp": 25.0, "dewp": 24.0, "wspd": 2, "wdir": 250, "ceil": 140, "cover": "BKN", "visib": 5.59, "fltcat": "VFR", "altim": 1009.0, "rawOb": "WBSB 172100Z 25002KT 9000 FEW015 BKN140 25/24 Q1009 NOSIG"}, "geometry": {"type": "Point", "coordinates": [114.929, 4.946]}}, {"type": "Feature", "properties": {"id": "WBKL", "site": "Labuan Intl", "prior": "6", "obsTime": "2018-09-17T21:00:00Z", "temp": 25.0, "dewp": 25.0, "wspd": 0, "wdir": 0, "ceil": 290, "cover": "BKN", "visib": 6.21, "fltcat": "VFR", "altim": 1009.0, "rawOb": "WBKL 172100Z 00000KT 9999 FEW013 SCT140 BKN290 25/25 Q1009"}, "geometry": {"type": "Point", "coordinates": [115.252, 5.298]}}, {"type": "Feature", "properties": {"id": "WBKK", "site": "Kota Kinabalu Intl", "prior": "3", "obsTime": "2018-09-17T21:00:00Z", "temp": 26.0, "dewp": 22.0, "wspd": 5, "wdir": 100, "ceil": 270, "cover": "BKN", "visib": 6.21, "fltcat": "VFR", "altim": 1009.0, "rawOb": "WBKK 172100Z 10005KT 9999 FEW014 SCT140 BKN270 26/22 Q1009 NOSIG"}, "geometry": {"type": "Point", "coordinates": [116.051, 5.936]}}, {"type": "Feature", "properties": {"id": "ZGOW", "site": "Jieyang/Chaoshan Int", "prior": "2", "obsTime": "2018-09-17T21:00:00Z", "temp": 27.0, "dewp": 26.0, "wspd": 4, "wdir": 70, "ceil": 33, "cover": "BKN", "visib": 4.35, "fltcat": "MVFR", "altim": 1014.0, "rawOb": "ZGOW 172100Z 07002MPS 7000 FEW013 BKN033 27/26 Q1014 NOSIG"}, "geometry": {"type": "Point", "coordinates": [116.505, 23.552]}}, {"type": "Feature", "properties": {"id": "ZBAA", "site": "Beijing Intl", "prior": "0", "obsTime": "2018-09-17T21:00:00Z", "temp": 14.0, "dewp": 11.0, "wspd": 6, "wdir": 360, "cover": "CAVOK", "visib": 6.21, "fltcat": "VFR", "altim": 1018.0, "rawOb": "ZBAA 172100Z 36003MPS CAVOK 14/11 Q1018 NOSIG"}, "geometry": {"type": "Point", "coordinates": [116.606, 40.073]}}, {"type": "Feature", "properties": {"id": "WBKT", "site": "Kudat Arpt", "prior": "3", "obsTime": "2018-09-17T21:00:00Z", "temp": 26.0, "dewp": 25.0, "wspd": 0, "wdir": 0, "ceil": 270, "cover": "BKN", "visib": 6.21, "fltcat": "VFR", "altim": 1009.0, "rawOb": "WBKT 172100Z 00000KT 9999 FEW013 SCT140 BKN270 26/25 Q1009"}, "geometry": {"type": "Point", "coordinates": [116.837, 6.924]}}, {"type": "Feature", "properties": {"id": "ZSOF", "site": "Hefei/Xinqiao Intl", "prior": "2", "obsTime": "2018-09-17T21:00:00Z", "temp": 23.0, "dewp": 23.0, "wspd": 4, "wdir": 100, "ceil": 6, "cover": "OVC", "visib": 1.99, "fltcat": "IFR", "altim": 1016.0, "wx": "BR", "rawOb": "ZSOF 172100Z 10002MPS 3200 BR BKN006 OVC033 23/23 Q1016 BECMG TL2200 2500"}, "geometry": {"type": "Point", "coordinates": [116.965, 31.99]}}, {"type": "Feature", "properties": {"id": "ZBTJ", "site": "Tianjin/Binhai Intl", "prior": "3", "obsTime": "2018-09-17T21:00:00Z", "temp": 20.0, "dewp": 15.0, "wspd": 2, "wdir": 240, "cover": "CLR", "visib": 3.11, "fltcat": "MVFR", "altim": 1018.0, "wx": "BR", "rawOb": "ZBTJ 172100Z 24001MPS 5000 BR NSC 20/15 Q1018 NOSIG"}, "geometry": {"type": "Point", "coordinates": [117.356, 39.124]}}, {"type": "Feature", "properties": {"id": "WBKS", "site": "Sandakan Arpt", "prior": "2", "obsTime": "2018-09-17T21:00:00Z", "temp": 26.0, "dewp": 25.0, "wspd": 3, "wdir": 0, "ceil": 300, "cover": "BKN", "visib": 6.21, "fltcat": "VFR", "altim": 1009.0, "rawOb": "WBKS 172100Z VRB03KT 9999 FEW016 BKN300 26/25 Q1009"}, "geometry": {"type": "Point", "coordinates": [118.061, 5.901]}}, {"type": "Feature", "properties": {"id": "WBKW", "site": "Tawau Arpt", "prior": "3", "obsTime": "2018-09-17T20:00:00Z", "temp": 24.0, "dewp": 23.0, "wspd": 0, "wdir": 0, "ceil": 280, "cover": "BKN", "visib": 6.21, "fltcat": "VFR", "altim": 1009.0, "rawOb": "WBKW 172000Z 00000KT 9999 FEW017 BKN280 24/23 Q1009"}, "geometry": {"type": "Point", "coordinates": [118.123, 4.314]}}, {"type": "Feature", "properties": {"id": "ZSAM", "site": "Xiamen Gaoqi Intl", "prior": "1", "obsTime": "2018-09-17T21:00:00Z", "temp": 27.0, "dewp": 25.0, "wspd": 2, "wdir": 360, "cover": "FEW", "visib": 6.21, "fltcat": "VFR", "altim": 1015.0, "rawOb": "ZSAM 172100Z 36001MPS 9999 FEW020 27/25 Q1015 NOSIG"}, "geometry": {"type": "Point", "coordinates": [118.128, 24.544]}}, {"type": "Feature", "properties": {"id": "RPVP", "site": "Puerto Princesa Intl", "prior": "2", "obsTime": "2018-09-17T21:00:00Z", "temp": 25.0, "dewp": 23.0, "wspd": 2, "wdir": 240, "cover": "FEW", "visib": 6.21, "fltcat": "VFR", "altim": 1010.0, "rawOb": "RPVP 172100Z 24002KT 9999 FEW019 25/23 Q1010 RMK A2983"}, "geometry": {"type": "Point", "coordinates": [118.759, 9.742]}}, {"type": "Feature", "properties": {"id": "ZSNJ", "site": "Nanjing/Lukou Intl", "prior": "3", "obsTime": "2018-09-17T21:00:00Z", "temp": 24.0, "dewp": 24.0, "wspd": 4, "wdir": 90, "ceil": 7, "cover": "OVC", "visib": 0.93, "fltcat": "LIFR", "altim": 1017.0, "wx": "BR", "rawOb": "ZSNJ 172100Z 09002MPS 060V140 1500 BR BKN007 OVC026 24/24 Q1017 NOSIG"}, "geometry": {"type": "Point", "coordinates": [118.863, 31.739]}}, {"type": "Feature", "properties": {"id": "WAAA", "site": "Hasanuddin Intl", "prior": "0", "obsTime": "2018-09-17T21:00:00Z", "temp": 25.0, "dewp": 22.0, "wspd": 0, "wdir": 0, "cover": "FEW", "visib": 4.97, "fltcat": "MVFR", "altim": 1010.0, "rawOb": "WAAA 172100Z 00000KT 8000 FEW020 25/22 Q1010 NOSIG"}, "geometry": {"type": "Point", "coordinates": [119.556, -5.067]}}, {"type": "Feature", "properties": {"id": "ZSFZ", "site": "Fuzhou/Changle Intl", "prior": "3", "obsTime": "2018-09-17T21:00:00Z", "temp": 26.0, "dewp": 23.0, "wspd": 2, "wdir": 300, "cover": "CAVOK", "visib": 6.21, "fltcat": "VFR", "altim": 1015.0, "rawOb": "ZSFZ 172100Z 30001MPS CAVOK 26/23 Q1015 NOSIG"}, "geometry": {"type": "Point", "coordinates": [119.664, 25.934]}}, {"type": "Feature", "properties": {"id": "RCNN", "site": "Tainan(TW-AFB)", "prior": "5", "obsTime": "2018-09-17T21:00:00Z", "temp": 27.0, "dewp": 24.0, "wspd": 8, "wdir": 20, "ceil": 60, "cover": "BKN", "visib": 4.35, "fltcat": "MVFR", "altim": 1014.0, "rawOb": "RCNN 172100Z 02008KT 7000 FEW012 BKN060 27/24 Q1014 NOSIG RMK A2995"}, "geometry": {"type": "Point", "coordinates": [120.206, 22.95]}}, {"type": "Feature", "properties": {"id": "RPLB", "site": "Olongapo/Subic Bay I", "prior": "5", "obsTime": "2018-09-17T21:00:00Z", "temp": 25.0, "dewp": 24.0, "wspd": 3, "wdir": 50, "cover": "FEW", "visib": 6.21, "fltcat": "VFR", "altim": 1012.0, "rawOb": "RPLB 172100Z 05003KT 020V090 9999 FEW020 25/24 Q1012 NOSIG RMK A2988"}, "geometry": {"type": "Point", "coordinates": [120.271, 14.794]}}, {"type": "Feature", "properties": {"id": "RCKH", "site": "Kaohsiung Intl", "prior": "2", "obsTime": "2018-09-17T21:00:00Z", "temp": 27.0, "dewp": 24.0, "wspd": 2, "wdir": 0, "ceil": 120, "cover": "BKN", "visib": 6.21, "fltcat": "VFR", "altim": 1014.0, "rawOb": "RCKH 172100Z VRB02KT 9999 FEW016 SCT035 BKN120 27/24 Q1014 NOSIG RMK A2996"}, "geometry": {"type": "Point", "coordinates": [120.351, 22.576]}}, {"type": "Feature", "properties": {"id": "ZSQD", "site": "Qingdao/Luiting Arpt", "prior": "1", "obsTime": "2018-09-17T21:00:00Z", "temp": 19.0, "dewp": 17.0, "wspd": 0, "wdir": 0, "cover": "CLR", "visib": 6.21, "fltcat": "VFR", "altim": 1019.0, "wx": "-RA", "rawOb": "ZSQD 172100Z 00000MPS 9999 -RA NSC 19/17 Q1019 NOSIG"}, "geometry": {"type": "Point", "coordinates": [120.375, 36.265]}}, {"type": "Feature", "properties": {"id": "ZSHC", "site": "Hangzhou/Xiaoshan In", "prior": "3", "obsTime": "2018-09-17T21:00:00Z", "temp": 25.0, "dewp": 25.0, "wspd": 0, "wdir": 0, "cover": "FEW", "visib": 3.11, "fltcat": "MVFR", "altim": 1016.0, "wx": "BR", "rawOb": "ZSHC 172100Z 00000MPS 5000 BR FEW033 25/25 Q1016 NOSIG"}, "geometry": {"type": "Point", "coordinates": [120.432, 30.238]}}, {"type": "Feature", "properties": {"id": "RPLI", "site": "Laoag Intl", "prior": "2", "obsTime": "2018-09-17T21:00:00Z", "temp": 24.0, "dewp": 24.0, "wspd": 2, "wdir": 150, "cover": "SCT", "visib": 3.73, "fltcat": "MVFR", "altim": 1010.0, "rawOb": "RPLI 172100Z 15002KT 6000 FEW018 SCT290 24/24 Q1010 NOSIG RMK A2983"}, "geometry": {"type": "Point", "coordinates": [120.531, 18.177]}}, {"type": "Feature", "properties": {"id": "RPLC", "site": "Angeles City/Clark I", "prior": "4", "obsTime": "2018-09-17T21:00:00Z", "temp": 25.0, "dewp": 23.0, "wspd": 2, "wdir": 350, "ceil": 300, "cover": "BKN", "visib": 6.21, "fltcat": "VFR", "altim": 1012.0, "rawOb": "RPLC 172100Z 35002KT 9999 FEW020 BKN300 25/23 Q1012 NOSIG RMK A2988"}, "geometry": {"type": "Point", "coordinates": [120.559, 15.187]}}, {"type": "Feature", "properties": {"id": "RCMQ", "site": "Wuchia Observatory", "prior": "3", "obsTime": "2018-09-17T21:00:00Z", "temp": 26.0, "dewp": 25.0, "wspd": 1, "wdir": 350, "cover": "SCT", "visib": 3.73, "fltcat": "MVFR", "altim": 1015.0, "rawOb": "RCMQ 172100Z 35001KT 6000 FEW010 SCT050 26/25 Q1015 NOSIG RMK A2999 RVR N/A"}, "geometry": {"type": "Point", "coordinates": [120.62, 24.27]}}, {"type": "Feature", "properties": {"id": "RPLL", "site": "Manila/Aquino Intl", "prior": "0", "obsTime": "2018-09-17T21:00:00Z", "temp": 26.0, "dewp": 26.0, "wspd": 2, "wdir": 60, "cover": "FEW", "visib": 6.21, "fltcat": "VFR", "altim": 1011.0, "rawOb": "RPLL 172100Z 06002KT 9999 FEW025 26/26 Q1011 NOSIG RMK A2985"}, "geometry": {"type": "Point", "coordinates": [121.017, 14.508]}}, {"type": "Feature", "properties": {"id": "RCTP", "site": "Taipei/Taoyuan Arpt", "prior": "2", "obsTime": "2018-09-17T21:00:00Z", "temp": 27.0, "dewp": 26.0, "wspd": 8, "wdir": 200, "cover": "SCT", "visib": 5.59, "fltcat": "VFR", "altim": 1014.0, "rawOb": "RCTP 172100Z 20008KT 9000 FEW012 SCT025 27/26 Q1014 NOSIG RMK A2996"}, "geometry": {"type": "Point", "coordinates": [121.236, 25.079]}}, {"type": "Feature", "properties": {"id": "ZSSS", "site": "Shanghai/Hongqiad", "prior": "0", "obsTime": "2018-09-17T21:00:00Z", "temp": 26.0, "dewp": 25.0, "wspd": 2, "wdir": 60, "cover": "CAVOK", "visib": 6.21, "fltcat": "VFR", "altim": 1016.0, "rawOb": "ZSSS 172100Z 06001MPS CAVOK 26/25 Q1016 NOSIG"}, "geometry": {"type": "Point", "coordinates": [121.334, 31.196]}}, {"type": "Feature", "properties": {"id": "ZSNB", "site": "Ningbo/Lishe Intl", "prior": "4", "obsTime": "2018-09-17T21:00:00Z", "temp": 23.0, "dewp": 23.0, "wspd": 4, "wdir": 140, "cover": "CLR", "visib": 4.35, "fltcat": "MVFR", "altim": 1016.0, "rawOb": "ZSNB 172100Z 14002MPS 7000 NSC 23/23 Q1016 NOSIG"}, "geometry": {"type": "Point", "coordinates": [121.463, 29.826]}}, {"type": "Feature", "properties": {"id": "ZYTL", "site": "Dalian Intl Arpt", "prior": "1", "obsTime": "2018-09-17T21:00:00Z", "temp": 20.0, "dewp": 14.0, "wspd": 0, "wdir": 0, "cover": "CAVOK", "visib": 6.21, "fltcat": "VFR", "altim": 1018.0, "rawOb": "ZYTL 172100Z 00000MPS CAVOK 20/14 Q1018 NOSIG"}, "geometry": {"type": "Point", "coordinates": [121.538, 38.966]}}, {"type": "Feature", "properties": {"id": "RCSS", "site": "Taipei/Songshan Arpt", "prior": "5", "obsTime": "2018-09-17T21:00:00Z", "temp": 28.0, "dewp": 26.0, "wspd": 2, "wdir": 0, "ceil": 250, "cover": "BKN", "visib": 6.21, "fltcat": "VFR", "altim": 1014.0, "rawOb": "RCSS 172100Z VRB02KT 9999 FEW020 BKN250 28/26 Q1014 NOSIG RMK A2996"}, "geometry": {"type": "Point", "coordinates": [121.553, 25.069]}}, {"type": "Feature", "properties": {"id": "ZSPD", "site": "Shanghai/Pudong Intl", "prior": "6", "obsTime": "2018-09-17T21:00:00Z", "temp": 25.0, "dewp": 25.0, "wspd": 0, "wdir": 0, "cover": "CAVOK", "visib": 6.21, "fltcat": "VFR", "altim": 1016.0, "rawOb": "ZSPD 172100Z 00000MPS CAVOK 25/25 Q1016 NOSIG"}, "geometry": {"type": "Point", "coordinates": [121.803, 31.147]}}, {"type": "Feature", "properties": {"id": "RPMZ", "site": "Zamboanga Intl", "prior": "2", "obsTime": "2018-09-17T21:00:00Z", "temp": 25.0, "dewp": 24.0, "wspd": 0, "wdir": 0, "ceil": 90, "cover": "OVC", "visib": 6.21, "fltcat": "VFR", "altim": 1008.0, "rawOb": "RPMZ 172100Z 00000KT 9999 FEW017 OVC090 25/24 Q1008 RMK A2977"}, "geometry": {"type": "Point", "coordinates": [122.059, 6.923]}}, {"type": "Feature", "properties": {"id": "ROYN", "site": "Yonaguni Airpor", "prior": "3", "obsTime": "2018-09-17T21:00:00Z", "temp": 26.0, "dewp": 25.0, "wspd": 3, "wdir": 160, "cover": "CLR", "visib": 6.21, "fltcat": "VFR", "altim": 1015.0, "rawOb": "ROYN 172100Z AUTO 16003KT 9999 NCD 26/25 Q1015"}, "geometry": {"type": "Point", "coordinates": [122.978, 24.467]}}, {"type": "Feature", "properties": {"id": "RPVD", "site": "Dumaguete Arpt", "prior": "3", "obsTime": "2018-09-17T21:00:00Z", "temp": 26.0, "dewp": 24.0, "wspd": 6, "wdir": 320, "ceil": 220, "cover": "BKN", "visib": 6.21, "fltcat": "VFR", "altim": 1009.0, "rawOb": "RPVD 172100Z 32006KT 9999 FEW014CB SCT080 BKN220 26/24 Q1009 RMK A2980 CB ESE W/ OCNL LTG"}, "geometry": {"type": "Point", "coordinates": [123.297, 9.333]}}, {"type": "Feature", "properties": {"id": "ZYTX", "site": "Shenyang/Taoxian Int", "prior": "1", "obsTime": "2018-09-17T21:00:00Z", "temp": 14.0, "dewp": 12.0, "wspd": 4, "wdir": 130, "cover": "CAVOK", "visib": 6.21, "fltcat": "VFR", "altim": 1018.0, "rawOb": "ZYTX 172100Z 13002MPS CAVOK 14/12 Q1018 NOSIG"}, "geometry": {"type": "Point", "coordinates": [123.485, 41.641]}}, {"type": "Feature", "properties": {"id": "RPVM", "site": "Mactan-Cebu Intl", "prior": "1", "obsTime": "2018-09-17T21:00:00Z", "temp": 25.0, "dewp": 24.0, "wspd": 2, "wdir": 50, "ceil": 300, "cover": "BKN", "visib": 6.21, "fltcat": "VFR", "altim": 1010.0, "rawOb": "RPVM 172100Z 05002KT 9999 FEW020 BKN300 25/24 Q1010 RMK A2983"}, "geometry": {"type": "Point", "coordinates": [123.981, 10.309]}}, {"type": "Feature", "properties": {"id": "ROIG", "site": "Ishigakijima Isl Arp", "prior": "1", "obsTime": "2018-09-17T21:00:00Z", "temp": 26.0, "dewp": 25.0, "wspd": 2, "wdir": 0, "cover": "FEW", "visib": 6.21, "fltcat": "VFR", "altim": 1015.0, "rawOb": "ROIG 172100Z VRB02KT 9999 FEW016 BKN/// 26/25 Q1015"}, "geometry": {"type": "Point", "coordinates": [124.187, 24.344]}}, {"type": "Feature", "properties": {"id": "WAMM", "site": "Menado/Rafulangi Int", "prior": "1", "obsTime": "2018-09-17T21:00:00Z", "temp": 25.0, "dewp": 21.0, "wspd": 2, "wdir": 180, "cover": "FEW", "visib": 6.21, "fltcat": "VFR", "altim": 1009.0, "rawOb": "WAMM 172100Z 18002KT 9999 FEW024 25/21 Q1009 NOSIG"}, "geometry": {"type": "Point", "coordinates": [124.926, 1.549]}}, {"type": "Feature", "properties": {"id": "RPMD", "site": "Davao/Bangoy Intl", "prior": "2", "obsTime": "2018-09-17T21:00:00Z", "temp": 24.0, "dewp": 24.0, "wspd": 2, "wdir": 360, "ceil": 290, "cover": "BKN", "visib": 6.21, "fltcat": "VFR", "altim": 1009.0, "rawOb": "RPMD 172100Z 36002KT 9999 FEW016 BKN290 24/24 Q1009 RMK A2980"}, "geometry": {"type": "Point", "coordinates": [125.646, 7.126]}}, {"type": "Feature", "properties": {"id": "ZYCC", "site": "Changchun/Longjia In", "prior": "3", "obsTime": "2018-09-17T21:00:00Z", "temp": 14.0, "dewp": 6.0, "wspd": 8, "wdir": 200, "cover": "CAVOK", "visib": 6.21, "fltcat": "VFR", "altim": 1018.0, "rawOb": "ZYCC 172100Z 20004MPS CAVOK 14/06 Q1018 NOSIG"}, "geometry": {"type": "Point", "coordinates": [125.683, 43.994]}}, {"type": "Feature", "properties": {"id": "ZYHB", "site": "Harbin/Taiping Arpt", "prior": "2", "obsTime": "2018-09-17T21:00:00Z", "temp": 10.0, "dewp": 6.0, "wspd": 4, "wdir": 180, "cover": "CAVOK", "visib": 6.21, "fltcat": "VFR", "altim": 1015.0, "rawOb": "ZYHB 172100Z 18002MPS CAVOK 10/06 Q1015 NOSIG"}, "geometry": {"type": "Point", "coordinates": [126.251, 45.624]}}, {"type": "Feature", "properties": {"id": "RKJB", "site": "Muan Intl", "prior": "3", "obsTime": "2018-09-17T21:00:00Z", "temp": 17.0, "dewp": 16.0, "wspd": 3, "wdir": 90, "cover": "FEW", "visib": 6.21, "fltcat": "VFR", "altim": 1018.0, "rawOb": "RKJB 172100Z 09003KT 9999 FEW030 17/16 Q1018 NOSIG"}, "geometry": {"type": "Point", "coordinates": [126.382, 34.992]}}, {"type": "Feature", "properties": {"id": "RKSI", "site": "Seoul/Incheon Intl", "prior": "0", "obsTime": "2018-09-17T21:00:00Z", "temp": 18.0, "dewp": 13.0, "wspd": 2, "wdir": 50, "cover": "CAVOK", "visib": 6.21, "fltcat": "VFR", "altim": 1017.0, "rawOb": "RKSI 172100Z 05002KT CAVOK 18/13 Q1017 NOSIG"}, "geometry": {"type": "Point", "coordinates": [126.439, 37.461]}}, {"type": "Feature", "properties": {"id": "RKPC", "site": "Jeju Intl", "prior": "2", "obsTime": "2018-09-17T21:00:00Z", "temp": 23.0, "dewp": 18.0, "wspd": 1, "wdir": 350, "ceil": 120, "cover": "BKN", "visib": 6.21, "fltcat": "VFR", "altim": 1017.0, "rawOb": "RKPC 172100Z 35001KT 9999 SCT040 BKN120 23/18 Q1017 NOSIG"}, "geometry": {"type": "Point", "coordinates": [126.487, 33.509]}}, {"type": "Feature", "properties": {"id": "RKSS", "site": "Seoul/Gimpo Intl", "prior": "5", "obsTime": "2018-09-17T21:00:00Z", "temp": 17.0, "dewp": 15.0, "wspd": 4, "wdir": 310, "cover": "CAVOK", "visib": 6.21, "fltcat": "VFR", "altim": 1018.0, "rawOb": "RKSS 172100Z 31004KT CAVOK 17/15 Q1018 NOSIG"}, "geometry": {"type": "Point", "coordinates": [126.792, 37.558]}}, {"type": "Feature", "properties": {"id": "RKSM", "site": "Seoul(AFB)", "prior": "6", "obsTime": "2018-09-17T20:00:00Z", "temp": 16.0, "dewp": 15.0, "wspd": 2, "wdir": 170, "ceil": 200, "cover": "BKN", "visib": 6.21, "fltcat": "VFR", "altim": 1017.7, "slp": 1017.3, "rawOb": "RKSM 172000Z 17002KT 9999 BKN200 16/15 A3005 RMK CIG200 SLP173 8/008 9/005"}, "geometry": {"type": "Point", "coordinates": [127.112, 37.445]}}, {"type": "Feature", "properties": {"id": "UHBB", "site": "Blagoveshchensk Arpt", "prior": "1", "obsTime": "2018-09-17T21:00:00Z", "temp": 5.0, "dewp": 2.0, "wspd": 4, "wdir": 250, "cover": "CAVOK", "visib": 6.21, "fltcat": "VFR", "altim": 1013.0, "rawOb": "UHBB 172100Z 25002MPS CAVOK 05/02 Q1013 R36/090060 NOSIG RMK QFE743/0990"}, "geometry": {"type": "Point", "coordinates": [127.413, 50.426]}}, {"type": "Feature", "properties": {"id": "RKTU", "site": "Chongju(AFB)", "prior": "3", "obsTime": "2018-09-17T21:00:00Z", "temp": 15.0, "dewp": 14.0, "wspd": 1, "wdir": 120, "cover": "CLR", "visib": 2.49, "fltcat": "IFR", "altim": 1017.0, "wx": "BR", "rawOb": "RKTU 172100Z 12001KT 4000 BR NSC 15/14 Q1017 NOSIG"}, "geometry": {"type": "Point", "coordinates": [127.499, 36.717]}}, {"type": "Feature", "properties": {"id": "ROAH", "site": "Naha Arpt(AB)", "prior": "6", "obsTime": "2018-09-17T21:00:00Z", "temp": 28.0, "dewp": 23.0, "wspd": 3, "wdir": 60, "cover": "FEW", "visib": 6.21, "fltcat": "VFR", "altim": 1015.0, "rawOb": "ROAH 172100Z 06003KT 030V150 9999 FEW020 28/23 Q1015"}, "geometry": {"type": "Point", "coordinates": [127.646, 26.196]}}, {"type": "Feature", "properties": {"id": "WAPP", "site": "Ambon/Pattimura Arpt", "prior": "1", "obsTime": "2018-09-17T21:00:00Z", "temp": 23.0, "dewp": 23.0, "wspd": 8, "wdir": 330, "ceil": 17, "cover": "BKN", "visib": 2.49, "fltcat": "IFR", "altim": 1011.0, "wx": "-RA", "rawOb": "WAPP 172100Z 33008KT 4000 -RA FEW016CB BKN017 23/23 Q1011 NOSI RMK CB TO N"}, "geometry": {"type": "Point", "coordinates": [128.09, -3.71]}}, {"type": "Feature", "properties": {"id": "RORY", "site": "Yoron Island", "prior": "4", "obsTime": "2018-09-17T21:00:00Z", "temp": 26.0, "dewp": 25.0, "wspd": 2, "wdir": 0, "ceil": 15, "cover": "BKN", "visib": 6.21, "fltcat": "MVFR", "altim": 1016.0, "rawOb": "RORY 172100Z AUTO VRB02KT 9999 BKN015 BKN029 26/25 Q1016"}, "geometry": {"type": "Point", "coordinates": [128.402, 27.044]}}, {"type": "Feature", "properties": {"id": "RKTN", "site": "Daegu(AFB)", "prior": "3", "obsTime": "2018-09-17T21:00:00Z", "temp": 18.0, "dewp": 18.0, "wspd": 2, "wdir": 60, "cover": "SCT", "visib": 6.21, "fltcat": "VFR", "altim": 1017.0, "rawOb": "RKTN 172100Z 06002KT 9999 SCT050 SCT200 18/18 Q1017 NOSIG"}, "geometry": {"type": "Point", "coordinates": [128.657, 35.894]}}, {"type": "Feature", "properties": {"id": "RKNY", "site": "Yangyang Intl", "prior": "3", "obsTime": "2018-09-17T21:00:00Z", "temp": 18.0, "dewp": 11.0, "wspd": 7, "wdir": 250, "cover": "CLR", "visib": 6.21, "fltcat": "VFR", "altim": 1016.0, "rawOb": "RKNY 172100Z AUTO 25007KT 9999 NCD 18/11 Q1016"}, "geometry": {"type": "Point", "coordinates": [128.67, 38.06]}}, {"type": "Feature", "properties": {"id": "RKPK", "site": "Busan/Gimhae Intl", "prior": "2", "obsTime": "2018-09-17T21:00:00Z", "temp": 21.0, "dewp": 19.0, "wspd": 3, "wdir": 20, "cover": "FEW", "visib": 5.59, "fltcat": "VFR", "altim": 1017.0, "rawOb": "RKPK 172100Z 02003KT 9000 FEW050 21/19 Q1017 NOSIG"}, "geometry": {"type": "Point", "coordinates": [128.936, 35.181]}}, {"type": "Feature", "properties": {"id": "RJFS", "site": "Saga Arpt", "prior": "6", "obsTime": "2018-09-17T21:00:00Z", "temp": 21.0, "dewp": 20.0, "wspd": 3, "wdir": 320, "cover": "CAVOK", "visib": 6.21, "fltcat": "VFR", "altim": 1016.0, "rawOb": "RJFS 172100Z 32003KT CAVOK 21/20 Q1016"}, "geometry": {"type": "Point", "coordinates": [130.303, 33.151]}}, {"type": "Feature", "properties": {"id": "RJFF", "site": "Fukuoka Arpt", "prior": "3", "obsTime": "2018-09-17T21:00:00Z", "temp": 23.0, "dewp": 20.0, "wspd": 2, "wdir": 130, "ceil": 120, "cover": "BKN", "visib": 6.21, "fltcat": "VFR", "altim": 1016.0, "rawOb": "RJFF 172100Z 13002KT 9999 FEW030 BKN120 23/20 Q1016 NOSIG"}, "geometry": {"type": "Point", "coordinates": [130.451, 33.586]}}, {"type": "Feature", "properties": {"id": "RJFK", "site": "Kagoshima Arpt", "prior": "4", "obsTime": "2018-09-17T21:00:00Z", "temp": 23.0, "dewp": 23.0, "wspd": 5, "wdir": 300, "ceil": 120, "cover": "BKN", "visib": 6.21, "fltcat": "VFR", "altim": 1017.0, "wx": "BCFG", "rawOb": "RJFK 172100Z 30005KT 9999 BCFG FEW020 BKN120 23/23 Q1017"}, "geometry": {"type": "Point", "coordinates": [130.718, 31.804]}}, {"type": "Feature", "properties": {"id": "RJFR", "site": "Kitakyushu Arpt", "prior": "5", "obsTime": "2018-09-17T21:00:00Z", "temp": 23.0, "dewp": 19.0, "wspd": 3, "wdir": 310, "ceil": 140, "cover": "BKN", "visib": 6.21, "fltcat": "VFR", "altim": 1016.0, "rawOb": "RJFR 172100Z 31003KT 9999 FEW015 BKN140 23/19 Q1016"}, "geometry": {"type": "Point", "coordinates": [131.036, 33.84]}}, {"type": "Feature", "properties": {"id": "UHWW", "site": "Vladivostok Intl", "prior": "1", "obsTime": "2018-09-17T21:00:00Z", "temp": 6.0, "dewp": 6.0, "wspd": 2, "wdir": 10, "cover": "CLR", "visib": 6.21, "fltcat": "VFR", "altim": 1016.0, "rawOb": "UHWW 172100Z 01001MPS 9999 NSC 06/06 Q1016 R25L/0///70 NOSIG RMK QFE761"}, "geometry": {"type": "Point", "coordinates": [132.15, 43.4]}}, {"type": "Feature", "properties": {"id": "RJOH", "site": "Miho/Yonago Arpt", "prior": "3", "obsTime": "2018-09-17T21:00:00Z", "temp": 20.0, "dewp": 18.0, "wspd": 3, "wdir": 260, "ceil": 3, "cover": "BKN", "visib": 4.35, "fltcat": "LIFR", "altim": 1017.0, "rawOb": "RJOH 172100Z 26003KT 240V300 7000 FEW001 BKN003 BKN035 20/18 Q1017"}, "geometry": {"type": "Point", "coordinates": [133.236, 35.492]}}, {"type": "Feature", "properties": {"id": "PTRO", "site": "Palau/Tmetochl Intl", "prior": "1", "obsTime": "2018-09-17T19:51:00Z", "temp": 24.0, "dewp": 23.0, "wspd": 0, "wdir": 0, "ceil": 300, "cover": "BKN", "visib": 15.0, "fltcat": "VFR", "altim": 1007.9, "rawOb": "PTRO 171951Z 00000KT 15SM SCT016 BKN300 24/23 A2976 "}, "geometry": {"type": "Point", "coordinates": [134.544, 7.367]}}, {"type": "Feature", "properties": {"id": "UHHH", "site": "Habarovsk/Novy Arpt", "prior": "0", "obsTime": "2018-09-17T21:00:00Z", "temp": 9.0, "dewp": 6.0, "wspd": 10, "wdir": 260, "cover": "CAVOK", "visib": 6.21, "fltcat": "VFR", "altim": 1007.0, "rawOb": "UHHH 172100Z 26005MPS CAVOK 09/06 Q1007 R23L/090060 NOSIG RMK QFE749/0999"}, "geometry": {"type": "Point", "coordinates": [135.189, 48.527]}}, {"type": "Feature", "properties": {"id": "RJBE", "site": "Kobe Arpt", "prior": "6", "obsTime": "2018-09-17T21:00:00Z", "temp": 22.0, "dewp": 19.0, "wspd": 7, "wdir": 80, "cover": "FEW", "visib": 6.21, "fltcat": "VFR", "altim": 1016.0, "rawOb": "RJBE 172100Z 08007KT 9999 FEW025 22/19 Q1016"}, "geometry": {"type": "Point", "coordinates": [135.225, 34.633]}}, {"type": "Feature", "properties": {"id": "RJBB", "site": "Osaka/Kansai Intl", "prior": "4", "obsTime": "2018-09-17T21:00:00Z", "temp": 23.0, "dewp": 20.0, "wspd": 5, "wdir": 80, "cover": "FEW", "visib": 6.21, "fltcat": "VFR", "altim": 1016.0, "rawOb": "RJBB 172100Z 08005KT 9999 FEW015 23/20 Q1016 NOSIG"}, "geometry": {"type": "Point", "coordinates": [135.231, 34.434]}}, {"type": "Feature", "properties": {"id": "RJOO", "site": "Osaka Intl", "prior": "3", "obsTime": "2018-09-17T21:00:00Z", "temp": 20.0, "dewp": 17.0, "wspd": 1, "wdir": 0, "cover": "SCT", "visib": 6.21, "fltcat": "VFR", "altim": 1016.0, "rawOb": "RJOO 172100Z VRB01KT 9999 FEW009 SCT025 20/17 Q1016"}, "geometry": {"type": "Point", "coordinates": [135.437, 34.784]}}, {"type": "Feature", "properties": {"id": "RJNK", "site": "Komatsu Arpt", "prior": "3", "obsTime": "2018-09-17T21:00:00Z", "temp": 20.0, "dewp": 19.0, "wspd": 1, "wdir": 0, "cover": "SCT", "visib": 6.21, "fltcat": "VFR", "altim": 1017.0, "rawOb": "RJNK 172100Z VRB01KT 9999 FEW010 SCT250 20/19 Q1017"}, "geometry": {"type": "Point", "coordinates": [136.407, 36.394]}}, {"type": "Feature", "properties": {"id": "RJGG", "site": "Nagoya/Chubu Intl", "prior": "2", "obsTime": "2018-09-17T21:00:00Z", "temp": 22.0, "dewp": 19.0, "wspd": 7, "wdir": 10, "cover": "FEW", "visib": 6.21, "fltcat": "VFR", "altim": 1015.0, "rawOb": "RJGG 172100Z 01007KT 9999 FEW020 22/19 Q1015 NOSIG"}, "geometry": {"type": "Point", "coordinates": [136.805, 34.86]}}, {"type": "Feature", "properties": {"id": "PTYA", "site": "Yap Island Intl", "prior": "0", "obsTime": "2018-09-17T20:50:00Z", "temp": 25.2, "dewp": 24.6, "wspd": 0, "wdir": 0, "ceil": 300, "cover": "BKN", "visib": 12.0, "fltcat": "VFR", "altim": 1008.2, "slp": 1008.1, "rawOb": "PTYA 172050Z 00000KT 12SM FEW016 SCT130 BKN300 25/25 A2977 RMK MDT CU NE-E AND NW SLP081 8/271 T02520246 52010"}, "geometry": {"type": "Point", "coordinates": [138.083, 9.499]}}, {"type": "Feature", "properties": {"id": "RJTT", "site": "Tokyo/Haneda Intl", "prior": "0", "obsTime": "2018-09-17T21:00:00Z", "temp": 23.0, "dewp": 20.0, "wspd": 4, "wdir": 60, "ceil": 70, "cover": "BKN", "visib": 6.21, "fltcat": "VFR", "altim": 1015.0, "rawOb": "RJTT 172100Z 06004KT 9999 FEW010 SCT040 BKN070 23/20 Q1015 NOSIG"}, "geometry": {"type": "Point", "coordinates": [139.787, 35.549]}}, {"type": "Feature", "properties": {"id": "RJAA", "site": "Narita Intl", "prior": "4", "obsTime": "2018-09-17T21:00:00Z", "temp": 20.0, "dewp": 20.0, "wspd": 2, "wdir": 0, "ceil": 100, "cover": "BKN", "visib": 4.35, "fltcat": "MVFR", "altim": 1015.0, "wx": "BR", "rawOb": "RJAA 172100Z VRB02KT 7000 BR FEW015 SCT080 BKN100 20/20 Q1015 NOSIG"}, "geometry": {"type": "Point", "coordinates": [140.387, 35.765]}}, {"type": "Feature", "properties": {"id": "RJAH", "site": "Ibaraki Arpt", "prior": "5", "obsTime": "2018-09-17T21:00:00Z", "temp": 19.0, "dewp": 19.0, "wspd": 2, "wdir": 20, "ceil": 60, "cover": "BKN", "visib": 6.21, "fltcat": "VFR", "altim": 1015.0, "wx": "MIFG", "rawOb": "RJAH 172100Z 02002KT 9999 MIFG FEW010 BKN060 19/19 Q1015"}, "geometry": {"type": "Point", "coordinates": [140.414, 36.184]}}, {"type": "Feature", "properties": {"id": "WAJJ", "site": "Jayapura/Sentani Arp", "prior": "3", "obsTime": "2018-09-17T21:00:00Z", "temp": 25.0, "dewp": 22.0, "wspd": 0, "wdir": 0, "cover": "FEW", "visib": 6.21, "fltcat": "VFR", "altim": 1008.0, "rawOb": "WAJJ 172100Z 00000KT 9999 FEW010 25/22 Q1008 NOSIG"}, "geometry": {"type": "Point", "coordinates": [140.514, -2.575]}}, {"type": "Feature", "properties": {"id": "RJSS", "site": "Sendai Arpt", "prior": "2", "obsTime": "2018-09-17T21:00:00Z", "temp": 16.0, "dewp": 13.0, "wspd": 2, "wdir": 280, "cover": "FEW", "visib": 6.21, "fltcat": "VFR", "altim": 1015.0, "rawOb": "RJSS 172100Z 28002KT 9999 FEW030 BKN/// 16/13 Q1015"}, "geometry": {"type": "Point", "coordinates": [140.915, 38.14]}}, {"type": "Feature", "properties": {"id": "RJCC", "site": "Sapporo/Chitose Arpt", "prior": "1", "obsTime": "2018-09-17T21:00:00Z", "temp": 10.0, "dewp": 9.0, "wspd": 3, "wdir": 110, "cover": "FEW", "visib": 6.21, "fltcat": "VFR", "altim": 1011.0, "rawOb": "RJCC 172100Z 11003KT 9999 FEW020 10/09 Q1011"}, "geometry": {"type": "Point", "coordinates": [141.669, 42.789]}}, {"type": "Feature", "properties": {"id": "UHSS", "site": "Yuzhno-Sakhalinsk Ar", "prior": "1", "obsTime": "2018-09-17T21:00:00Z", "temp": 9.0, "dewp": 9.0, "wspd": 2, "wdir": 190, "cover": "FEW", "visib": 6.21, "fltcat": "VFR", "altim": 1004.0, "rawOb": "UHSS 172100Z 19001MPS 9999 FEW040CB 09/09 Q1004 R01/290060 NOSIG RMK QFE752/1003"}, "geometry": {"type": "Point", "coordinates": [142.717, 46.884]}}, {"type": "Feature", "properties": {"id": "AYMH", "site": "Mt Hagan Arpt", "prior": "3", "obsTime": "2018-09-17T20:00:00Z", "temp": 14.0, "dewp": 13.0, "wspd": 3, "wdir": 0, "ceil": 0, "cover": "BKN", "visib": 6.21, "fltcat": "LIFR", "altim": 1018.0, "rawOb": "AYMH 172000Z VRB03KT 9999 BKN000 BKN050 14/13 Q1018"}, "geometry": {"type": "Point", "coordinates": [144.298, -5.828]}}, {"type": "Feature", "properties": {"id": "PGUM", "site": "Guam/Pat Intl", "prior": "1", "obsTime": "2018-09-17T20:54:00Z", "temp": 27.8, "dewp": 27.2, "wspd": 9, "wdir": 60, "cover": "FEW", "visib": 7.0, "fltcat": "VFR", "altim": 1009.6, "slp": 1008.8, "rawOb": "PGUM 172054Z 06009KT 7SM FEW015 FEW055 28/27 A2981 RMK AO2 SLP088 60000 T02780272 53012"}, "geometry": {"type": "Point", "coordinates": [144.798, 13.485]}}, {"type": "Feature", "properties": {"id": "PGRO", "site": "Rota Intl", "prior": "4", "obsTime": "2018-09-17T20:50:00Z", "temp": 27.0, "dewp": 24.0, "wspd": 12, "wdir": 60, "cover": "SCT", "visib": 7.0, "fltcat": "VFR", "altim": 1009.2, "rawOb": "PGRO 172050Z 06012KT 7SM SCT011 27/24 A2980"}, "geometry": {"type": "Point", "coordinates": [145.243, 14.174]}}, {"type": "Feature", "properties": {"id": "PGWT", "site": "Tinian/San Jose Arpt", "prior": "2", "obsTime": "2018-09-17T20:50:00Z", "temp": 24.0, "dewp": 22.0, "wspd": 14, "wdir": 60, "cover": "SCT", "visib": 7.0, "fltcat": "VFR", "altim": 1009.2, "rawOb": "PGWT 172050Z 06014KT 7SM SCT016 24/22 A2980"}, "geometry": {"type": "Point", "coordinates": [145.619, 14.999]}}, {"type": "Feature", "properties": {"id": "PGSN", "site": "Saipan/Ada Intl", "prior": "5", "obsTime": "2018-09-17T20:54:00Z", "temp": 27.2, "dewp": 26.1, "wspd": 16, "wgst": 21, "wdir": 70, "cover": "SCT", "visib": 10.0, "fltcat": "VFR", "altim": 1009.6, "slp": 1011.6, "wx": "-RA", "rawOb": "PGSN 172054Z 07016G21KT 10SM -RA SCT016 SCT037 27/26 A2981 RMK AO2 RAB48 SLP116 P0001 60001 T02720261 53006 $"}, "geometry": {"type": "Point", "coordinates": [145.73, 15.12]}}, {"type": "Feature", "properties": {"id": "AYNZ", "site": "Nadzab Arpt", "prior": "2", "obsTime": "2018-09-17T21:00:00Z", "temp": 24.0, "dewp": 22.0, "wspd": 3, "wdir": 260, "ceil": 70, "cover": "BKN", "visib": 6.21, "fltcat": "VFR", "altim": 1010.0, "rawOb": "AYNZ 172100Z 26003KT 9999 FEW006 SCT030 BKN070 24/22 Q1010"}, "geometry": {"type": "Point", "coordinates": [146.726, -6.57]}}, {"type": "Feature", "properties": {"id": "PTKK", "site": "Meno Isl/Chuuk Intl", "prior": "0", "obsTime": "2018-09-17T20:55:00Z", "temp": 26.6, "dewp": 24.9, "wspd": 8, "wdir": 230, "ceil": 120, "cover": "OVC", "visib": 14.0, "fltcat": "VFR", "altim": 1007.5, "slp": 1007.6, "wx": "-SHRA", "rawOb": "PTKK 172055Z 23008KT 14SM -SHRA SCT012CB BKN120 OVC280 27/25 A2975 RMK SHRAB15 CB ALQDS MOV NE SLP076 60009 8/378 T02660249 52020"}, "geometry": {"type": "Point", "coordinates": [151.844, 7.463]}}, {"type": "Feature", "properties": {"id": "PTTP", "site": "Pohnpei(NWS)", "prior": "1", "obsTime": "2018-09-17T20:50:00Z", "temp": 25.6, "dewp": 24.5, "wspd": 3, "wdir": 270, "ceil": 130, "cover": "OVC", "visib": 15.0, "fltcat": "VFR", "altim": 1010.6, "slp": 1010.3, "rawOb": "PTTP 172050Z 27003KT 15SM SCT018 BKN130 OVC300 26/25 A2984 RMK SLP103 8/171 T02560245 52027"}, "geometry": {"type": "Point", "coordinates": [158.21, 6.96]}}, {"type": "Feature", "properties": {"id": "UHPP", "site": "Petropavlovsk-Kamcha", "prior": "0", "obsTime": "2018-09-17T21:00:00Z", "temp": 13.0, "dewp": 13.0, "wspd": 10, "wdir": 140, "ceil": 10, "cover": "OVC", "visib": 6.21, "fltcat": "MVFR", "altim": 1004.0, "wx": "-SHRA", "rawOb": "UHPP 172100Z 14005MPS 9999 -SHRA BKN010 OVC023CB 13/13 Q1004 R16R/290250 NOSIG RMK MT OBSC QFE750/1000"}, "geometry": {"type": "Point", "coordinates": [158.453, 53.17]}}, {"type": "Feature", "properties": {"id": "PTSA", "site": "Kosrae Intl", "prior": "1", "obsTime": "2018-09-17T20:50:00Z", "temp": 28.0, "dewp": 25.0, "wspd": 4, "wdir": 110, "ceil": 300, "cover": "BKN", "visib": 10.0, "fltcat": "VFR", "altim": 1009.6, "rawOb": "PTSA 172050Z 11004KT 10SM SCT022 SCT130 BKN300 28/25 A2981 "}, "geometry": {"type": "Point", "coordinates": [162.957, 5.356]}}]}