{"type": "FeatureCollection", "features": [{"type": "Feature", "properties": {"id": "VECC", "site": "Kolkata/Bose Intl", "prior": "0", "obsTime": "2018-09-20T20:00:00Z", "temp": 25.0, "dewp": 24.0, "wspd": 8, "wdir": 80, "ceil": 80, "cover": "OVC", "visib": 1.55, "fltcat": "IFR", "altim": 1005.0, "wx": "-RA", "rawOb": "VECC 202000Z 08008KT 2500 -RA SCT015 FEW025CB OVC080 25/24 Q1005 NOSIG"}, "geometry": {"type": "Point", "coordinates": [88.447, 22.653]}}, {"type": "Feature", "properties": {"id": "WAAA", "site": "Hasanuddin Intl", "prior": "0", "obsTime": "2018-09-20T20:00:00Z", "temp": 20.0, "dewp": 18.0, "wspd": 1, "wdir": 0, "cover": "FEW", "visib": 4.97, "fltcat": "MVFR", "altim": 1011.0, "rawOb": "WAAA 202000Z VRB01KT 8000 FEW020 20/18 Q1011 NOSIG"}, "geometry": {"type": "Point", "coordinates": [119.556, -5.067]}}, {"type": "Feature", "properties": {"id": "VABB", "site": "Mumbai/Shivaji Intl", "prior": "0", "obsTime": "2018-09-20T19:30:00Z", "temp": 27.0, "dewp": 24.0, "wspd": 4, "wdir": 130, "ceil": 90, "cover": "BKN", "visib": 1.55, "fltcat": "IFR", "altim": 1006.0, "wx": "HZ", "rawOb": "VABB 201930Z 13004KT 2500 HZ FEW018 SCT025 BKN090 27/24 Q1006 NOSIG"}, "geometry": {"type": "Point", "coordinates": [72.864, 19.09]}}, {"type": "Feature", "properties": {"id": "RPLL", "site": "Manila/Aquino Intl", "prior": "0", "obsTime": "2018-09-20T20:00:00Z", "temp": 25.0, "dewp": 25.0, "wspd": 2, "wdir": 150, "ceil": 100, "cover": "BKN", "visib": 6.21, "fltcat": "VFR", "altim": 1009.0, "rawOb": "RPLL 202000Z 15002KT 9999 SCT023 BKN100 25/25 Q1009 NOSIG RMK A2980"}, "geometry": {"type": "Point", "coordinates": [121.017, 14.508]}}, {"type": "Feature", "properties": {"id": "ZSSS", "site": "Shanghai/Hongqiad", "prior": "0", "obsTime": "2018-09-20T19:30:00Z", "temp": 25.0, "dewp": 24.0, "wspd": 8, "wdir": 310, "ceil": 7, "cover": "BKN", "visib": 6.21, "fltcat": "IFR", "altim": 1009.0, "rawOb": "ZSSS 201930Z 31004MPS 9999 BKN007 25/24 Q1009 NOSIG"}, "geometry": {"type": "Point", "coordinates": [121.334, 31.196]}}, {"type": "Feature", "properties": {"id": "ZBAA", "site": "Beijing Intl", "prior": "0", "obsTime": "2018-09-20T19:30:00Z", "temp": 15.0, "dewp": 13.0, "wspd": 4, "wdir": 350, "cover": "CLR", "visib": 4.97, "fltcat": "MVFR", "altim": 1011.0, "rawOb": "ZBAA 201930Z 35002MPS 290V010 8000 NSC 15/13 Q1011 NOSIG"}, "geometry": {"type": "Point", "coordinates": [116.606, 40.073]}}, {"type": "Feature", "properties": {"id": "RKSI", "site": "Seoul/Incheon Intl", "prior": "0", "obsTime": "2018-09-20T19:30:00Z", "temp": 19.0, "dewp": 14.0, "wspd": 7, "wdir": 80, "ceil": 100, "cover": "OVC", "visib": 6.21, "fltcat": "VFR", "altim": 1009.0, "wx": "-RA", "rawOb": "RKSI 201930Z 08007KT 9999 -RA FEW015 SCT030 OVC100 19/14 Q1009 NOSIG"}, "geometry": {"type": "Point", "coordinates": [126.439, 37.461]}}, {"type": "Feature", "properties": {"id": "OPKC", "site": "Karachi/Jinnah Intl", "prior": "0", "obsTime": "2018-09-20T19:55:00Z", "temp": 27.0, "dewp": 22.0, "wspd": 8, "wdir": 250, "ceil": 20, "cover": "BKN", "visib": 3.73, "fltcat": "MVFR", "altim": 1008.0, "rawOb": "OPKC 201955Z 25008KT 6000 BKN020 27/22 Q1008 NOSIG"}, "geometry": {"type": "Point", "coordinates": [67.163, 24.907]}}, {"type": "Feature", "properties": {"id": "UAOO", "site": "Kzylorda Arpt", "prior": "0", "obsTime": "2018-09-20T19:30:00Z", "temp": 10.0, "dewp": 1.0, "wspd": 6, "wdir": 240, "ceil": 23, "cover": "BKN", "visib": 6.21, "fltcat": "MVFR", "altim": 1014.0, "rawOb": "UAOO 201930Z 24003MPS 9999 BKN023CB 10/01 Q1014 R23/CLRD70 NOSIG RMK QFE749/0999"}, "geometry": {"type": "Point", "coordinates": [65.591, 44.706]}}, {"type": "Feature", "properties": {"id": "UHHH", "site": "Habarovsk/Novy Arpt", "prior": "0", "obsTime": "2018-09-20T19:30:00Z", "temp": 12.0, "dewp": 6.0, "wspd": 6, "wdir": 270, "cover": "CAVOK", "visib": 6.21, "fltcat": "VFR", "altim": 1015.0, "rawOb": "UHHH 201930Z 27003MPS CAVOK 12/06 Q1015 R23L/090060 NOSIG RMK QFE755/1006"}, "geometry": {"type": "Point", "coordinates": [135.189, 48.527]}}, {"type": "Feature", "properties": {"id": "OPRN", "site": "Islamabad/Bhuto Intl", "prior": "0", "obsTime": "2018-09-20T20:00:00Z", "temp": 26.0, "dewp": 18.0, "wspd": 4, "wdir": 50, "cover": "CAVOK", "visib": 6.21, "fltcat": "VFR", "altim": 1010.0, "rawOb": "OPRN 202000Z 05004KT CAVOK 26/18 Q1010 NOSIG RMK A2985"}, "geometry": {"type": "Point", "coordinates": [73.101, 33.616]}}, {"type": "Feature", "properties": {"id": "UNOO", "site": "Omsk Arpt", "prior": "0", "obsTime": "2018-09-20T19:30:00Z", "temp": 15.0, "dewp": 4.0, "wspd": 10, "wdir": 150, "ceil": 33, "cover": "BKN", "visib": 6.21, "fltcat": "VFR", "altim": 1004.0, "rawOb": "UNOO 201930Z 15005MPS 9999 BKN033CB 15/04 Q1004 R07/CLRD60 NOSIG RMK QFE745"}, "geometry": {"type": "Point", "coordinates": [73.312, 54.967]}}, {"type": "Feature", "properties": {"id": "VTBD", "site": "Bangkok Intl", "prior": "0", "obsTime": "2018-09-20T19:30:00Z", "temp": 27.0, "dewp": 26.0, "wspd": 0, "wdir": 0, "cover": "SCT", "visib": 4.97, "fltcat": "MVFR", "altim": 1009.0, "rawOb": "VTBD 201930Z 00000KT 8000 FEW020 SCT100 27/26 Q1009 NOSIG"}, "geometry": {"type": "Point", "coordinates": [100.607, 13.917]}}, {"type": "Feature", "properties": {"id": "UIBB", "site": "Bratsk Arpt", "prior": "0", "obsTime": "2018-09-20T19:30:00Z", "temp": 1.0, "dewp": 0.0, "wspd": 6, "wdir": 290, "cover": "CLR", "visib": 6.21, "fltcat": "VFR", "altim": 1024.0, "rawOb": "UIBB 201930Z AUTO 29003MPS 9999 // NCD 01/M00 Q1024 RMK QFE725/0966"}, "geometry": {"type": "Point", "coordinates": [101.7, 56.37]}}, {"type": "Feature", "properties": {"id": "ZLLL", "site": "Lanzhou/Zhongchuan A", "prior": "0", "obsTime": "2018-09-20T19:00:00Z", "temp": 9.0, "dewp": 7.0, "wspd": 4, "wdir": 330, "cover": "CAVOK", "visib": 6.21, "fltcat": "VFR", "altim": 1025.0, "rawOb": "ZLLL 201900Z 33002MPS CAVOK 09/07 Q1025 NOSIG"}, "geometry": {"type": "Point", "coordinates": [103.621, 36.511]}}, {"type": "Feature", "properties": {"id": "WSSS", "site": "Singapore/Changi Int", "prior": "0", "obsTime": "2018-09-20T19:30:00Z", "temp": 25.0, "dewp": 23.0, "wspd": 6, "wdir": 290, "ceil": 160, "cover": "BKN", "visib": 4.35, "fltcat": "MVFR", "altim": 1010.0, "rawOb": "WSSS 201930Z 29006KT 260V010 7000 FEW017 SCT060 BKN160 25/23 Q1010 NOSIG"}, "geometry": {"type": "Point", "coordinates": [103.99, 1.359]}}, {"type": "Feature", "properties": {"id": "VIDP", "site": "New Delhi/Gandhi Int", "prior": "0", "obsTime": "2018-09-20T19:30:00Z", "temp": 28.0, "dewp": 24.0, "wspd": 5, "wdir": 120, "cover": "FEW", "visib": 1.86, "fltcat": "IFR", "altim": 1008.0, "wx": "BR", "rawOb": "VIDP 201930Z 12005KT 3000 BR FEW100 28/24 Q1008 NOSIG"}, "geometry": {"type": "Point", "coordinates": [77.088, 28.556]}}, {"type": "Feature", "properties": {"id": "ZMUB", "site": "Ulan-Bator/Khaan Arp", "prior": "0", "obsTime": "2018-09-20T20:00:00Z", "temp": 1.0, "dewp": -3.0, "wspd": 25, "wdir": 330, "ceil": 33, "cover": "BKN", "visib": 6.21, "fltcat": "VFR", "altim": 1015.0, "rawOb": "ZMUB 202000Z 33013MPS 9999 BKN033 01/M03 Q1015 R14140095 NOSIG RMK QFE654.4 70 NT"}, "geometry": {"type": "Point", "coordinates": [106.766, 47.843]}}, {"type": "Feature", "properties": {"id": "VOCI", "site": "Cochin Intl", "prior": "0", "obsTime": "2018-09-20T19:30:00Z", "temp": 26.0, "dewp": 23.0, "wspd": 0, "wdir": 0, "cover": "SCT", "visib": 3.11, "fltcat": "MVFR", "altim": 1008.0, "wx": "HZ", "rawOb": "VOCI 201930Z 00000KT 5000 HZ FEW015 SCT080 26/23 Q1008 NOSIG"}, "geometry": {"type": "Point", "coordinates": [76.4, 10.15]}}, {"type": "Feature", "properties": {"id": "VHHH", "site": "Hong Kong Intl", "prior": "0", "obsTime": "2018-09-20T20:00:00Z", "temp": 28.0, "dewp": 23.0, "wspd": 3, "wdir": 360, "cover": "FEW", "visib": 6.21, "fltcat": "VFR", "altim": 1010.0, "rawOb": "VHHH 202000Z 36003KT 330V030 9999 FEW030 28/23 Q1010 NOSIG"}, "geometry": {"type": "Point", "coordinates": [113.92, 22.31]}}, {"type": "Feature", "properties": {"id": "ZWWW", "site": "Urum-Qi/Diwopu Arpt", "prior": "0", "obsTime": "2018-09-20T19:30:00Z", "temp": 15.0, "dewp": -2.0, "wspd": 6, "wdir": 170, "cover": "CAVOK", "visib": 6.21, "fltcat": "VFR", "altim": 1018.0, "rawOb": "ZWWW 201930Z 17003MPS CAVOK 15/M02 Q1018 NOSIG"}, "geometry": {"type": "Point", "coordinates": [87.476, 43.905]}}, {"type": "Feature", "properties": {"id": "WABB", "site": "Biak/Kaisiepo Arpt", "prior": "0", "obsTime": "2018-09-20T19:00:00Z", "temp": 24.0, "dewp": 24.0, "wspd": 2, "wdir": 30, "ceil": 100, "cover": "BKN", "visib": 6.21, "fltcat": "VFR", "altim": 1008.0, "rawOb": "WABB 201900Z 03002KT 9999 SCT018 BKN100 24/24 Q1008 NOSIG"}, "geometry": {"type": "Point", "coordinates": [136.109, -1.191]}}, {"type": "Feature", "properties": {"id": "RJTT", "site": "Tokyo/Haneda Intl", "prior": "0", "obsTime": "2018-09-20T19:30:00Z", "temp": 17.0, "dewp": 17.0, "wspd": 16, "wdir": 350, "ceil": 7, "cover": "BKN", "visib": 2.49, "fltcat": "IFR", "altim": 1013.0, "wx": "-RA BR", "rawOb": "RJTT 201930Z 35016KT 4000 -RA BR FEW004 BKN007 BKN015 17/17 Q1013 NOSIG RMK 1ST004 5ST007 6SC015 A2992"}, "geometry": {"type": "Point", "coordinates": [139.787, 35.549]}}, {"type": "Feature", "properties": {"id": "PTKK", "site": "Meno Isl/Chuuk Intl", "prior": "0", "obsTime": "2018-09-20T19:50:00Z", "temp": 26.1, "dewp": 25.0, "wspd": 5, "wdir": 0, "ceil": 280, "cover": "BKN", "visib": 15.0, "fltcat": "VFR", "altim": 1009.2, "slp": 1009.3, "rawOb": "PTKK 201950Z VRB05KT 15SM FEW014 SCT120 BKN280 26/25 A2980 RMK SLP093 T02610250"}, "geometry": {"type": "Point", "coordinates": [151.844, 7.463]}}, {"type": "Feature", "properties": {"id": "PTYA", "site": "Yap Island Intl", "prior": "0", "obsTime": "2018-09-20T18:51:00Z", "temp": 25.3, "dewp": 24.1, "wspd": 5, "wdir": 0, "ceil": 120, "cover": "OVC", "visib": 7.0, "fltcat": "VFR", "altim": 1006.9, "slp": 1006.8, "rawOb": "PTYA 201851Z VRB05KT 7SM SCT015TCU BKN120 OVC300 25/24 A2973 RMK SHRAE13 TCU ALQDS SLP068 T02530241"}, "geometry": {"type": "Point", "coordinates": [138.083, 9.499]}}, {"type": "Feature", "properties": {"id": "UHPP", "site": "Petropavlovsk-Kamcha", "prior": "0", "obsTime": "2018-09-20T19:30:00Z", "temp": 8.0, "dewp": 8.0, "wspd": 2, "wdir": 290, "ceil": 22, "cover": "BKN", "visib": 4.97, "fltcat": "MVFR", "altim": 1005.0, "wx": "-SHRA", "rawOb": "UHPP 201930Z 29001MPS 8000 -SHRA BKN022CB BKN046 08/08 Q1005 R16R/290150 TEMPO 0500 -SHRA FG VV002 RMK MT OBSC QFE751/1001"}, "geometry": {"type": "Point", "coordinates": [158.453, 53.17]}}, {"type": "Feature", "properties": {"id": "VVPB", "site": "Hue/Phu Bai Arpt", "prior": "1", "obsTime": "2018-09-20T19:30:00Z", "temp": 25.0, "dewp": 25.0, "wspd": 4, "wdir": 250, "ceil": 50, "cover": "BKN", "visib": 6.21, "fltcat": "VFR", "altim": 1011.0, "rawOb": "VVPB 201930Z 25004KT 9999 FEW017 BKN050 25/25 Q1011 NOSIG"}, "geometry": {"type": "Point", "coordinates": [107.702, 16.401]}}, {"type": "Feature", "properties": {"id": "ZGNN", "site": "Nanning/Wuwei Intl", "prior": "1", "obsTime": "2018-09-20T19:00:00Z", "temp": 24.0, "dewp": 23.0, "wspd": 0, "wdir": 0, "cover": "CAVOK", "visib": 6.21, "fltcat": "VFR", "altim": 1011.0, "rawOb": "ZGNN 201900Z 00000MPS CAVOK 24/23 Q1011 NOSIG"}, "geometry": {"type": "Point", "coordinates": [108.176, 22.608]}}, {"type": "Feature", "properties": {"id": "UIUU", "site": "Ulan-Ude Arpt", "prior": "1", "obsTime": "2018-09-20T19:30:00Z", "temp": 8.0, "dewp": 0.0, "wspd": 8, "wdir": 320, "ceil": 43, "cover": "BKN", "visib": 6.21, "fltcat": "VFR", "altim": 1016.0, "rawOb": "UIUU 201930Z 32004MPS 280V360 9999 BKN043CB 08/M00 Q1016 WS R26 R26/190060 NOSIG RMK QFE718/0957"}, "geometry": {"type": "Point", "coordinates": [107.443, 51.808]}}, {"type": "Feature", "properties": {"id": "ZLXY", "site": "Xianyang Intl Arpt", "prior": "1", "obsTime": "2018-09-20T19:00:00Z", "temp": 14.0, "dewp": 14.0, "wspd": 2, "wdir": 280, "cover": "CLR", "visib": 0.93, "fltcat": "LIFR", "altim": 1016.0, "wx": "BR PRFG", "rawOb": "ZLXY 201900Z 28001MPS 1500 BR PRFG NSC 14/14 Q1016 BECMG TL2040 0700 FG"}, "geometry": {"type": "Point", "coordinates": [108.76, 34.44]}}, {"type": "Feature", "properties": {"id": "PGUM", "site": "Guam/Pat Intl", "prior": "1", "obsTime": "2018-09-20T19:59:00Z", "temp": 25.6, "dewp": 25.6, "wspd": 7, "wdir": 200, "ceil": 8, "cover": "OVC", "visib": 4.0, "fltcat": "IFR", "altim": 1003.1, "wx": "-RA BR", "rawOb": "PGUM 201959Z 20007KT 4SM -RA BR BKN008 OVC015 26/26 A2962 RMK AO2 P0000 T02560256 $"}, "geometry": {"type": "Point", "coordinates": [144.798, 13.485]}}, {"type": "Feature", "properties": {"id": "ZWSH", "site": "Kashgar Arpt", "prior": "1", "obsTime": "2018-09-20T19:00:00Z", "temp": 23.0, "dewp": -1.0, "wspd": 12, "wdir": 0, "visib": 6.21, "altim": 1017.0, "rawOb": "ZWSH 201900Z AUTO VRB06MPS 9999 // ////// 23/M01 Q1017"}, "geometry": {"type": "Point", "coordinates": [76.016, 39.542]}}, {"type": "Feature", "properties": {"id": "WBGG", "site": "Kuching Arpt", "prior": "1", "obsTime": "2018-09-20T19:30:00Z", "temp": 24.0, "dewp": 23.0, "wspd": 2, "wdir": 0, "ceil": 150, "cover": "BKN", "visib": 6.21, "fltcat": "VFR", "altim": 1011.0, "rawOb": "WBGG 201930Z VRB02KT 9999 SCT020 BKN150 24/23 Q1011 NOSIG"}, "geometry": {"type": "Point", "coordinates": [110.353, 1.487]}}, {"type": "Feature", "properties": {"id": "ZBYN", "site": "Taiyuan/Wusu Intl", "prior": "1", "obsTime": "2018-09-20T19:30:00Z", "temp": 11.0, "dewp": 9.0, "wspd": 2, "wdir": 80, "cover": "CAVOK", "visib": 6.21, "fltcat": "VFR", "altim": 1016.0, "rawOb": "ZBYN 201930Z 08001MPS CAVOK 11/09 Q1016 NOSIG"}, "geometry": {"type": "Point", "coordinates": [112.627, 37.747]}}, {"type": "Feature", "properties": {"id": "ZHHH", "site": "Wuhan/Tianhe Intl", "prior": "1", "obsTime": "2018-09-20T19:00:00Z", "temp": 21.0, "dewp": 18.0, "wspd": 6, "wdir": 350, "cover": "CAVOK", "visib": 6.21, "fltcat": "VFR", "altim": 1013.0, "rawOb": "ZHHH 201900Z 35003MPS 290V030 CAVOK 21/18 Q1013 NOSIG"}, "geometry": {"type": "Point", "coordinates": [114.208, 30.782]}}, {"type": "Feature", "properties": {"id": "RJCC", "site": "Sapporo/Chitose Arpt", "prior": "1", "obsTime": "2018-09-20T19:30:00Z", "temp": 6.0, "dewp": 5.0, "wspd": 0, "wdir": 0, "cover": "FEW", "visib": 6.21, "fltcat": "VFR", "altim": 1016.0, "rawOb": "RJCC 201930Z 00000KT 9999 FEW015 06/05 Q1016 RMK 1ST015 A3001"}, "geometry": {"type": "Point", "coordinates": [141.669, 42.789]}}, {"type": "Feature", "properties": {"id": "UHSS", "site": "Yuzhno-Sakhalinsk Ar", "prior": "1", "obsTime": "2018-09-20T19:30:00Z", "temp": 1.0, "dewp": 0.0, "wspd": 0, "wdir": 0, "cover": "FEW", "visib": 6.21, "fltcat": "VFR", "altim": 1015.0, "rawOb": "UHSS 201930Z 00000MPS 9999 FEW003 01/00 Q1015 R01/70D NOSIG RMK QBB100 MT OBSC QFE760/1013"}, "geometry": {"type": "Point", "coordinates": [142.717, 46.884]}}, {"type": "Feature", "properties": {"id": "UTNN", "site": "Nukus Arpt", "prior": "1", "obsTime": "2018-09-20T19:30:00Z", "temp": 16.0, "dewp": 3.0, "wspd": 4, "wdir": 200, "cover": "CAVOK", "visib": 6.21, "fltcat": "VFR", "altim": 1017.0, "rawOb": "UTNN 201930Z 20004KT CAVOK 16/03 Q1017 R33/CLRD60 NOSIG"}, "geometry": {"type": "Point", "coordinates": [59.624, 42.488]}}, {"type": "Feature", "properties": {"id": "ZSAM", "site": "Xiamen Gaoqi Intl", "prior": "1", "obsTime": "2018-09-20T19:00:00Z", "temp": 27.0, "dewp": 25.0, "wspd": 2, "wdir": 250, "cover": "CLR", "visib": 5.59, "fltcat": "VFR", "altim": 1010.0, "rawOb": "ZSAM 201900Z 25001MPS 9000 NSC 27/25 Q1010 NOSIG"}, "geometry": {"type": "Point", "coordinates": [118.128, 24.544]}}, {"type": "Feature", "properties": {"id": "VRMM", "site": "Male/Nasir Intl", "prior": "1", "obsTime": "2018-09-20T19:00:00Z", "temp": 29.0, "dewp": 24.0, "wspd": 11, "wdir": 300, "ceil": 260, "cover": "BKN", "visib": 6.21, "fltcat": "VFR", "altim": 1010.0, "rawOb": "VRMM 201900Z 30011KT 9999 FEW018TCU BKN260 29/24 Q1010 TEMPO 5000 -SHRA"}, "geometry": {"type": "Point", "coordinates": [73.529, 4.19]}}, {"type": "Feature", "properties": {"id": "WALL", "site": "Sepinggan Intl", "prior": "1", "obsTime": "2018-09-20T19:30:00Z", "temp": 28.0, "dewp": 25.0, "wspd": 7, "wdir": 220, "cover": "FEW", "visib": 5.59, "fltcat": "VFR", "altim": 1009.0, "rawOb": "WALL 201930Z 22007KT 9000 FEW020 28/25 Q1009"}, "geometry": {"type": "Point", "coordinates": [116.896, -1.268]}}, {"type": "Feature", "properties": {"id": "WBSB", "site": "Brunei Intl Arpt", "prior": "1", "obsTime": "2018-09-20T19:30:00Z", "temp": 26.0, "dewp": 25.0, "wspd": 3, "wdir": 200, "ceil": 140, "cover": "BKN", "visib": 6.21, "fltcat": "VFR", "altim": 1009.0, "rawOb": "WBSB 201930Z 20003KT 9999 FEW014 BKN140 26/25 Q1009 NOSIG"}, "geometry": {"type": "Point", "coordinates": [114.929, 4.946]}}, {"type": "Feature", "properties": {"id": "WIII", "site": "Jakarta Intl", "prior": "1", "obsTime": "2018-09-20T19:30:00Z", "temp": 27.0, "dewp": 22.0, "wspd": 3, "wdir": 0, "cover": "FEW", "visib": 3.73, "fltcat": "MVFR", "altim": 1010.0, "rawOb": "WIII 201930Z VRB03KT 6000 FEW020 27/22 Q1010 NOSIG"}, "geometry": {"type": "Point", "coordinates": [106.658, -6.125]}}, {"type": "Feature", "properties": {"id": "VVTS", "site": "Ho Chi Minh/Nhat Int", "prior": "1", "obsTime": "2018-09-20T19:30:00Z", "temp": 25.0, "dewp": 25.0, "wspd": 1, "wdir": 300, "ceil": 40, "cover": "BKN", "visib": 4.97, "fltcat": "MVFR", "altim": 1008.0, "wx": "-RA", "rawOb": "VVTS 201930Z 30001KT 8000 -RA SCT015 BKN040 25/25 Q1008 NOSIG"}, "geometry": {"type": "Point", "coordinates": [106.655, 10.818]}}, {"type": "Feature", "properties": {"id": "ZUUU", "site": "Chengdu/Shuangliu In", "prior": "1", "obsTime": "2018-09-20T19:00:00Z", "temp": 20.0, "dewp": 18.0, "wspd": 0, "wdir": 0, "cover": "CAVOK", "visib": 6.21, "fltcat": "VFR", "altim": 1016.0, "rawOb": "ZUUU 201900Z 00000MPS CAVOK 20/18 Q1016 NOSIG"}, "geometry": {"type": "Point", "coordinates": [103.947, 30.579]}}, {"type": "Feature", "properties": {"id": "VNKT", "site": "Kathmandu/Tribhuvan", "prior": "1", "obsTime": "2018-09-20T19:50:00Z", "temp": 20.0, "dewp": 20.0, "wspd": 3, "wdir": 100, "ceil": 100, "cover": "BKN", "visib": 4.35, "fltcat": "MVFR", "altim": 1018.0, "wx": "-RA", "rawOb": "VNKT 201950Z 10003KT 7000 -RA FEW015 SCT030 BKN100 20/20 Q1018 NOSIG"}, "geometry": {"type": "Point", "coordinates": [85.359, 27.696]}}, {"type": "Feature", "properties": {"id": "VYYY", "site": "Yangon Intl", "prior": "1", "obsTime": "2018-09-20T19:30:00Z", "temp": 25.0, "dewp": 23.0, "wspd": 2, "wdir": 30, "cover": "SCT", "visib": 4.35, "fltcat": "MVFR", "altim": 1010.0, "rawOb": "VYYY 201930Z 03002KT 7000 SCT020 25/23 Q1010"}, "geometry": {"type": "Point", "coordinates": [96.133, 16.906]}}, {"type": "Feature", "properties": {"id": "UASK", "site": "Oskemen Arpt", "prior": "1", "obsTime": "2018-09-20T19:30:00Z", "temp": 11.0, "dewp": 1.0, "wspd": 4, "wdir": 100, "ceil": 150, "cover": "BKN", "visib": 6.21, "fltcat": "VFR", "altim": 1014.0, "rawOb": "UASK 201930Z 10002MPS 9999 BKN150 11/01 Q1014 R12/090060 NOSIG RMK QFE735/0980"}, "geometry": {"type": "Point", "coordinates": [82.498, 50.034]}}, {"type": "Feature", "properties": {"id": "UNAA", "site": "Abakan Intl Arpt", "prior": "1", "obsTime": "2018-09-20T19:30:00Z", "temp": 2.0, "dewp": 0.0, "wspd": 4, "wdir": 180, "cover": "CAVOK", "visib": 6.21, "fltcat": "VFR", "altim": 1020.0, "rawOb": "UNAA 201930Z 18002MPS CAVOK 02/00 Q1020 R02/090065 NOSIG RMK QFE742"}, "geometry": {"type": "Point", "coordinates": [91.388, 53.744]}}, {"type": "Feature", "properties": {"id": "VOMM", "site": "Chennai Intl", "prior": "1", "obsTime": "2018-09-20T19:30:00Z", "temp": 27.0, "dewp": 23.0, "wspd": 10, "wdir": 220, "ceil": 100, "cover": "BKN", "visib": 3.11, "fltcat": "MVFR", "altim": 1004.0, "wx": "BR", "rawOb": "VOMM 201930Z 22010KT 5000 BR SCT020 BKN100 27/23 Q1004 NOSIG"}, "geometry": {"type": "Point", "coordinates": [80.181, 12.994]}}, {"type": "Feature", "properties": {"id": "VTCC", "site": "Chiang Mai Intl", "prior": "1", "obsTime": "2018-09-20T19:30:00Z", "temp": 24.0, "dewp": 23.0, "wspd": 0, "wdir": 0, "cover": "SCT", "visib": 6.21, "fltcat": "VFR", "altim": 1014.0, "rawOb": "VTCC 201930Z 00000KT 9999 SCT035 24/23 Q1014 NOSIG"}, "geometry": {"type": "Point", "coordinates": [98.963, 18.768]}}, {"type": "Feature", "properties": {"id": "UTAA", "site": "Ashgabat Intl", "prior": "1", "obsTime": "2018-09-20T20:00:00Z", "temp": 19.0, "dewp": 7.0, "wspd": 6, "wdir": 230, "cover": "SCT", "visib": 6.21, "fltcat": "VFR", "altim": 1019.0, "rawOb": "UTAA 202000Z 23006KT 9999 SCT100 19/07 Q1019 R88/CLRD70 NOSIG"}, "geometry": {"type": "Point", "coordinates": [58.363, 37.986]}}, {"type": "Feature", "properties": {"id": "ZPPP", "site": "Kunming/Changshui In", "prior": "1", "obsTime": "2018-09-20T19:00:00Z", "temp": 14.0, "dewp": 14.0, "wspd": 6, "wdir": 220, "cover": "CAVOK", "visib": 6.21, "fltcat": "VFR", "altim": 1024.0, "rawOb": "ZPPP 201900Z 22003MPS CAVOK 14/14 Q1024 NOSIG"}, "geometry": {"type": "Point", "coordinates": [102.748, 24.998]}}, {"type": "Feature", "properties": {"id": "VOHS", "site": "Hyderabad/Gandhi Int", "prior": "1", "obsTime": "2018-09-20T19:30:00Z", "temp": 24.0, "dewp": 23.0, "wspd": 5, "wdir": 270, "ceil": 100, "cover": "BKN", "visib": 3.11, "fltcat": "MVFR", "altim": 1006.0, "wx": "BR", "rawOb": "VOHS 201930Z 27005KT 5000 BR SCT015 BKN100 24/23 Q1006 NOSIG"}, "geometry": {"type": "Point", "coordinates": [78.429, 17.24]}}, {"type": "Feature", "properties": {"id": "VTSS", "site": "Hat Yai Intl", "prior": "1", "obsTime": "2018-09-20T19:30:00Z", "temp": 24.0, "dewp": 24.0, "wspd": 2, "wdir": 90, "cover": "SCT", "visib": 6.21, "fltcat": "VFR", "altim": 1009.0, "rawOb": "VTSS 201930Z 09002KT 9999 FEW020 SCT100 24/24 Q1009 NOSIG"}, "geometry": {"type": "Point", "coordinates": [100.395, 6.934]}}, {"type": "Feature", "properties": {"id": "VANP", "site": "Nagpur/Ambedkar Intl", "prior": "1", "obsTime": "2018-09-20T19:30:00Z", "temp": 28.0, "dewp": 21.0, "wspd": 6, "wdir": 20, "ceil": 90, "cover": "BKN", "visib": 3.11, "fltcat": "MVFR", "altim": 1003.0, "wx": "HZ", "rawOb": "VANP 201930Z 02006KT 5000 HZ SCT020 BKN090 28/21 Q1003 TEMPO 3000 RA"}, "geometry": {"type": "Point", "coordinates": [79.048, 21.092]}}, {"type": "Feature", "properties": {"id": "VCBI", "site": "Colombo/Katunay", "prior": "1", "obsTime": "2018-09-20T19:10:00Z", "temp": 27.0, "dewp": 24.0, "wspd": 8, "wdir": 230, "cover": "SCT", "visib": 6.21, "fltcat": "VFR", "altim": 1008.0, "rawOb": "VCBI 201910Z 23008KT 9999 SCT017 27/24 Q1008 NOSIG"}, "geometry": {"type": "Point", "coordinates": [79.88, 7.17]}}, {"type": "Feature", "properties": {"id": "VEPT", "site": "Patna/Narayan Intl", "prior": "1", "obsTime": "2018-09-20T19:00:00Z", "temp": 26.0, "dewp": 25.0, "wspd": 5, "wdir": 70, "ceil": 100, "cover": "BKN", "visib": 1.55, "fltcat": "IFR", "altim": 1006.0, "wx": "HZ", "rawOb": "VEPT 201900Z 07005KT 2500 HZ SCT015 BKN100 26/25 Q1006 BECMG 3000 HZ"}, "geometry": {"type": "Point", "coordinates": [85.088, 25.591]}}, {"type": "Feature", "properties": {"id": "PTRO", "site": "Palau/Tmetochl Intl", "prior": "1", "obsTime": "2018-09-20T19:50:00Z", "temp": 26.0, "dewp": 24.0, "wspd": 8, "wgst": 14, "wdir": 280, "ceil": 110, "cover": "OVC", "visib": 12.0, "fltcat": "VFR", "altim": 1006.9, "wx": "-SHRA", "rawOb": "PTRO 201950Z 28008G14KT 12SM -SHRA SCT015CB BKN110 OVC290 26/24 A2973 RMK CB ALQDS"}, "geometry": {"type": "Point", "coordinates": [134.544, 7.367]}}, {"type": "Feature", "properties": {"id": "WAMM", "site": "Menado/Rafulangi Int", "prior": "1", "obsTime": "2018-09-20T20:00:00Z", "temp": 24.0, "dewp": 23.0, "wspd": 0, "wdir": 0, "cover": "FEW", "visib": 6.21, "fltcat": "VFR", "altim": 1010.0, "rawOb": "WAMM 202000Z 00000KT 9999 FEW024 24/23 Q1010 NOSIG"}, "geometry": {"type": "Point", "coordinates": [124.926, 1.549]}}, {"type": "Feature", "properties": {"id": "UACC", "site": "Astana Intl", "prior": "1", "obsTime": "2018-09-20T19:30:00Z", "temp": 10.0, "dewp": 10.0, "wspd": 10, "wdir": 190, "ceil": 140, "cover": "BKN", "visib": 6.21, "fltcat": "VFR", "altim": 1005.0, "rawOb": "UACC 201930Z 19005MPS 9999 SCT040 BKN140 10/10 Q1005 R22/250255 NOSIG RMK QFE723/0964"}, "geometry": {"type": "Point", "coordinates": [71.469, 51.025]}}, {"type": "Feature", "properties": {"id": "VILK", "site": "Lucknow/Singh Arpt", "prior": "1", "obsTime": "2018-09-20T19:30:00Z", "temp": 26.0, "dewp": 24.0, "wspd": 7, "wdir": 90, "cover": "CLR", "visib": 1.86, "fltcat": "IFR", "altim": 1007.0, "wx": "BR", "rawOb": "VILK 201930Z 09007KT 3000 BR NSC 26/24 Q1007 NOSIG"}, "geometry": {"type": "Point", "coordinates": [80.888, 26.76]}}, {"type": "Feature", "properties": {"id": "UHWW", "site": "Vladivostok Intl", "prior": "1", "obsTime": "2018-09-20T19:30:00Z", "temp": 6.0, "dewp": 6.0, "wspd": 2, "wdir": 10, "cover": "FEW", "visib": 6.21, "fltcat": "VFR", "altim": 1016.0, "rawOb": "UHWW 201930Z 01001MPS 9999 FEW016 06/06 Q1016 R25L/0///70 NOSIG RMK QFE761"}, "geometry": {"type": "Point", "coordinates": [132.15, 43.4]}}, {"type": "Feature", "properties": {"id": "UHBB", "site": "Blagoveshchensk Arpt", "prior": "1", "obsTime": "2018-09-20T19:00:00Z", "temp": 10.0, "dewp": 6.0, "wspd": 0, "wdir": 0, "cover": "FEW", "visib": 6.21, "fltcat": "VFR", "altim": 1010.0, "rawOb": "UHBB 201900Z 00000MPS 9999 FEW033 10/06 Q1010 R18/090060 NOSIG RMK QFE742/0989"}, "geometry": {"type": "Point", "coordinates": [127.413, 50.426]}}, {"type": "Feature", "properties": {"id": "UTST", "site": "Termez Arpt", "prior": "1", "obsTime": "2018-09-20T19:30:00Z", "temp": 20.0, "dewp": 10.0, "wspd": 4, "wdir": 190, "cover": "CAVOK", "visib": 6.21, "fltcat": "VFR", "altim": 1016.0, "rawOb": "UTST 201930Z 19004KT CAVOK 20/10 Q1016 R88/CLRD70 NOSIG"}, "geometry": {"type": "Point", "coordinates": [67.308, 37.286]}}, {"type": "Feature", "properties": {"id": "USTR", "site": "Tyumen/Roschino Intl", "prior": "1", "obsTime": "2018-09-20T19:30:00Z", "temp": 11.0, "dewp": 10.0, "wspd": 6, "wdir": 20, "cover": "CLR", "visib": 4.97, "fltcat": "MVFR", "altim": 1001.0, "rawOb": "USTR 201930Z 02003MPS 8000 NSC 11/10 Q1001 R03/CLRD65 NOSIG RMK QFE741/0988"}, "geometry": {"type": "Point", "coordinates": [65.343, 57.18]}}, {"type": "Feature", "properties": {"id": "ZYTX", "site": "Shenyang/Taoxian Int", "prior": "1", "obsTime": "2018-09-20T19:30:00Z", "temp": 16.0, "dewp": 14.0, "wspd": 6, "wdir": 120, "cover": "CAVOK", "visib": 6.21, "fltcat": "VFR", "altim": 1010.0, "rawOb": "ZYTX 201930Z 12003MPS CAVOK 16/14 Q1010 NOSIG"}, "geometry": {"type": "Point", "coordinates": [123.485, 41.641]}}, {"type": "Feature", "properties": {"id": "ZSQD", "site": "Qingdao/Luiting Arpt", "prior": "1", "obsTime": "2018-09-20T19:00:00Z", "temp": 20.0, "dewp": 20.0, "wspd": 4, "wdir": 350, "ceil": 50, "cover": "OVC", "visib": 1.86, "fltcat": "IFR", "altim": 1010.0, "wx": "BR", "rawOb": "ZSQD 201900Z 35002MPS 3000 BR SCT010 OVC050 20/20 Q1010 NOSIG"}, "geometry": {"type": "Point", "coordinates": [120.375, 36.265]}}, {"type": "Feature", "properties": {"id": "OPMT", "site": "Multan Intl", "prior": "1", "obsTime": "2018-09-20T20:00:00Z", "temp": 30.0, "dewp": 20.0, "wspd": 0, "wdir": 0, "cover": "CLR", "visib": 2.49, "fltcat": "IFR", "altim": 1005.0, "wx": "FU", "rawOb": "OPMT 202000Z 00000KT 4000 FU NSC 30/20 Q1005 NOSIG"}, "geometry": {"type": "Point", "coordinates": [71.419, 30.205]}}, {"type": "Feature", "properties": {"id": "UAUU", "site": "Kostanay Arpt", "prior": "1", "obsTime": "2018-09-20T19:30:00Z", "temp": 10.0, "dewp": 8.0, "wspd": 8, "wdir": 330, "ceil": 36, "cover": "OVC", "visib": 6.21, "fltcat": "VFR", "altim": 1000.0, "rawOb": "UAUU 201930Z 33004MPS 9999 OVC036CB 10/08 Q1000 R33/CLRD70 NOSIG RMK QFE735/0980"}, "geometry": {"type": "Point", "coordinates": [63.55, 53.207]}}, {"type": "Feature", "properties": {"id": "VAAH", "site": "Ahmadabad/Patel Intl", "prior": "1", "obsTime": "2018-09-20T19:30:00Z", "temp": 28.0, "dewp": 22.0, "wspd": 0, "wdir": 0, "cover": "FEW", "visib": 2.49, "fltcat": "IFR", "altim": 1006.0, "wx": "HZ", "rawOb": "VAAH 201930Z 00000KT 4000 HZ FEW020 28/22 Q1006 NOSIG"}, "geometry": {"type": "Point", "coordinates": [72.635, 23.077]}}, {"type": "Feature", "properties": {"id": "RPVM", "site": "Mactan-Cebu Intl", "prior": "1", "obsTime": "2018-09-20T20:00:00Z", "temp": 25.0, "dewp": 24.0, "wspd": 1, "wdir": 0, "ceil": 250, "cover": "BKN", "visib": 6.21, "fltcat": "VFR", "altim": 1010.0, "rawOb": "RPVM 202000Z VRB01KT 9999 FEW018CB BKN250 25/24 Q1010 RMK A2983 CB NE"}, "geometry": {"type": "Point", "coordinates": [123.981, 10.309]}}, {"type": "Feature", "properties": {"id": "WAPP", "site": "Ambon/Pattimura Arpt", "prior": "1", "obsTime": "2018-09-20T19:30:00Z", "temp": 23.0, "dewp": 21.0, "wspd": 5, "wdir": 340, "cover": "SCT", "visib": 6.21, "fltcat": "VFR", "altim": 1010.0, "rawOb": "WAPP 201930Z 34005KT 9999 SCT019 23/21 Q1010 NOSIG"}, "geometry": {"type": "Point", "coordinates": [128.09, -3.71]}}, {"type": "Feature", "properties": {"id": "ZYTL", "site": "Dalian Intl Arpt", "prior": "1", "obsTime": "2018-09-20T19:30:00Z", "temp": 18.0, "dewp": 16.0, "wspd": 2, "wdir": 290, "cover": "CLR", "visib": 3.73, "fltcat": "MVFR", "altim": 1010.0, "rawOb": "ZYTL 201930Z 29001MPS 6000 NSC 18/16 Q1010 NOSIG"}, "geometry": {"type": "Point", "coordinates": [121.538, 38.966]}}, {"type": "Feature", "properties": {"id": "UTSB", "site": "Bukhara Arpt", "prior": "1", "obsTime": "2018-09-20T19:30:00Z", "temp": 18.0, "dewp": 7.0, "wspd": 4, "wdir": 300, "cover": "CAVOK", "visib": 6.21, "fltcat": "VFR", "altim": 1018.0, "rawOb": "UTSB 201930Z 30004KT CAVOK 18/07 Q1018 R01/CLRD70 NOSIG"}, "geometry": {"type": "Point", "coordinates": [64.481, 39.773]}}, {"type": "Feature", "properties": {"id": "UTTT", "site": "Taskent Intl", "prior": "1", "obsTime": "2018-09-20T19:30:00Z", "temp": 20.0, "dewp": 12.0, "wspd": 0, "wdir": 0, "cover": "FEW", "visib": 6.21, "fltcat": "VFR", "altim": 1017.0, "rawOb": "UTTT 201930Z 00000KT 9999 FEW066CB 20/12 Q1017 R08R/CLRD70 NOSIG"}, "geometry": {"type": "Point", "coordinates": [69.279, 41.258]}}, {"type": "Feature", "properties": {"id": "PTSA", "site": "Kosrae Intl", "prior": "1", "obsTime": "2018-09-20T19:50:00Z", "temp": 27.0, "dewp": 24.0, "wspd": 3, "wdir": 0, "ceil": 130, "cover": "OVC", "visib": 10.0, "fltcat": "VFR", "altim": 1009.2, "rawOb": "PTSA 201950Z VRB03KT 10SM SCT017 BKN130 OVC300 27/24 A2980 "}, "geometry": {"type": "Point", "coordinates": [162.957, 5.356]}}, {"type": "Feature", "properties": {"id": "RKPK", "site": "Busan/Gimhae Intl", "prior": "2", "obsTime": "2018-09-20T19:00:00Z", "temp": 21.0, "dewp": 17.0, "wspd": 6, "wdir": 330, "ceil": 70, "cover": "OVC", "visib": 6.21, "fltcat": "VFR", "altim": 1010.0, "rawOb": "RKPK 201900Z 33006KT 9999 SCT040 OVC070 21/17 Q1010"}, "geometry": {"type": "Point", "coordinates": [128.936, 35.181]}}, {"type": "Feature", "properties": {"id": "WIEE", "site": "Padang/Minangkabau I", "prior": "2", "obsTime": "2018-09-20T19:00:00Z", "temp": 24.0, "dewp": 23.0, "wspd": 3, "wdir": 50, "ceil": 170, "cover": "BKN", "visib": 6.21, "fltcat": "VFR", "altim": 1009.0, "rawOb": "WIEE 201900Z AUTO 05003KT 9999 BKN170 24/23 Q1009"}, "geometry": {"type": "Point", "coordinates": [100.286, -0.788]}}, {"type": "Feature", "properties": {"id": "WMSA", "site": "Kuala Lumpur/Shah Ar", "prior": "2", "obsTime": "2018-09-20T19:00:00Z", "temp": 24.0, "dewp": 23.0, "wspd": 2, "wdir": 0, "ceil": 260, "cover": "BKN", "visib": 5.59, "fltcat": "VFR", "altim": 1010.0, "rawOb": "WMSA 201900Z VRB02KT 9000 FEW008 SCT024 BKN260 24/23 Q1010"}, "geometry": {"type": "Point", "coordinates": [101.55, 3.129]}}, {"type": "Feature", "properties": {"id": "VGHS", "site": "Dhaka/Shahjalal Intl", "prior": "2", "obsTime": "2018-09-20T20:00:00Z", "temp": 26.0, "dewp": 23.0, "wspd": 7, "wdir": 120, "ceil": 100, "cover": "BKN", "visib": 2.17, "fltcat": "IFR", "altim": 1008.0, "wx": "HZ", "rawOb": "VGHS 202000Z 12007KT 3500 HZ SCT012 BKN100 26/23 Q1008 NOSIG"}, "geometry": {"type": "Point", "coordinates": [90.397, 23.845]}}, {"type": "Feature", "properties": {"id": "VEGT", "site": "Gauhati Arpt", "prior": "2", "obsTime": "2018-09-20T20:00:00Z", "temp": 27.0, "dewp": 26.0, "wspd": 0, "wdir": 0, "ceil": 100, "cover": "BKN", "visib": 1.55, "fltcat": "IFR", "altim": 1009.0, "wx": "BR", "rawOb": "VEGT 202000Z 00000KT 2500 BR FEW010 SCT018 FEW025CB BKN100 27/26 Q1009 NOSIG"}, "geometry": {"type": "Point", "coordinates": [91.59, 26.107]}}, {"type": "Feature", "properties": {"id": "UNKL", "site": "Krasnoyarsk Arpt", "prior": "2", "obsTime": "2018-09-20T19:30:00Z", "temp": -1.0, "dewp": -1.0, "wspd": 0, "wdir": 0, "cover": "CLR", "visib": 4.35, "fltcat": "MVFR", "altim": 1022.0, "wx": "BR", "rawOb": "UNKL 201930Z 00000MPS 7000 3200S BR NSC M01/M01 Q1022 R29/CLRD65 NOSIG RMK QFE741"}, "geometry": {"type": "Point", "coordinates": [92.491, 56.173]}}, {"type": "Feature", "properties": {"id": "WIMM", "site": "Medan/Polonia Intl", "prior": "2", "obsTime": "2018-09-20T19:00:00Z", "temp": 25.0, "dewp": 23.0, "wspd": 0, "wdir": 0, "cover": "SCT", "visib": 6.21, "fltcat": "VFR", "altim": 1009.0, "rawOb": "WIMM 201900Z 00000KT 9999 SCT018 25/23 Q1009 NOSIG"}, "geometry": {"type": "Point", "coordinates": [98.672, 3.559]}}, {"type": "Feature", "properties": {"id": "WMKN", "site": "Kuala Terengganu Arp", "prior": "2", "obsTime": "2018-09-20T19:00:00Z", "temp": 27.0, "dewp": 25.0, "wspd": 3, "wdir": 240, "ceil": 300, "cover": "BKN", "visib": 6.21, "fltcat": "VFR", "altim": 1009.0, "rawOb": "WMKN 201900Z 24003KT 200V260 9999 FEW024 SCT150 BKN300 27/25 Q1009"}, "geometry": {"type": "Point", "coordinates": [103.103, 5.383]}}, {"type": "Feature", "properties": {"id": "VDSR", "site": "Siem Reap/Angkor Int", "prior": "2", "obsTime": "2018-09-20T19:30:00Z", "temp": 27.0, "dewp": 26.0, "wspd": 2, "wdir": 0, "cover": "SCT", "visib": 5.59, "fltcat": "VFR", "altim": 1007.0, "rawOb": "VDSR 201930Z VRB02KT 9000 SCT015 SCT040 27/26 Q1007"}, "geometry": {"type": "Point", "coordinates": [103.812, 13.409]}}, {"type": "Feature", "properties": {"id": "ZBHH", "site": "Hohhot/Baita Intl", "prior": "2", "obsTime": "2018-09-20T19:00:00Z", "temp": 5.0, "dewp": -2.0, "wspd": 2, "wdir": 0, "cover": "CAVOK", "visib": 6.21, "fltcat": "VFR", "altim": 1017.0, "rawOb": "ZBHH 201900Z VRB01MPS CAVOK 05/M02 Q1017 NOSIG"}, "geometry": {"type": "Point", "coordinates": [111.824, 40.849]}}, {"type": "Feature", "properties": {"id": "RJGG", "site": "Nagoya/Chubu Intl", "prior": "2", "obsTime": "2018-09-20T19:30:00Z", "temp": 20.0, "dewp": 19.0, "wspd": 5, "wdir": 30, "ceil": 25, "cover": "BKN", "visib": 6.21, "fltcat": "MVFR", "altim": 1010.0, "wx": "-RA", "rawOb": "RJGG 201930Z 03005KT 9999 -RA FEW005 SCT015 BKN025 20/19 Q1010 TEMPO FEW005 BKN012"}, "geometry": {"type": "Point", "coordinates": [136.805, 34.86]}}, {"type": "Feature", "properties": {"id": "WBGB", "site": "Bintulu Arpt", "prior": "2", "obsTime": "2018-09-20T19:00:00Z", "temp": 25.0, "dewp": 24.0, "wspd": 3, "wdir": 150, "ceil": 150, "cover": "BKN", "visib": 6.21, "fltcat": "VFR", "altim": 1009.0, "rawOb": "WBGB 201900Z 15003KT 110V200 9999 SCT016 BKN150 25/24 Q1009"}, "geometry": {"type": "Point", "coordinates": [113.02, 3.124]}}, {"type": "Feature", "properties": {"id": "ZGHA", "site": "Changsha/Huanghua Ar", "prior": "2", "obsTime": "2018-09-20T19:00:00Z", "temp": 25.0, "dewp": 19.0, "wspd": 14, "wdir": 350, "ceil": 20, "cover": "OVC", "visib": 6.21, "fltcat": "MVFR", "altim": 1011.0, "rawOb": "ZGHA 201900Z 35007MPS 9999 OVC020 25/19 Q1011 NOSIG"}, "geometry": {"type": "Point", "coordinates": [113.219, 28.193]}}, {"type": "Feature", "properties": {"id": "UIAA", "site": "Kadala Arpt", "prior": "2", "obsTime": "2018-09-20T19:30:00Z", "temp": 7.0, "dewp": 5.0, "wspd": 6, "wdir": 30, "cover": "SCT", "visib": 6.21, "fltcat": "VFR", "altim": 1006.0, "rawOb": "UIAA 201930Z 03003MPS 9999 SCT043CB 07/05 Q1006 R29/290250 NOSIG RMK QFE696/0928"}, "geometry": {"type": "Point", "coordinates": [113.31, 52.026]}}, {"type": "Feature", "properties": {"id": "ZHCC", "site": "Zhengzhou/Xinzheng A", "prior": "2", "obsTime": "2018-09-20T19:00:00Z", "temp": 19.0, "dewp": 18.0, "wspd": 4, "wdir": 220, "cover": "CLR", "visib": 0.5, "fltcat": "LIFR", "altim": 1012.0, "wx": "FG", "rawOb": "ZHCC 201900Z 22002MPS 190V260 0800 R12R/P2000 R12L/P2000 FG NSC 19/18 Q1012 NOSIG"}, "geometry": {"type": "Point", "coordinates": [113.84, 34.52]}}, {"type": "Feature", "properties": {"id": "WAOO", "site": "Syamsudin Noor Arpt", "prior": "2", "obsTime": "2018-09-20T19:00:00Z", "temp": 23.0, "dewp": 21.0, "wspd": 2, "wdir": 100, "visib": 1.49, "fltcat": "IFR", "altim": 1009.0, "wx": "BR", "rawOb": "WAOO 201900Z AUTO 10002KT 2400 BR ////// 23/21 Q1009"}, "geometry": {"type": "Point", "coordinates": [114.76, -3.442]}}, {"type": "Feature", "properties": {"id": "ZGOW", "site": "Jieyang/Chaoshan Int", "prior": "2", "obsTime": "2018-09-20T19:00:00Z", "temp": 26.0, "dewp": 25.0, "wspd": 2, "wdir": 340, "ceil": 21, "cover": "BKN", "visib": 4.35, "fltcat": "MVFR", "altim": 1011.0, "rawOb": "ZGOW 201900Z 34001MPS 7000 BKN021 26/25 Q1011 NOSIG"}, "geometry": {"type": "Point", "coordinates": [116.505, 23.552]}}, {"type": "Feature", "properties": {"id": "WBKS", "site": "Sandakan Arpt", "prior": "2", "obsTime": "2018-09-20T19:00:00Z", "temp": 25.0, "dewp": 23.0, "wspd": 2, "wdir": 0, "ceil": 290, "cover": "BKN", "visib": 6.21, "fltcat": "VFR", "altim": 1008.0, "rawOb": "WBKS 201900Z VRB02KT 9999 FEW016 BKN290 25/23 Q1008"}, "geometry": {"type": "Point", "coordinates": [118.061, 5.901]}}, {"type": "Feature", "properties": {"id": "RCTP", "site": "Taipei/Taoyuan Arpt", "prior": "2", "obsTime": "2018-09-20T19:30:00Z", "temp": 27.0, "dewp": 26.0, "wspd": 3, "wdir": 280, "ceil": 9, "cover": "BKN", "visib": 3.11, "fltcat": "IFR", "altim": 1011.0, "wx": "BR", "rawOb": "RCTP 201930Z 28003KT 5000 BR FEW006 BKN009 BKN018 27/26 Q1011 NOSIG RMK A2986"}, "geometry": {"type": "Point", "coordinates": [121.236, 25.079]}}, {"type": "Feature", "properties": {"id": "ZGKL", "site": "Guilin/Liangjiang In", "prior": "2", "obsTime": "2018-09-20T19:00:00Z", "temp": 23.0, "dewp": 22.0, "wspd": 2, "wdir": 0, "cover": "CLR", "visib": 4.35, "fltcat": "MVFR", "altim": 1011.0, "rawOb": "ZGKL 201900Z VRB01MPS 7000 NSC 23/22 Q1011 NOSIG"}, "geometry": {"type": "Point", "coordinates": [110.04, 25.22]}}, {"type": "Feature", "properties": {"id": "ZSOF", "site": "Hefei/Xinqiao Intl", "prior": "2", "obsTime": "2018-09-20T19:00:00Z", "temp": 20.0, "dewp": 20.0, "wspd": 6, "wdir": 320, "ceil": 7, "cover": "BKN", "visib": 1.43, "fltcat": "IFR", "altim": 1012.0, "wx": "-RA BR", "rawOb": "ZSOF 201900Z 32003MPS 2300 -RA BR BKN007 20/20 Q1012 BECMG TL1940 1400 RA BR"}, "geometry": {"type": "Point", "coordinates": [116.965, 31.99]}}, {"type": "Feature", "properties": {"id": "UIII", "site": "Irkutsk Intl", "prior": "2", "obsTime": "2018-09-20T19:30:00Z", "temp": 6.0, "dewp": 2.0, "wspd": 16, "wdir": 310, "cover": "CAVOK", "visib": 6.21, "fltcat": "VFR", "altim": 1023.0, "rawOb": "UIII 201930Z 31008MPS CAVOK 06/02 Q1023 R30/60D NOSIG RMK QFE722/0963"}, "geometry": {"type": "Point", "coordinates": [104.387, 52.269]}}, {"type": "Feature", "properties": {"id": "WIPP", "site": "Palembang/Badaruddin", "prior": "2", "obsTime": "2018-09-20T19:00:00Z", "temp": 23.0, "dewp": 22.0, "wspd": 3, "wdir": 210, "cover": "SCT", "visib": 6.21, "fltcat": "VFR", "altim": 1010.0, "rawOb": "WIPP 201900Z 21003KT 9999 SCT010 23/22 Q1010 NOSIG"}, "geometry": {"type": "Point", "coordinates": [104.701, -2.897]}}, {"type": "Feature", "properties": {"id": "VDPP", "site": "Phnom-Penh Intl", "prior": "2", "obsTime": "2018-09-20T19:30:00Z", "temp": 26.0, "dewp": 24.0, "wspd": 5, "wdir": 150, "cover": "SCT", "visib": 5.59, "fltcat": "VFR", "altim": 1008.0, "rawOb": "VDPP 201930Z 15005KT 120V190 9000 SCT017 SCT040 26/24 Q1008"}, "geometry": {"type": "Point", "coordinates": [104.847, 11.549]}}, {"type": "Feature", "properties": {"id": "VTUU", "site": "Ubon Ratchathan Intl", "prior": "2", "obsTime": "2018-09-20T19:00:00Z", "temp": 25.0, "dewp": 23.0, "wspd": 3, "wdir": 20, "cover": "CAVOK", "visib": 6.21, "fltcat": "VFR", "altim": 1009.0, "rawOb": "VTUU 201900Z 02003KT CAVOK 25/23 Q1009 NOSIG"}, "geometry": {"type": "Point", "coordinates": [104.87, 15.251]}}, {"type": "Feature", "properties": {"id": "VVNB", "site": "Hanoi/Noi Bai Intl", "prior": "2", "obsTime": "2018-09-20T19:30:00Z", "temp": 25.0, "dewp": 25.0, "wspd": 3, "wdir": 50, "cover": "CLR", "visib": 4.97, "fltcat": "MVFR", "altim": 1011.0, "rawOb": "VVNB 201930Z 05003KT 8000 NSC 25/25 Q1011 NOSIG"}, "geometry": {"type": "Point", "coordinates": [105.807, 21.219]}}, {"type": "Feature", "properties": {"id": "ZUCK", "site": "Chongqing/Jiangbei I", "prior": "2", "obsTime": "2018-09-20T19:00:00Z", "temp": 21.0, "dewp": 19.0, "wspd": 6, "wdir": 300, "cover": "SCT", "visib": 6.21, "fltcat": "VFR", "altim": 1015.0, "rawOb": "ZUCK 201900Z 30003MPS 9999 FEW016 SCT040 21/19 Q1015 NOSIG"}, "geometry": {"type": "Point", "coordinates": [106.645, 29.719]}}, {"type": "Feature", "properties": {"id": "AYNZ", "site": "Nadzab Arpt", "prior": "2", "obsTime": "2018-09-20T19:00:00Z", "temp": 24.0, "dewp": 21.0, "wspd": 3, "wdir": 0, "cover": "SCT", "visib": 6.21, "fltcat": "VFR", "altim": 1011.0, "rawOb": "AYNZ 201900Z VRB03KT 9999 SCT035 24/21 Q1011"}, "geometry": {"type": "Point", "coordinates": [146.726, -6.57]}}, {"type": "Feature", "properties": {"id": "RKPC", "site": "Jeju Intl", "prior": "2", "obsTime": "2018-09-20T19:00:00Z", "temp": 24.0, "dewp": 22.0, "wspd": 3, "wdir": 90, "ceil": 35, "cover": "OVC", "visib": 5.59, "fltcat": "VFR", "altim": 1008.0, "rawOb": "RKPC 201900Z 09003KT 9000 BKN035 OVC100 24/22 Q1008 NOSIG"}, "geometry": {"type": "Point", "coordinates": [126.487, 33.509]}}, {"type": "Feature", "properties": {"id": "ZYHB", "site": "Harbin/Taiping Arpt", "prior": "2", "obsTime": "2018-09-20T19:00:00Z", "temp": 13.0, "dewp": 8.0, "wspd": 8, "wdir": 160, "cover": "CAVOK", "visib": 6.21, "fltcat": "VFR", "altim": 1008.0, "rawOb": "ZYHB 201900Z 16004MPS CAVOK 13/08 Q1008 NOSIG"}, "geometry": {"type": "Point", "coordinates": [126.251, 45.624]}}, {"type": "Feature", "properties": {"id": "RPMD", "site": "Davao/Bangoy Intl", "prior": "2", "obsTime": "2018-09-20T20:00:00Z", "temp": 24.0, "dewp": 23.0, "wspd": 0, "wdir": 0, "ceil": 90, "cover": "BKN", "visib": 6.21, "fltcat": "VFR", "altim": 1009.0, "rawOb": "RPMD 202000Z 00000KT 9999 FEW016 BKN090 BKN290 24/23 Q1009 RMK A2980"}, "geometry": {"type": "Point", "coordinates": [125.646, 7.126]}}, {"type": "Feature", "properties": {"id": "VVCR", "site": "Cam Ranh Intl", "prior": "2", "obsTime": "2018-09-20T19:30:00Z", "temp": 26.0, "dewp": 26.0, "wspd": 3, "wdir": 80, "ceil": 40, "cover": "BKN", "visib": 3.73, "fltcat": "MVFR", "altim": 1010.0, "wx": "-RA", "rawOb": "VVCR 201930Z 08003KT 6000 -RA SCT010 FEW015CB BKN040 26/26 Q1010 NOSIG RMK CB/NE"}, "geometry": {"type": "Point", "coordinates": [109.219, 11.998]}}, {"type": "Feature", "properties": {"id": "ZJSY", "site": "Sanya/Phoenix Intl", "prior": "2", "obsTime": "2018-09-20T19:00:00Z", "temp": 25.0, "dewp": 23.0, "wspd": 4, "wdir": 320, "cover": "CAVOK", "visib": 6.21, "fltcat": "VFR", "altim": 1010.0, "rawOb": "ZJSY 201900Z 32002MPS 270V360 CAVOK 25/23 Q1010 NOSIG"}, "geometry": {"type": "Point", "coordinates": [109.411, 18.303]}}, {"type": "Feature", "properties": {"id": "RCKH", "site": "Kaohsiung Intl", "prior": "2", "obsTime": "2018-09-20T19:00:00Z", "temp": 27.0, "dewp": 24.0, "wspd": 3, "wdir": 320, "cover": "SCT", "visib": 6.21, "fltcat": "VFR", "altim": 1011.0, "rawOb": "RCKH 201900Z 32003KT 9999 FEW015 SCT080 27/24 Q1011 NOSIG RMK A2986"}, "geometry": {"type": "Point", "coordinates": [120.351, 22.576]}}, {"type": "Feature", "properties": {"id": "UNEE", "site": "Kemerovo Intl", "prior": "2", "obsTime": "2018-09-20T19:30:00Z", "temp": 8.0, "dewp": 2.0, "wspd": 8, "wdir": 110, "cover": "CAVOK", "visib": 6.21, "fltcat": "VFR", "altim": 1016.0, "rawOb": "UNEE 201930Z 11004MPS CAVOK 08/02 Q1016 R05/CLRD60 NOSIG RMK QFE739"}, "geometry": {"type": "Point", "coordinates": [86.113, 55.272]}}, {"type": "Feature", "properties": {"id": "VOBL", "site": "Bangalore Intl", "prior": "2", "obsTime": "2018-09-20T20:00:00Z", "temp": 21.0, "dewp": 21.0, "wspd": 11, "wdir": 270, "ceil": 80, "cover": "BKN", "visib": 3.73, "fltcat": "MVFR", "altim": 1010.0, "rawOb": "VOBL 202000Z 27011KT 6000 SCT012 BKN080 21/21 Q1010 NOSIG"}, "geometry": {"type": "Point", "coordinates": [77.707, 13.207]}}, {"type": "Feature", "properties": {"id": "UASP", "site": "Pavlodar Arpt", "prior": "2", "obsTime": "2018-09-20T19:30:00Z", "temp": 11.0, "dewp": 5.0, "wspd": 4, "wdir": 160, "cover": "CAVOK", "visib": 6.21, "fltcat": "VFR", "altim": 1005.0, "rawOb": "UASP 201930Z 16002MPS CAVOK 11/05 Q1005 R21/0///70 NOSIG RMK QFE742/0990"}, "geometry": {"type": "Point", "coordinates": [77.074, 52.196]}}, {"type": "Feature", "properties": {"id": "OPLA", "site": "Lahore/Iqbal Intl", "prior": "2", "obsTime": "2018-09-20T19:56:00Z", "temp": 26.0, "dewp": 22.0, "wspd": 4, "wdir": 120, "cover": "CLR", "visib": 2.49, "fltcat": "IFR", "altim": 1008.0, "wx": "FU", "rawOb": "OPLA 201956Z 12004KT 4000 FU NSC 26/22 Q1008 NOSIG RMK QFE982 RMK A29.77"}, "geometry": {"type": "Point", "coordinates": [74.405, 31.52]}}, {"type": "Feature", "properties": {"id": "UAAA", "site": "Almaty Intl", "prior": "2", "obsTime": "2018-09-20T19:30:00Z", "temp": 18.0, "dewp": 6.0, "wspd": 4, "wdir": 200, "ceil": 100, "cover": "BKN", "visib": 6.21, "fltcat": "VFR", "altim": 1015.0, "rawOb": "UAAA 201930Z 20002MPS 9999 SCT050CB BKN100 18/06 Q1015 R23L/CLRD65 NOSIG"}, "geometry": {"type": "Point", "coordinates": [77.039, 43.353]}}, {"type": "Feature", "properties": {"id": "OIZH", "site": "Zahedan Intl", "prior": "2", "obsTime": "2018-09-20T20:00:00Z", "temp": 23.0, "dewp": 3.0, "wspd": 10, "wdir": 20, "cover": "CAVOK", "visib": 6.21, "fltcat": "VFR", "altim": 1019.0, "rawOb": "OIZH 202000Z 02010KT CAVOK 23/03 Q1019 A3010"}, "geometry": {"type": "Point", "coordinates": [60.905, 29.474]}}, {"type": "Feature", "properties": {"id": "USSS", "site": "Yekaterinburg/Koltso", "prior": "2", "obsTime": "2018-09-20T19:30:00Z", "temp": 10.0, "dewp": 9.0, "wspd": 6, "wdir": 280, "ceil": 46, "cover": "BKN", "visib": 6.21, "fltcat": "VFR", "altim": 1003.0, "rawOb": "USSS 201930Z 28003MPS 9999 BKN046 10/09 Q1003 R26R/010060 R26L/010060 NOSIG RMK QFE732/0976"}, "geometry": {"type": "Point", "coordinates": [60.804, 56.745]}}, {"type": "Feature", "properties": {"id": "OPSK", "site": "Sukkur Arpt", "prior": "2", "obsTime": "2018-09-20T20:00:00Z", "temp": 26.0, "dewp": 21.0, "wspd": 0, "wdir": 0, "cover": "CLR", "visib": 2.49, "fltcat": "IFR", "wx": "HZ", "rawOb": "OPSK 202000Z 00000KT 4000 HZ NSC 26/21 QNH 1004 NOSIG"}, "geometry": {"type": "Point", "coordinates": [68.793, 27.721]}}, {"type": "Feature", "properties": {"id": "UTAM", "site": "Mary Arpt", "prior": "2", "obsTime": "2018-09-20T19:00:00Z", "temp": 20.0, "dewp": 6.0, "wspd": 4, "wdir": 340, "cover": "SCT", "visib": 3.73, "fltcat": "MVFR", "altim": 1020.0, "rawOb": "UTAM 201900Z 34004KT 6000 SCT100 20/06 Q1020 NOSIG"}, "geometry": {"type": "Point", "coordinates": [61.895, 37.62]}}, {"type": "Feature", "properties": {"id": "UTDD", "site": "Dushanbe Arpt", "prior": "2", "obsTime": "2018-09-20T19:30:00Z", "temp": 22.0, "dewp": 7.0, "wspd": 8, "wdir": 340, "ceil": 86, "cover": "OVC", "visib": 6.21, "fltcat": "VFR", "altim": 1019.0, "rawOb": "UTDD 201930Z 34004MPS 310V010 9999 SCT066CB BKN086 OVC100 22/07 Q1019 R09/D NOSIG RMK QFE695/0927"}, "geometry": {"type": "Point", "coordinates": [68.821, 38.544]}}, {"type": "Feature", "properties": {"id": "VOTR", "site": "Tiruchchirapalli Arp", "prior": "2", "obsTime": "2018-09-20T19:30:00Z", "temp": 28.0, "dewp": 22.0, "wspd": 6, "wdir": 270, "cover": "SCT", "visib": 3.73, "fltcat": "MVFR", "altim": 1005.0, "rawOb": "VOTR 201930Z 27006KT 6000 FEW016 SCT100 28/22 Q1005 NOSIG"}, "geometry": {"type": "Point", "coordinates": [78.71, 10.765]}}, {"type": "Feature", "properties": {"id": "UADD", "site": "Taraz Auliye", "prior": "2", "obsTime": "2018-09-20T19:30:00Z", "temp": 20.0, "dewp": 7.0, "wspd": 16, "wdir": 270, "ceil": 100, "cover": "OVC", "visib": 6.21, "fltcat": "VFR", "altim": 1014.0, "rawOb": "UADD 201930Z 27008MPS 9999 SCT050CB OVC100 20/07 Q1014 R13/0///65 NOSIG RMK QFE704/0939"}, "geometry": {"type": "Point", "coordinates": [71.304, 42.854]}}, {"type": "Feature", "properties": {"id": "UCFM", "site": "Manas Intl", "prior": "2", "obsTime": "2018-09-20T19:30:00Z", "temp": 15.0, "dewp": 7.0, "wspd": 6, "wdir": 240, "cover": "FEW", "visib": 6.21, "fltcat": "VFR", "altim": 1015.0, "rawOb": "UCFM 201930Z 24003MPS 9999 FEW066CB 15/07 Q1015 R26/CLRD70 NOSIG"}, "geometry": {"type": "Point", "coordinates": [74.478, 43.062]}}, {"type": "Feature", "properties": {"id": "UWOR", "site": "Orsk Arpt", "prior": "2", "obsTime": "2018-09-20T19:00:00Z", "temp": 10.0, "dewp": 7.0, "wspd": 14, "wdir": 310, "ceil": 40, "cover": "BKN", "visib": 6.21, "fltcat": "VFR", "altim": 1006.0, "rawOb": "UWOR 201900Z 31007MPS 9999 BKN040CB 10/07 Q1006 R25/CLRD65 NOSIG RMK QFE731/0975"}, "geometry": {"type": "Point", "coordinates": [58.594, 51.073]}}, {"type": "Feature", "properties": {"id": "VEBS", "site": "Bhubaneswar Intl", "prior": "2", "obsTime": "2018-09-20T19:30:00Z", "temp": 26.0, "dewp": 26.0, "wspd": 12, "wdir": 120, "ceil": 15, "cover": "BKN", "visib": 1.86, "fltcat": "IFR", "altim": 997.0, "wx": "-RA", "rawOb": "VEBS 201930Z 12012KT 3000 -RA BKN015 FEW030CB BKN080 26/26 Q0997 NOSIG"}, "geometry": {"type": "Point", "coordinates": [85.818, 20.244]}}, {"type": "Feature", "properties": {"id": "OIMB", "site": "Birjand Intl", "prior": "2", "obsTime": "2018-09-20T20:00:00Z", "temp": 17.0, "dewp": -1.0, "wspd": 0, "wdir": 0, "cover": "CAVOK", "visib": 6.21, "fltcat": "VFR", "altim": 1020.0, "rawOb": "OIMB 202000Z 00000KT CAVOK 17/M01 Q1020"}, "geometry": {"type": "Point", "coordinates": [59.292, 32.894]}}, {"type": "Feature", "properties": {"id": "VERC", "site": "Ranchi Arpt", "prior": "2", "obsTime": "2018-09-20T20:00:00Z", "temp": 23.0, "dewp": 23.0, "wspd": 5, "wdir": 120, "ceil": 100, "cover": "BKN", "visib": 1.55, "fltcat": "IFR", "altim": 1007.0, "wx": "-RA", "rawOb": "VERC 202000Z 12005KT 2500 -RA SCT010 SCT015 BKN100 23/23 Q1007 NOSIG"}, "geometry": {"type": "Point", "coordinates": [85.322, 23.314]}}, {"type": "Feature", "properties": {"id": "OIMQ", "site": "Kashmar", "prior": "2", "obsTime": "2018-09-20T20:00:00Z", "temp": 20.0, "dewp": 5.0, "wspd": 2, "wdir": 100, "altim": 1020.0, "rawOb": "OIMQ 202000Z AUTO 10002KT //// // ////// 20/05 Q1020"}, "geometry": {"type": "Point", "coordinates": [58.46, 35.23]}}, {"type": "Feature", "properties": {"id": "UNBB", "site": "Barnaul Arpt", "prior": "2", "obsTime": "2018-09-20T19:30:00Z", "temp": 11.0, "dewp": -1.0, "wspd": 6, "wdir": 130, "cover": "CAVOK", "visib": 6.21, "fltcat": "VFR", "altim": 1013.0, "rawOb": "UNBB 201930Z 13003MPS CAVOK 11/M01 Q1013 R06/CLRD66 NOSIG RMK QFE737"}, "geometry": {"type": "Point", "coordinates": [83.544, 53.365]}}, {"type": "Feature", "properties": {"id": "USCM", "site": "Magnitogorsk Intl", "prior": "2", "obsTime": "2018-09-20T19:30:00Z", "temp": 8.0, "dewp": 6.0, "wspd": 10, "wdir": 290, "ceil": 40, "cover": "OVC", "visib": 3.11, "fltcat": "MVFR", "altim": 1004.0, "wx": "BR", "rawOb": "USCM 201930Z 29005MPS 5000 BR OVC040CB 08/06 Q1004 R36/090065 NOSIG RMK QFE715"}, "geometry": {"type": "Point", "coordinates": [58.756, 53.394]}}, {"type": "Feature", "properties": {"id": "OOMS", "site": "Muscat/Seeb Intl", "prior": "2", "obsTime": "2018-09-20T19:50:00Z", "temp": 29.0, "dewp": 27.0, "wspd": 4, "wdir": 40, "cover": "CAVOK", "visib": 6.21, "fltcat": "VFR", "altim": 1005.0, "rawOb": "OOMS 201950Z 04004KT CAVOK 29/27 Q1005 NOSIG"}, "geometry": {"type": "Point", "coordinates": [58.283, 23.593]}}, {"type": "Feature", "properties": {"id": "VOML", "site": "Mangalore/Bajpe", "prior": "2", "obsTime": "2018-09-20T20:00:00Z", "temp": 26.0, "dewp": 23.0, "wspd": 5, "wdir": 280, "cover": "FEW", "visib": 3.73, "fltcat": "MVFR", "altim": 1007.0, "rawOb": "VOML 202000Z 28005KT 6000 FEW015 26/23 Q1007 NOSIG"}, "geometry": {"type": "Point", "coordinates": [74.89, 12.961]}}, {"type": "Feature", "properties": {"id": "VOVZ", "site": "Vizagapatam Arpt", "prior": "2", "obsTime": "2018-09-20T19:00:00Z", "temp": 25.0, "dewp": 24.0, "wspd": 10, "wdir": 250, "ceil": 70, "cover": "OVC", "visib": 1.55, "fltcat": "IFR", "altim": 997.0, "wx": "DZ", "rawOb": "VOVZ 201900Z 25010KT 2500 DZ FEW008 SCT012 OVC070 25/24 Q0997 TEMPO 1500 +RA"}, "geometry": {"type": "Point", "coordinates": [83.223, 17.722]}}, {"type": "Feature", "properties": {"id": "OODQ", "site": "Duqm", "prior": "2", "obsTime": "2018-09-20T19:50:00Z", "temp": 23.0, "dewp": 21.0, "wspd": 16, "wdir": 210, "cover": "CAVOK", "visib": 6.21, "fltcat": "VFR", "altim": 1008.0, "rawOb": "OODQ 201950Z AUTO 21016KT CAVOK 23/21 Q1008 NOSIG"}, "geometry": {"type": "Point", "coordinates": [57.657, 19.511]}}, {"type": "Feature", "properties": {"id": "OAKB", "site": "Kabul Intl", "prior": "2", "obsTime": "2018-09-20T19:50:00Z", "temp": 20.0, "dewp": 0.0, "wspd": 3, "wdir": 0, "cover": "CAVOK", "visib": 6.21, "fltcat": "VFR", "altim": 1019.0, "rawOb": "OAKB 201950Z VRB03KT CAVOK 20/M00 Q1019 NOSIG RMK A3009 BLU BLU"}, "geometry": {"type": "Point", "coordinates": [69.212, 34.566]}}, {"type": "Feature", "properties": {"id": "ROYN", "site": "Yonaguni Airpor", "prior": "3", "obsTime": "2018-09-20T19:00:00Z", "temp": 27.0, "dewp": 25.0, "wspd": 5, "wdir": 180, "cover": "FEW", "visib": 6.21, "fltcat": "VFR", "altim": 1010.0, "rawOb": "ROYN 201900Z AUTO 18005KT 130V210 9999 FEW016 27/25 Q1010"}, "geometry": {"type": "Point", "coordinates": [122.978, 24.467]}}, {"type": "Feature", "properties": {"id": "RKJB", "site": "Muan Intl", "prior": "3", "obsTime": "2018-09-20T19:00:00Z", "temp": 21.0, "dewp": 20.0, "wspd": 5, "wdir": 120, "visib": 5.59, "altim": 1008.0, "rawOb": "RKJB 201900Z AUTO 12005KT 9000 ///027/// 21/20 Q1008"}, "geometry": {"type": "Point", "coordinates": [126.382, 34.992]}}, {"type": "Feature", "properties": {"id": "UTDK", "site": "Kolub Arpt", "prior": "3", "obsTime": "2018-09-20T19:30:00Z", "temp": 21.0, "dewp": 4.0, "wspd": 10, "wdir": 20, "cover": "FEW", "visib": 6.21, "fltcat": "VFR", "altim": 1017.0, "rawOb": "UTDK 201930Z 02005MPS 9999 FEW120 21/04 Q1017 R01/09//70 RMK QFE705/0940"}, "geometry": {"type": "Point", "coordinates": [69.805, 37.988]}}, {"type": "Feature", "properties": {"id": "OPPS", "site": "Peshawar/Khan Intl", "prior": "3", "obsTime": "2018-09-20T20:00:00Z", "temp": 28.0, "dewp": 20.0, "wspd": 4, "wdir": 310, "cover": "SCT", "visib": 3.11, "fltcat": "MVFR", "altim": 1007.0, "wx": "HZ", "rawOb": "OPPS 202000Z 31004KT 5000 HZ FEW040 SCT100 28/20 Q1007"}, "geometry": {"type": "Point", "coordinates": [71.515, 33.991]}}, {"type": "Feature", "properties": {"id": "UTDL", "site": "Khudzhand Arpt", "prior": "3", "obsTime": "2018-09-20T19:30:00Z", "temp": 20.0, "dewp": 11.0, "wspd": 6, "wdir": 230, "ceil": 86, "cover": "OVC", "visib": 6.21, "fltcat": "VFR", "altim": 1017.0, "rawOb": "UTDL 201930Z 23003MPS 9999 FEW070CB OVC086 20/11 Q1017 R26/CLRD70 NOSIG RMK QFE725/0967"}, "geometry": {"type": "Point", "coordinates": [69.698, 40.216]}}, {"type": "Feature", "properties": {"id": "ZYCC", "site": "Changchun/Longjia In", "prior": "3", "obsTime": "2018-09-20T19:00:00Z", "temp": 15.0, "dewp": 9.0, "wspd": 6, "wdir": 200, "cover": "CAVOK", "visib": 6.21, "fltcat": "VFR", "altim": 1010.0, "rawOb": "ZYCC 201900Z 20003MPS CAVOK 15/09 Q1010 NOSIG"}, "geometry": {"type": "Point", "coordinates": [125.683, 43.994]}}, {"type": "Feature", "properties": {"id": "UTFN", "site": "Namangan Arpt", "prior": "3", "obsTime": "2018-09-20T19:30:00Z", "temp": 20.0, "dewp": 9.0, "wspd": 4, "wdir": 60, "cover": "SCT", "visib": 6.21, "fltcat": "VFR", "altim": 1016.0, "rawOb": "UTFN 201930Z 06004KT 9999 SCT050CB NSC 20/09 Q1016 R28/CLRD70 NOSIG"}, "geometry": {"type": "Point", "coordinates": [71.559, 40.985]}}, {"type": "Feature", "properties": {"id": "WBKT", "site": "Kudat Arpt", "prior": "3", "obsTime": "2018-09-20T19:00:00Z", "temp": 23.0, "dewp": 23.0, "wspd": 4, "wdir": 210, "ceil": 270, "cover": "BKN", "visib": 6.21, "fltcat": "VFR", "altim": 1008.0, "rawOb": "WBKT 201900Z 21004KT 170V240 9999 FEW014 SCT140 BKN270 23/23 Q1008"}, "geometry": {"type": "Point", "coordinates": [116.837, 6.924]}}, {"type": "Feature", "properties": {"id": "WBKK", "site": "Kota Kinabalu Intl", "prior": "3", "obsTime": "2018-09-20T19:30:00Z", "temp": 24.0, "dewp": 23.0, "wspd": 2, "wdir": 0, "ceil": 260, "cover": "BKN", "visib": 5.59, "fltcat": "VFR", "altim": 1008.0, "wx": "-RA", "rawOb": "WBKK 201930Z VRB02KT 9000 -RA FEW014 SCT040 BKN260 24/23 Q1008 NOSIG"}, "geometry": {"type": "Point", "coordinates": [116.051, 5.936]}}, {"type": "Feature", "properties": {"id": "ZBSJ", "site": "Zhengding Arpt", "prior": "3", "obsTime": "2018-09-20T19:00:00Z", "temp": 15.0, "dewp": 14.0, "wspd": 6, "wdir": 310, "cover": "CLR", "visib": 3.11, "fltcat": "MVFR", "altim": 1011.0, "wx": "BR", "rawOb": "ZBSJ 201900Z 31003MPS 5000 BR NSC 15/14 Q1011 NOSIG"}, "geometry": {"type": "Point", "coordinates": [114.698, 38.279]}}, {"type": "Feature", "properties": {"id": "ZGGG", "site": "Guangzhou/Baiyun Int", "prior": "3", "obsTime": "2018-09-20T19:30:00Z", "temp": 28.0, "dewp": 25.0, "wspd": 4, "wdir": 120, "cover": "FEW", "visib": 6.21, "fltcat": "VFR", "altim": 1010.0, "rawOb": "ZGGG 201930Z 12002MPS 100V160 9999 FEW020 28/25 Q1010 NOSIG"}, "geometry": {"type": "Point", "coordinates": [113.298, 23.391]}}, {"type": "Feature", "properties": {"id": "WBGS", "site": "Sibu Arpt", "prior": "3", "obsTime": "2018-09-20T19:00:00Z", "temp": 24.0, "dewp": 23.0, "wspd": 3, "wdir": 180, "ceil": 150, "cover": "BKN", "visib": 6.21, "fltcat": "VFR", "altim": 1011.0, "rawOb": "WBGS 201900Z 18003KT 100V260 9999 FEW005 BKN150 24/23 Q1011"}, "geometry": {"type": "Point", "coordinates": [111.984, 2.263]}}, {"type": "Feature", "properties": {"id": "WBGY", "site": "Sri Aman/Simanggang?", "prior": "3", "obsTime": "2018-09-20T19:00:00Z", "temp": 23.0, "dewp": 23.0, "wspd": 0, "wdir": 0, "altim": 1011.0, "rawOb": "WBGY 201900Z AUTO 00000KT //// // 23/23 Q1011"}, "geometry": {"type": "Point", "coordinates": [111.45, 1.22]}}, {"type": "Feature", "properties": {"id": "RCMQ", "site": "Wuchia Observatory", "prior": "3", "obsTime": "2018-09-20T19:50:00Z", "temp": 26.0, "dewp": 25.0, "wspd": 3, "wdir": 210, "cover": "SCT", "visib": 1.49, "fltcat": "IFR", "altim": 1011.0, "wx": "BR", "rawOb": "RCMQ 201950Z 21003KT 2400 BR FEW010 SCT030 26/25 Q1011 RMK A2988 RVR N/A"}, "geometry": {"type": "Point", "coordinates": [120.62, 24.27]}}, {"type": "Feature", "properties": {"id": "ZSHC", "site": "Hangzhou/Xiaoshan In", "prior": "3", "obsTime": "2018-09-20T19:30:00Z", "temp": 26.0, "dewp": 26.0, "wspd": 0, "wdir": 0, "ceil": 26, "cover": "BKN", "visib": 6.21, "fltcat": "MVFR", "altim": 1009.0, "rawOb": "ZSHC 201930Z 00000MPS 9999 BKN026 26/26 Q1009 NOSIG"}, "geometry": {"type": "Point", "coordinates": [120.432, 30.238]}}, {"type": "Feature", "properties": {"id": "ZSFZ", "site": "Fuzhou/Changle Intl", "prior": "3", "obsTime": "2018-09-20T19:00:00Z", "temp": 26.0, "dewp": 25.0, "wspd": 2, "wdir": 140, "cover": "FEW", "visib": 6.21, "fltcat": "VFR", "altim": 1010.0, "rawOb": "ZSFZ 201900Z 14001MPS 9999 FEW009 26/25 Q1010 NOSIG"}, "geometry": {"type": "Point", "coordinates": [119.664, 25.934]}}, {"type": "Feature", "properties": {"id": "ZSNJ", "site": "Nanjing/Lukou Intl", "prior": "3", "obsTime": "2018-09-20T19:00:00Z", "temp": 22.0, "dewp": 21.0, "wspd": 4, "wdir": 300, "cover": "SCT", "visib": 2.49, "fltcat": "IFR", "altim": 1011.0, "wx": "BR", "rawOb": "ZSNJ 201900Z 30002MPS 260V350 4000 BR SCT010 22/21 Q1011 NOSIG"}, "geometry": {"type": "Point", "coordinates": [118.863, 31.739]}}, {"type": "Feature", "properties": {"id": "UAKK", "site": "Karaganda/Sary-Arka", "prior": "3", "obsTime": "2018-09-20T19:30:00Z", "temp": 12.0, "dewp": 7.0, "wspd": 10, "wdir": 220, "ceil": 46, "cover": "BKN", "visib": 6.21, "fltcat": "VFR", "altim": 1009.0, "rawOb": "UAKK 201930Z 22005MPS 9999 BKN046CB 12/07 Q1009 R23/0///70 NOSIG RMK QFE710/0947"}, "geometry": {"type": "Point", "coordinates": [73.337, 49.673]}}, {"type": "Feature", "properties": {"id": "WBKW", "site": "Tawau Arpt", "prior": "3", "obsTime": "2018-09-20T19:00:00Z", "temp": 24.0, "dewp": 23.0, "wspd": 2, "wdir": 0, "ceil": 300, "cover": "BKN", "visib": 6.21, "fltcat": "VFR", "altim": 1008.0, "rawOb": "WBKW 201900Z VRB02KT 9999 FEW017 BKN300 24/23 Q1008"}, "geometry": {"type": "Point", "coordinates": [118.123, 4.314]}}, {"type": "Feature", "properties": {"id": "WAQQ", "site": "Juwata Arpt", "prior": "3", "obsTime": "2018-09-20T19:00:00Z", "temp": 25.0, "dewp": 24.0, "wspd": 0, "wdir": 0, "cover": "FEW", "visib": 4.97, "fltcat": "MVFR", "altim": 1009.0, "rawOb": "WAQQ 201900Z 00000KT 8000 FEW015 25/24 Q1009"}, "geometry": {"type": "Point", "coordinates": [117.569, 3.327]}}, {"type": "Feature", "properties": {"id": "ZBTJ", "site": "Tianjin/Binhai Intl", "prior": "3", "obsTime": "2018-09-20T19:30:00Z", "temp": 17.0, "dewp": 15.0, "wspd": 2, "wdir": 210, "cover": "CLR", "visib": 0.68, "fltcat": "LIFR", "altim": 1011.0, "wx": "BR", "rawOb": "ZBTJ 201930Z 21001MPS 1100 R16R/P2000D R16L/0800V1500U BR NSC 17/15 Q1011 NOSIG"}, "geometry": {"type": "Point", "coordinates": [117.356, 39.124]}}, {"type": "Feature", "properties": {"id": "ZJHK", "site": "Haikou/Meilan Intl", "prior": "3", "obsTime": "2018-09-20T19:00:00Z", "temp": 25.0, "dewp": 24.0, "wspd": 4, "wdir": 200, "cover": "CLR", "visib": 4.35, "fltcat": "MVFR", "altim": 1010.0, "rawOb": "ZJHK 201900Z 20002MPS 160V220 7000 NSC 25/24 Q1010 NOSIG"}, "geometry": {"type": "Point", "coordinates": [110.46, 19.935]}}, {"type": "Feature", "properties": {"id": "OIMC", "site": "Sarakhs Arpt", "prior": "3", "obsTime": "2018-09-20T20:00:00Z", "temp": 19.0, "dewp": 8.0, "wspd": 8, "wdir": 280, "altim": 1020.0, "rawOb": "OIMC 202000Z AUTO 28008KT //// // ////// 19/08 Q1020"}, "geometry": {"type": "Point", "coordinates": [61.064, 36.502]}}, {"type": "Feature", "properties": {"id": "USCC", "site": "Cheljabinsk Arpt", "prior": "3", "obsTime": "2018-09-20T19:30:00Z", "temp": 9.0, "dewp": 9.0, "wspd": 6, "wdir": 300, "cover": "FEW", "visib": 6.21, "fltcat": "VFR", "altim": 1002.0, "rawOb": "USCC 201930Z 30003MPS 9999 FEW040CB 09/09 Q1002 R27/000060 NOSIG RMK QFE732"}, "geometry": {"type": "Point", "coordinates": [61.507, 55.304]}}, {"type": "Feature", "properties": {"id": "OIMM", "site": "Mashhad Intl", "prior": "3", "obsTime": "2018-09-20T20:00:00Z", "temp": 17.0, "dewp": 6.0, "wspd": 6, "wdir": 160, "cover": "FEW", "visib": 6.21, "fltcat": "VFR", "altim": 1022.0, "rawOb": "OIMM 202000Z 16006KT 9999 FEW040 17/06 Q1022 A3021"}, "geometry": {"type": "Point", "coordinates": [59.643, 36.235]}}, {"type": "Feature", "properties": {"id": "OIZB", "site": "Zabol Arpt", "prior": "3", "obsTime": "2018-09-20T20:00:00Z", "temp": 27.0, "dewp": 3.0, "wspd": 16, "wdir": 330, "cover": "CAVOK", "visib": 6.21, "fltcat": "VFR", "altim": 1010.0, "rawOb": "OIZB 202000Z 33016KT CAVOK 27/03 Q1010"}, "geometry": {"type": "Point", "coordinates": [61.544, 31.097]}}, {"type": "Feature", "properties": {"id": "WAJJ", "site": "Jayapura/Sentani Arp", "prior": "3", "obsTime": "2018-09-20T20:00:00Z", "temp": 23.0, "dewp": 21.0, "wspd": 0, "wdir": 0, "cover": "SCT", "visib": 6.21, "fltcat": "VFR", "altim": 1009.0, "rawOb": "WAJJ 202000Z 00000KT 9999 SCT010 23/21 Q1009 NOSIG"}, "geometry": {"type": "Point", "coordinates": [140.514, -2.575]}}, {"type": "Feature", "properties": {"id": "UTNU", "site": "Urgench Arpt", "prior": "3", "obsTime": "2018-09-20T19:00:00Z", "temp": 13.0, "dewp": 9.0, "wspd": 2, "wdir": 270, "cover": "CLR", "visib": 4.97, "fltcat": "MVFR", "altim": 1017.0, "rawOb": "UTNU 201900Z 27002KT 8000 NSC 13/09 Q1017 R31/CLRD70 NOSIG"}, "geometry": {"type": "Point", "coordinates": [60.641, 41.585]}}, {"type": "Feature", "properties": {"id": "OIZI", "site": "Iranshahr Arpt", "prior": "3", "obsTime": "2018-09-20T20:00:00Z", "temp": 33.0, "dewp": 2.0, "wspd": 8, "wdir": 60, "cover": "CAVOK", "visib": 6.21, "fltcat": "VFR", "altim": 1009.0, "rawOb": "OIZI 202000Z 06008KT CAVOK 33/02 Q1009"}, "geometry": {"type": "Point", "coordinates": [60.72, 27.236]}}, {"type": "Feature", "properties": {"id": "UTAV", "site": "Turkmenabat Arpt", "prior": "3", "obsTime": "2018-09-20T20:00:00Z", "temp": 16.0, "dewp": 6.0, "wspd": 4, "wdir": 260, "cover": "CAVOK", "visib": 6.21, "fltcat": "VFR", "altim": 1018.0, "rawOb": "UTAV 202000Z 26004KT CAVOK 16/06 Q1018 NOSIG"}, "geometry": {"type": "Point", "coordinates": [63.61, 39.086]}}, {"type": "Feature", "properties": {"id": "OPNH", "site": "Nawabshah Arpt", "prior": "3", "obsTime": "2018-09-20T20:00:00Z", "temp": 27.0, "dewp": 22.0, "wspd": 10, "wdir": 135, "cover": "CLR", "visib": 3.11, "fltcat": "MVFR", "altim": 1005.0, "wx": "HZ", "rawOb": "OPNH 202000Z 13510KT 5000 HZ NSC 27/22 Q1005 NOSIG"}, "geometry": {"type": "Point", "coordinates": [68.39, 26.22]}}, {"type": "Feature", "properties": {"id": "RJOH", "site": "Miho/Yonago Arpt", "prior": "3", "obsTime": "2018-09-20T19:00:00Z", "temp": 20.0, "dewp": 17.0, "wspd": 3, "wdir": 120, "ceil": 30, "cover": "OVC", "visib": 6.21, "fltcat": "MVFR", "altim": 1009.0, "rawOb": "RJOH 201900Z 12003KT 9999 FEW010 BKN030 OVC045 20/17 Q1009"}, "geometry": {"type": "Point", "coordinates": [133.236, 35.492]}}, {"type": "Feature", "properties": {"id": "RKNY", "site": "Yangyang Intl", "prior": "3", "obsTime": "2018-09-20T19:50:00Z", "temp": 18.0, "dewp": 17.0, "wspd": 5, "wdir": 240, "visib": 2.92, "fltcat": "IFR", "altim": 1012.0, "wx": "RA", "rawOb": "RKNY 201950Z AUTO 24005KT 4700 RA ///033/// ///051/// 18/17 Q1012"}, "geometry": {"type": "Point", "coordinates": [128.67, 38.06]}}, {"type": "Feature", "properties": {"id": "RKTN", "site": "Daegu(AFB)", "prior": "3", "obsTime": "2018-09-20T19:00:00Z", "temp": 20.0, "dewp": 19.0, "wspd": 3, "wdir": 110, "ceil": 22, "cover": "OVC", "visib": 5.59, "fltcat": "MVFR", "altim": 1009.0, "rawOb": "RKTN 201900Z 11003KT 9000 SCT015 BKN022 OVC025 20/19 Q1009"}, "geometry": {"type": "Point", "coordinates": [128.657, 35.894]}}, {"type": "Feature", "properties": {"id": "RKTU", "site": "Chongju(AFB)", "prior": "3", "obsTime": "2018-09-20T19:00:00Z", "temp": 18.0, "dewp": 17.0, "wspd": 2, "wdir": 330, "ceil": 20, "cover": "OVC", "visib": 2.98, "fltcat": "IFR", "altim": 1010.0, "wx": "RA BR", "rawOb": "RKTU 201900Z 33002KT 4800 RA BR BKN020 OVC030 18/17 Q1010"}, "geometry": {"type": "Point", "coordinates": [127.499, 36.717]}}, {"type": "Feature", "properties": {"id": "UAII", "site": "Shymkent Intl", "prior": "3", "obsTime": "2018-09-20T19:30:00Z", "temp": 19.0, "dewp": 8.0, "wspd": 8, "wgst": 17, "wdir": 230, "ceil": 100, "cover": "OVC", "visib": 6.21, "fltcat": "VFR", "altim": 1016.0, "rawOb": "UAII 201930Z 23004G09MPS 9999 FEW050CB OVC100 19/08 Q1016 R28/0///70 NOSIG RMK QFE725/0967"}, "geometry": {"type": "Point", "coordinates": [69.478, 42.364]}}, {"type": "Feature", "properties": {"id": "RJFF", "site": "Fukuoka Arpt", "prior": "3", "obsTime": "2018-09-20T19:30:00Z", "temp": 24.0, "dewp": 21.0, "wspd": 2, "wdir": 0, "ceil": 13, "cover": "OVC", "visib": 6.21, "fltcat": "MVFR", "altim": 1008.0, "rawOb": "RJFF 201930Z AUTO VRB02KT 9999 FEW008 SCT011 OVC013 24/21 Q1008 NOSIG RMK A2978"}, "geometry": {"type": "Point", "coordinates": [130.451, 33.586]}}, {"type": "Feature", "properties": {"id": "UTSK", "site": "Karshi Arpt", "prior": "3", "obsTime": "2018-09-20T19:30:00Z", "temp": 17.0, "dewp": 6.0, "wspd": 6, "wdir": 320, "cover": "CAVOK", "visib": 6.21, "fltcat": "VFR", "altim": 1018.0, "rawOb": "UTSK 201930Z 32006KT CAVOK 17/06 Q1018 R16/CLRD70"}, "geometry": {"type": "Point", "coordinates": [65.773, 38.804]}}, {"type": "Feature", "properties": {"id": "UTSS", "site": "Samarkand Arpt", "prior": "3", "obsTime": "2018-09-20T19:30:00Z", "temp": 14.0, "dewp": 7.0, "wspd": 2, "wdir": 130, "cover": "CLR", "visib": 3.73, "fltcat": "MVFR", "altim": 1018.0, "rawOb": "UTSS 201930Z 13002KT 6000 NSC 14/07 Q1018 R27/70D NOSIG"}, "geometry": {"type": "Point", "coordinates": [66.989, 39.7]}}, {"type": "Feature", "properties": {"id": "WMBA", "site": "Sitiawan Airstrip", "prior": "3", "obsTime": "2018-09-20T19:00:00Z", "temp": 25.0, "dewp": 24.0, "wspd": 0, "wdir": 0, "ceil": 260, "cover": "BKN", "visib": 3.73, "fltcat": "MVFR", "altim": 1009.0, "rawOb": "WMBA 201900Z 00000KT 6000 FEW006 SCT150 BKN260 25/24 Q1009"}, "geometry": {"type": "Point", "coordinates": [100.699, 4.222]}}, {"type": "Feature", "properties": {"id": "VTSP", "site": "Phuket Intl", "prior": "3", "obsTime": "2018-09-20T19:30:00Z", "temp": 24.0, "dewp": 21.0, "wspd": 0, "wdir": 0, "cover": "SCT", "visib": 4.97, "fltcat": "MVFR", "altim": 1011.0, "rawOb": "VTSP 201930Z 00000KT 8000 FEW020 SCT100 24/21 Q1011 NOSIG"}, "geometry": {"type": "Point", "coordinates": [98.316, 8.113]}}, {"type": "Feature", "properties": {"id": "WMKD", "site": "Kuantan Arpt", "prior": "3", "obsTime": "2018-09-20T19:00:00Z", "temp": 23.0, "dewp": 22.0, "wspd": 2, "wdir": 0, "ceil": 280, "cover": "BKN", "visib": 4.97, "fltcat": "MVFR", "altim": 1009.0, "rawOb": "WMKD 201900Z VRB02KT 8000 FEW005 SCT160 BKN280 23/22 Q1009 NOSIG"}, "geometry": {"type": "Point", "coordinates": [103.209, 3.773]}}, {"type": "Feature", "properties": {"id": "WMKM", "site": "Malacca/Lapangen Arp", "prior": "3", "obsTime": "2018-09-20T19:00:00Z", "temp": 23.0, "dewp": 22.0, "wspd": 3, "wdir": 60, "ceil": 260, "cover": "BKN", "visib": 4.97, "fltcat": "MVFR", "altim": 1010.0, "wx": "-RA", "rawOb": "WMKM 201900Z 06003KT 010V100 8000 -RA FEW008 SCT026 BKN260 23/22 Q1010"}, "geometry": {"type": "Point", "coordinates": [102.252, 2.264]}}, {"type": "Feature", "properties": {"id": "VCRI", "site": "Mattala/Rajapaksa In", "prior": "3", "obsTime": "2018-09-20T18:10:00Z", "temp": 26.0, "dewp": 26.0, "wspd": 6, "wdir": 240, "ceil": 280, "cover": "BKN", "visib": 6.21, "fltcat": "VFR", "altim": 1009.0, "rawOb": "VCRI 201810Z 24006KT 9999 SCT018 BKN280 26/26 Q1009 NOSIG"}, "geometry": {"type": "Point", "coordinates": [81.124, 6.284]}}, {"type": "Feature", "properties": {"id": "WMKC", "site": "Kota Bharu Arpt", "prior": "3", "obsTime": "2018-09-20T19:00:00Z", "temp": 26.0, "dewp": 25.0, "wspd": 2, "wdir": 0, "ceil": 280, "cover": "BKN", "visib": 6.21, "fltcat": "VFR", "altim": 1009.0, "rawOb": "WMKC 201900Z VRB02KT 9999 FEW020 BKN280 26/25 Q1009"}, "geometry": {"type": "Point", "coordinates": [102.293, 6.167]}}, {"type": "Feature", "properties": {"id": "VTBU", "site": "Rayong/U-Tapao Intl", "prior": "3", "obsTime": "2018-09-20T19:30:00Z", "temp": 26.0, "dewp": 23.0, "wspd": 2, "wdir": 310, "cover": "SCT", "visib": 1.86, "fltcat": "IFR", "altim": 1009.0, "wx": "BR", "rawOb": "VTBU 201930Z 31002KT 3000 BR FEW020 SCT100 26/23 Q1009 NOSIG"}, "geometry": {"type": "Point", "coordinates": [101.005, 12.681]}}, {"type": "Feature", "properties": {"id": "UNNT", "site": "Novosibirsk/Tolmache", "prior": "3", "obsTime": "2018-09-20T19:30:00Z", "temp": 6.0, "dewp": 2.0, "wspd": 4, "wdir": 100, "cover": "CAVOK", "visib": 6.21, "fltcat": "VFR", "altim": 1013.0, "rawOb": "UNNT 201930Z 10002MPS CAVOK 06/02 Q1013 R07/090070 R16/090070 NOSIG RMK QFE750/1000"}, "geometry": {"type": "Point", "coordinates": [82.659, 55.013]}}]}