{"type": "FeatureCollection", "features": [{"type": "Feature", "properties": {"id": "UUEE", "site": "Moscow/Sheremet Arpt", "prior": "0", "obsTime": "2018-09-20T19:30:00Z", "temp": 14.0, "dewp": 12.0, "wspd": 6, "wdir": 250, "cover": "CAVOK", "visib": 6.21, "fltcat": "VFR", "altim": 1016.0, "rawOb": "UUEE 201930Z 25003MPS CAVOK 14/12 Q1016 R24L/CLRD62 R24C/CLRD62 NOSIG"}, "geometry": {"type": "Point", "coordinates": [37.414, 55.973]}}, {"type": "Feature", "properties": {"id": "BIRK", "site": "Reykjavik Arpt", "prior": "0", "obsTime": "2018-09-20T20:00:00Z", "temp": 4.0, "dewp": -3.0, "wspd": 21, "wgst": 39, "wdir": 360, "cover": "FEW", "visib": 6.21, "fltcat": "VFR", "altim": 1004.0, "rawOb": "BIRK 202000Z 36021G39KT 9999 FEW032 04/M03 Q1004"}, "geometry": {"type": "Point", "coordinates": [-21.938, 64.129]}}, {"type": "Feature", "properties": {"id": "LRSV", "site": "Suceava/Salcea Arpt", "prior": "0", "obsTime": "2018-09-20T19:30:00Z", "temp": 18.0, "dewp": 9.0, "wspd": 2, "wdir": 180, "cover": "CAVOK", "visib": 6.21, "fltcat": "VFR", "altim": 1021.0, "rawOb": "LRSV 201930Z 18002KT CAVOK 18/09 Q1021"}, "geometry": {"type": "Point", "coordinates": [26.354, 47.687]}}, {"type": "Feature", "properties": {"id": "LEMD", "site": "Madrid/Barajas Arpt", "prior": "0", "obsTime": "2018-09-20T19:30:00Z", "temp": 26.0, "dewp": 14.0, "wspd": 7, "wdir": 320, "cover": "FEW", "visib": 6.21, "fltcat": "VFR", "altim": 1019.0, "rawOb": "LEMD 201930Z 32007KT 9999 FEW080TCU 26/14 Q1019 NOSIG"}, "geometry": {"type": "Point", "coordinates": [-3.564, 40.486]}}, {"type": "Feature", "properties": {"id": "EDDT", "site": "Berlin/Tegel Arpt", "prior": "0", "obsTime": "2018-09-20T19:50:00Z", "temp": 20.0, "dewp": 12.0, "wspd": 1, "wdir": 0, "cover": "CAVOK", "visib": 6.21, "fltcat": "VFR", "altim": 1013.0, "rawOb": "EDDT 201950Z VRB01KT CAVOK 20/12 Q1013 NOSIG"}, "geometry": {"type": "Point", "coordinates": [13.293, 52.559]}}, {"type": "Feature", "properties": {"id": "ULMM", "site": "Murmansk Arpt", "prior": "0", "obsTime": "2018-09-20T19:30:00Z", "temp": 11.0, "dewp": 10.0, "wspd": 8, "wdir": 170, "cover": "SCT", "visib": 6.21, "fltcat": "VFR", "altim": 985.0, "wx": "-SHRA", "rawOb": "ULMM 201930Z 17004MPS 9999 -SHRA SCT070CB 11/10 Q0985 R13/290060 NOSIG RMK QFE733"}, "geometry": {"type": "Point", "coordinates": [32.75, 68.783]}}, {"type": "Feature", "properties": {"id": "ESSA", "site": "Stockholm/Arlanda Ar", "prior": "0", "obsTime": "2018-09-20T19:50:00Z", "temp": 13.0, "dewp": 6.0, "wspd": 14, "wdir": 240, "cover": "CAVOK", "visib": 6.21, "fltcat": "VFR", "altim": 1008.0, "rawOb": "ESSA 201950Z 24014KT CAVOK 13/06 Q1008 NOSIG"}, "geometry": {"type": "Point", "coordinates": [17.926, 59.655]}}, {"type": "Feature", "properties": {"id": "ORBI", "site": "Baghdad Intl", "prior": "0", "obsTime": "2018-09-20T20:00:00Z", "temp": 29.0, "dewp": 11.0, "wspd": 1, "wdir": 0, "cover": "CAVOK", "visib": 6.21, "fltcat": "VFR", "altim": 1007.0, "rawOb": "ORBI 202000Z VRB01KT CAVOK 29/11 Q1007 NOSIG"}, "geometry": {"type": "Point", "coordinates": [44.232, 33.263]}}, {"type": "Feature", "properties": {"id": "LPAZ", "site": "Santa Maria Isl Arpt", "prior": "0", "obsTime": "2018-09-20T19:30:00Z", "temp": 24.0, "dewp": 20.0, "wspd": 6, "wdir": 300, "cover": "FEW", "visib": 6.21, "fltcat": "VFR", "altim": 1021.0, "rawOb": "LPAZ 201930Z 30006KT 240V330 9999 FEW019 24/20 Q1021"}, "geometry": {"type": "Point", "coordinates": [-25.17, 36.97]}}, {"type": "Feature", "properties": {"id": "LIRF", "site": "Rome/Fiumicino", "prior": "0", "obsTime": "2018-09-20T19:50:00Z", "temp": 20.0, "dewp": 19.0, "wspd": 2, "wdir": 0, "cover": "CAVOK", "visib": 6.21, "fltcat": "VFR", "altim": 1016.0, "rawOb": "LIRF 201950Z VRB02KT CAVOK 20/19 Q1016 NOSIG"}, "geometry": {"type": "Point", "coordinates": [12.24, 41.801]}}, {"type": "Feature", "properties": {"id": "EGLL", "site": "London/Heathrow Intl", "prior": "0", "obsTime": "2018-09-20T19:50:00Z", "temp": 18.0, "dewp": 16.0, "wspd": 17, "wdir": 220, "ceil": 23, "cover": "BKN", "visib": 6.21, "fltcat": "MVFR", "altim": 1004.0, "wx": "-RA", "rawOb": "EGLL 201950Z AUTO 22017KT 9999 -RA BKN023 BKN030 18/16 Q1004 TEMPO SHRA"}, "geometry": {"type": "Point", "coordinates": [-0.458, 51.471]}}, {"type": "Feature", "properties": {"id": "LGAV", "site": "Athens/Venizelos Int", "prior": "0", "obsTime": "2018-09-20T19:50:00Z", "temp": 21.0, "dewp": 10.0, "wspd": 5, "wdir": 10, "cover": "CAVOK", "visib": 6.21, "fltcat": "VFR", "altim": 1017.0, "rawOb": "LGAV 201950Z 01005KT CAVOK 21/10 Q1017 NOSIG"}, "geometry": {"type": "Point", "coordinates": [23.943, 37.937]}}, {"type": "Feature", "properties": {"id": "UKBB", "site": "Borispil Arpt", "prior": "1", "obsTime": "2018-09-20T20:00:00Z", "temp": 14.0, "dewp": 12.0, "wspd": 0, "wdir": 0, "cover": "CAVOK", "visib": 6.21, "fltcat": "VFR", "altim": 1020.0, "rawOb": "UKBB 202000Z 00000MPS CAVOK 14/12 Q1020 R88/CLRD// NOSIG"}, "geometry": {"type": "Point", "coordinates": [30.893, 50.336]}}, {"type": "Feature", "properties": {"id": "EPWA", "site": "Warsaw/Chopin Arpt", "prior": "1", "obsTime": "2018-09-20T19:30:00Z", "temp": 20.0, "dewp": 15.0, "wspd": 4, "wdir": 150, "cover": "CAVOK", "visib": 6.21, "fltcat": "VFR", "altim": 1018.0, "rawOb": "EPWA 201930Z 15004KT CAVOK 20/15 Q1018 NOSIG"}, "geometry": {"type": "Point", "coordinates": [20.965, 52.168]}}, {"type": "Feature", "properties": {"id": "LDZA", "site": "Zagreb Arpt", "prior": "1", "obsTime": "2018-09-20T20:00:00Z", "temp": 19.0, "dewp": 14.0, "wspd": 0, "wdir": 0, "cover": "CAVOK", "visib": 6.21, "fltcat": "VFR", "altim": 1018.0, "rawOb": "LDZA 202000Z 00000KT CAVOK 19/14 Q1018 NOSIG"}, "geometry": {"type": "Point", "coordinates": [16.064, 45.739]}}, {"type": "Feature", "properties": {"id": "ULLI", "site": "St Petersburg/Pulkov", "prior": "1", "obsTime": "2018-09-20T19:30:00Z", "temp": 18.0, "dewp": 14.0, "wspd": 10, "wdir": 240, "cover": "CAVOK", "visib": 6.21, "fltcat": "VFR", "altim": 1010.0, "rawOb": "ULLI 201930Z 24005MPS CAVOK 18/14 Q1010 R88/090060 NOSIG"}, "geometry": {"type": "Point", "coordinates": [30.263, 59.8]}}, {"type": "Feature", "properties": {"id": "LRBS", "site": "Bucharest/Baneasa In", "prior": "1", "obsTime": "2018-09-20T19:30:00Z", "temp": 16.0, "dewp": 11.0, "wspd": 0, "wdir": 0, "cover": "CAVOK", "visib": 6.21, "fltcat": "VFR", "altim": 1020.0, "rawOb": "LRBS 201930Z 00000KT CAVOK 16/11 Q1020 NOSIG"}, "geometry": {"type": "Point", "coordinates": [26.104, 44.504]}}, {"type": "Feature", "properties": {"id": "GMFO", "site": "Oujda/Angads Arpt", "prior": "1", "obsTime": "2018-09-20T20:00:00Z", "temp": 22.0, "dewp": 17.0, "wspd": 7, "wdir": 320, "cover": "CAVOK", "visib": 6.21, "fltcat": "VFR", "altim": 1019.0, "rawOb": "GMFO 202000Z 32007KT CAVOK 22/17 Q1019 NOSIG"}, "geometry": {"type": "Point", "coordinates": [-1.93, 34.793]}}, {"type": "Feature", "properties": {"id": "UMMS", "site": "Minsk Arpt", "prior": "1", "obsTime": "2018-09-20T19:30:00Z", "temp": 16.0, "dewp": 14.0, "wspd": 4, "wdir": 230, "cover": "CLR", "visib": 4.97, "fltcat": "MVFR", "altim": 1019.0, "rawOb": "UMMS 201930Z 23002MPS 8000 NSC 16/14 Q1019 R31/D NOSIG"}, "geometry": {"type": "Point", "coordinates": [28.031, 53.883]}}, {"type": "Feature", "properties": {"id": "LFBD", "site": "Bordeaux/Merignac Ar", "prior": "1", "obsTime": "2018-09-20T19:30:00Z", "temp": 21.0, "dewp": 16.0, "wspd": 3, "wdir": 0, "cover": "CAVOK", "visib": 6.21, "fltcat": "VFR", "altim": 1016.0, "rawOb": "LFBD 201930Z AUTO VRB03KT CAVOK 21/16 Q1016 NOSIG"}, "geometry": {"type": "Point", "coordinates": [-0.715, 44.829]}}, {"type": "Feature", "properties": {"id": "UWGG", "site": "Niznij Novgorod Intl", "prior": "1", "obsTime": "2018-09-20T19:30:00Z", "temp": 13.0, "dewp": 12.0, "wspd": 6, "wdir": 280, "cover": "CAVOK", "visib": 6.21, "fltcat": "VFR", "altim": 1013.0, "rawOb": "UWGG 201930Z 28003MPS CAVOK 13/12 Q1013 R36R/090070 NOSIG"}, "geometry": {"type": "Point", "coordinates": [43.785, 56.229]}}, {"type": "Feature", "properties": {"id": "LYBE", "site": "Belgrade/Tesla Arpt", "prior": "1", "obsTime": "2018-09-20T20:00:00Z", "temp": 20.0, "dewp": 9.0, "wspd": 5, "wdir": 110, "cover": "CAVOK", "visib": 6.21, "fltcat": "VFR", "altim": 1019.0, "rawOb": "LYBE 202000Z 11005KT CAVOK 20/09 Q1019 NOSIG"}, "geometry": {"type": "Point", "coordinates": [20.306, 44.82]}}, {"type": "Feature", "properties": {"id": "EIDW", "site": "Dublin Arpt", "prior": "1", "obsTime": "2018-09-20T20:00:00Z", "temp": 7.0, "dewp": 6.0, "wspd": 17, "wdir": 340, "ceil": 40, "cover": "BKN", "visib": 4.35, "fltcat": "MVFR", "altim": 996.0, "wx": "-RA", "rawOb": "EIDW 202000Z 34017KT 7000 -RA FEW008 SCT014 BKN040 07/06 Q0996 NOSIG"}, "geometry": {"type": "Point", "coordinates": [-6.254, 53.426]}}, {"type": "Feature", "properties": {"id": "LFRB", "site": "Brest/Guipavas Arpt", "prior": "1", "obsTime": "2018-09-20T19:30:00Z", "temp": 18.0, "dewp": 16.0, "wspd": 23, "wgst": 34, "wdir": 210, "ceil": 8, "cover": "OVC", "visib": 6.21, "fltcat": "IFR", "altim": 1008.0, "rawOb": "LFRB 201930Z AUTO 21023G34KT 9999 OVC008 18/16 Q1008 TEMPO 3000 RADZ OVC004 BECMG 21020KT"}, "geometry": {"type": "Point", "coordinates": [-4.419, 48.447]}}, {"type": "Feature", "properties": {"id": "URWW", "site": "Volgograd Intl", "prior": "1", "obsTime": "2018-09-20T19:30:00Z", "temp": 16.0, "dewp": 10.0, "wspd": 6, "wdir": 290, "cover": "CAVOK", "visib": 6.21, "fltcat": "VFR", "altim": 1016.0, "rawOb": "URWW 201930Z 29003MPS CAVOK 16/10 Q1016 R24/010070 NOSIG"}, "geometry": {"type": "Point", "coordinates": [44.343, 48.784]}}, {"type": "Feature", "properties": {"id": "LMML", "site": "Malta Intl Arpt", "prior": "1", "obsTime": "2018-09-20T19:45:00Z", "temp": 25.0, "dewp": 19.0, "wspd": 3, "wdir": 100, "cover": "FEW", "visib": 6.21, "fltcat": "VFR", "altim": 1016.0, "rawOb": "LMML 201945Z 10003KT 9999 FEW025 25/19 Q1016 NOSIG"}, "geometry": {"type": "Point", "coordinates": [14.489, 35.848]}}, {"type": "Feature", "properties": {"id": "LPPT", "site": "Lisbon Arpt", "prior": "1", "obsTime": "2018-09-20T19:30:00Z", "temp": 21.0, "dewp": 16.0, "wspd": 10, "wdir": 340, "cover": "CAVOK", "visib": 6.21, "fltcat": "VFR", "altim": 1019.0, "rawOb": "LPPT 201930Z 34010KT 290V360 CAVOK 21/16 Q1019"}, "geometry": {"type": "Point", "coordinates": [-9.136, 38.781]}}, {"type": "Feature", "properties": {"id": "LPPS", "site": "Porto Santo Isl Arpt", "prior": "1", "obsTime": "2018-09-20T19:30:00Z", "temp": 22.0, "dewp": 18.0, "wspd": 9, "wdir": 30, "cover": "SCT", "visib": 6.21, "fltcat": "VFR", "altim": 1021.0, "rawOb": "LPPS 201930Z 03009KT 350V060 9999 SCT015 SCT030 22/18 Q1021"}, "geometry": {"type": "Point", "coordinates": [-16.35, 33.073]}}, {"type": "Feature", "properties": {"id": "LTAC", "site": "Ankara/Esenboga Intl", "prior": "1", "obsTime": "2018-09-20T19:50:00Z", "temp": 17.0, "dewp": 3.0, "wspd": 1, "wdir": 0, "cover": "CAVOK", "visib": 6.21, "fltcat": "VFR", "altim": 1018.0, "rawOb": "LTAC 201950Z VRB01KT CAVOK 17/03 Q1018 NOSIG"}, "geometry": {"type": "Point", "coordinates": [32.995, 40.128]}}, {"type": "Feature", "properties": {"id": "LTAG", "site": "Adana/Incirlik(AB)", "prior": "1", "obsTime": "2018-09-20T19:50:00Z", "temp": 26.0, "dewp": 21.0, "wspd": 3, "wdir": 50, "ceil": 170, "cover": "BKN", "visib": 6.21, "fltcat": "VFR", "altim": 1011.0, "rawOb": "LTAG 201950Z 05003KT 9999 FEW030 BKN170 26/21 Q1011 NOSIG"}, "geometry": {"type": "Point", "coordinates": [35.426, 37.002]}}, {"type": "Feature", "properties": {"id": "LRSM", "site": "Satu Mare Arpt", "prior": "1", "obsTime": "2018-09-20T19:30:00Z", "temp": 16.0, "dewp": 12.0, "wspd": 3, "wdir": 110, "cover": "CLR", "visib": 4.97, "fltcat": "MVFR", "altim": 1019.0, "rawOb": "LRSM 201930Z AUTO 11003KT 8000 NCD 16/12 Q1019"}, "geometry": {"type": "Point", "coordinates": [22.886, 47.704]}}, {"type": "Feature", "properties": {"id": "EKVG", "site": "Soervaag/Vagar Arpt", "prior": "1", "obsTime": "2018-09-20T19:50:00Z", "temp": 7.0, "dewp": 3.0, "wspd": 18, "wdir": 320, "cover": "SCT", "altim": 995.0, "rawOb": "EKVG 201950Z AUTO 32018KT 9999NDV SCT025/// 07/03 Q0995 RMK SCT029/// SCT045/// WIND 850FT 32025G35KT"}, "geometry": {"type": "Point", "coordinates": [-7.3, 62.068]}}, {"type": "Feature", "properties": {"id": "EHAM", "site": "Amsterdam Arpt", "prior": "1", "obsTime": "2018-09-20T19:55:00Z", "temp": 18.0, "dewp": 15.0, "wspd": 7, "wdir": 160, "cover": "CAVOK", "visib": 6.21, "fltcat": "VFR", "altim": 1008.0, "rawOb": "EHAM 201955Z 16007KT CAVOK 18/15 Q1008 NOSIG"}, "geometry": {"type": "Point", "coordinates": [4.764, 52.311]}}, {"type": "Feature", "properties": {"id": "EDDF", "site": "Frankfurt/Main Arpt", "prior": "1", "obsTime": "2018-09-20T19:50:00Z", "temp": 21.0, "dewp": 13.0, "wspd": 5, "wdir": 160, "cover": "CAVOK", "visib": 6.21, "fltcat": "VFR", "altim": 1014.0, "rawOb": "EDDF 201950Z 16005KT CAVOK 21/13 Q1014 NOSIG"}, "geometry": {"type": "Point", "coordinates": [8.564, 50.038]}}, {"type": "Feature", "properties": {"id": "EVRA", "site": "Riga Intl Arpt", "prior": "1", "obsTime": "2018-09-20T19:50:00Z", "temp": 18.0, "dewp": 13.0, "wspd": 3, "wdir": 210, "cover": "CAVOK", "visib": 6.21, "fltcat": "VFR", "altim": 1014.0, "rawOb": "EVRA 201950Z 21003KT CAVOK 18/13 Q1014 NOSIG"}, "geometry": {"type": "Point", "coordinates": [23.97, 56.92]}}, {"type": "Feature", "properties": {"id": "LECO", "site": "Coruna Arpt", "prior": "1", "obsTime": "2018-09-20T19:30:00Z", "temp": 19.0, "dewp": 16.0, "wspd": 6, "wdir": 220, "cover": "FEW", "visib": 6.21, "fltcat": "VFR", "altim": 1019.0, "rawOb": "LECO 201930Z 22006KT 9999 FEW040 19/16 Q1019 NOSIG"}, "geometry": {"type": "Point", "coordinates": [-8.378, 43.3]}}, {"type": "Feature", "properties": {"id": "LSGG", "site": "Geneva/Cointrin Arpt", "prior": "1", "obsTime": "2018-09-20T19:50:00Z", "temp": 20.0, "dewp": 13.0, "wspd": 1, "wdir": 0, "cover": "CAVOK", "visib": 6.21, "fltcat": "VFR", "altim": 1018.0, "rawOb": "LSGG 201950Z VRB01KT CAVOK 20/13 Q1018 NOSIG"}, "geometry": {"type": "Point", "coordinates": [6.111, 46.237]}}, {"type": "Feature", "properties": {"id": "DAAG", "site": "Algiers Intl Arpt", "prior": "1", "obsTime": "2018-09-20T19:30:00Z", "temp": 23.0, "dewp": 21.0, "wspd": 3, "wdir": 100, "cover": "FEW", "visib": 6.21, "fltcat": "VFR", "altim": 1018.0, "rawOb": "DAAG 201930Z 10003KT 9999 FEW020 23/21 Q1018"}, "geometry": {"type": "Point", "coordinates": [3.216, 36.694]}}, {"type": "Feature", "properties": {"id": "ULAA", "site": "Arhangelsk/Talagi Ar", "prior": "1", "obsTime": "2018-09-20T19:30:00Z", "temp": 11.0, "dewp": 11.0, "wspd": 10, "wdir": 180, "ceil": 6, "cover": "OVC", "visib": 6.21, "fltcat": "IFR", "altim": 1003.0, "rawOb": "ULAA 201930Z 18005MPS 130V220 9999 OVC006 11/11 Q1003 R08/CLRD70 NOSIG RMK QBB190 QFE751/1001"}, "geometry": {"type": "Point", "coordinates": [40.713, 64.6]}}, {"type": "Feature", "properties": {"id": "EFHK", "site": "Helsinki/Vantaa Arpt", "prior": "1", "obsTime": "2018-09-20T19:50:00Z", "temp": 15.0, "dewp": 14.0, "wspd": 8, "wdir": 210, "ceil": 11, "cover": "BKN", "visib": 4.97, "fltcat": "MVFR", "altim": 1007.0, "wx": "SHRA", "rawOb": "EFHK 201950Z 21008KT 8000 SHRA SCT009 BKN011 SCT025CB 15/14 Q1007 TEMPO -SHRA BKN009"}, "geometry": {"type": "Point", "coordinates": [24.97, 60.325]}}, {"type": "Feature", "properties": {"id": "LEBL", "site": "Barcelona/Prat Arpt", "prior": "1", "obsTime": "2018-09-20T19:30:00Z", "temp": 24.0, "dewp": 21.0, "wspd": 8, "wdir": 240, "cover": "CAVOK", "visib": 6.21, "fltcat": "VFR", "altim": 1017.0, "rawOb": "LEBL 201930Z 24008KT CAVOK 24/21 Q1017 NOSIG"}, "geometry": {"type": "Point", "coordinates": [2.084, 41.296]}}, {"type": "Feature", "properties": {"id": "LFPO", "site": "Paris/Orly Fld", "prior": "1", "obsTime": "2018-09-20T19:30:00Z", "temp": 21.0, "dewp": 12.0, "wspd": 5, "wdir": 190, "cover": "CAVOK", "visib": 6.21, "fltcat": "VFR", "altim": 1013.0, "rawOb": "LFPO 201930Z 19005KT CAVOK 21/12 Q1013 NOSIG"}, "geometry": {"type": "Point", "coordinates": [2.368, 48.725]}}, {"type": "Feature", "properties": {"id": "EKCH", "site": "Kobenhavn Intl", "prior": "1", "obsTime": "2018-09-20T19:50:00Z", "temp": 18.0, "dewp": 15.0, "wspd": 4, "wdir": 220, "cover": "CAVOK", "visib": 6.21, "fltcat": "VFR", "altim": 1011.0, "rawOb": "EKCH 201950Z 22004KT 180V250 CAVOK 18/15 Q1011 NOSIG"}, "geometry": {"type": "Point", "coordinates": [12.655, 55.618]}}, {"type": "Feature", "properties": {"id": "LICA", "site": "Lamezia Terme Arpt", "prior": "1", "obsTime": "2018-09-20T18:50:00Z", "temp": 24.0, "dewp": 19.0, "wspd": 7, "wdir": 50, "cover": "FEW", "visib": 6.21, "fltcat": "VFR", "altim": 1016.0, "rawOb": "LICA 201850Z 05007KT 9999 FEW030 24/19 Q1016"}, "geometry": {"type": "Point", "coordinates": [16.242, 38.905]}}, {"type": "Feature", "properties": {"id": "DTTA", "site": "Tunis/Carthage Intl", "prior": "1", "obsTime": "2018-09-20T19:30:00Z", "temp": 23.0, "dewp": 20.0, "wspd": 4, "wdir": 210, "cover": "SCT", "visib": 6.21, "fltcat": "VFR", "altim": 1015.0, "rawOb": "DTTA 201930Z 21004KT 9999 SCT026TCU 23/20 Q1015 NOSIG"}, "geometry": {"type": "Point", "coordinates": [10.227, 36.851]}}, {"type": "Feature", "properties": {"id": "URMM", "site": "Mineralyne Vody Arpt", "prior": "1", "obsTime": "2018-09-20T19:30:00Z", "temp": 14.0, "dewp": 6.0, "wspd": 6, "wdir": 280, "cover": "CLR", "visib": 6.21, "fltcat": "VFR", "altim": 1019.0, "rawOb": "URMM 201930Z 28003MPS 9999 NSC 14/06 Q1019 R12/090070 NOSIG RMK QFE736/0982"}, "geometry": {"type": "Point", "coordinates": [43.082, 44.227]}}, {"type": "Feature", "properties": {"id": "LOWW", "site": "Wien Intl", "prior": "1", "obsTime": "2018-09-20T19:50:00Z", "temp": 19.0, "dewp": 15.0, "wspd": 5, "wdir": 170, "cover": "CAVOK", "visib": 6.21, "fltcat": "VFR", "altim": 1019.0, "rawOb": "LOWW 201950Z 17005KT CAVOK 19/15 Q1019 NOSIG"}, "geometry": {"type": "Point", "coordinates": [16.568, 48.114]}}, {"type": "Feature", "properties": {"id": "LIPZ", "site": "Venezia/Polo Arpt", "prior": "1", "obsTime": "2018-09-20T19:50:00Z", "temp": 23.0, "dewp": 18.0, "wspd": 1, "wdir": 210, "cover": "CAVOK", "visib": 6.21, "fltcat": "VFR", "altim": 1017.0, "rawOb": "LIPZ 201950Z 21001KT CAVOK 23/18 Q1017 NOSIG"}, "geometry": {"type": "Point", "coordinates": [12.351, 45.504]}}, {"type": "Feature", "properties": {"id": "LTCI", "site": "Van/Melen Arpt", "prior": "1", "obsTime": "2018-09-20T19:50:00Z", "temp": 19.0, "dewp": 7.0, "wspd": 7, "wdir": 40, "cover": "SCT", "visib": 6.21, "fltcat": "VFR", "altim": 1020.0, "rawOb": "LTCI 201950Z 04007KT 9999 SCT040 19/07 Q1020 NOSIG"}, "geometry": {"type": "Point", "coordinates": [43.333, 38.47]}}, {"type": "Feature", "properties": {"id": "LTCG", "site": "Trabzon Arpt", "prior": "1", "obsTime": "2018-09-20T19:50:00Z", "temp": 21.0, "dewp": 17.0, "wspd": 4, "wdir": 220, "cover": "SCT", "visib": 6.21, "fltcat": "VFR", "altim": 1017.0, "rawOb": "LTCG 201950Z 22004KT 9999 SCT035 21/17 Q1017 NOSIG"}, "geometry": {"type": "Point", "coordinates": [39.788, 40.996]}}, {"type": "Feature", "properties": {"id": "LGTS", "site": "Thessaloniki Intl", "prior": "1", "obsTime": "2018-09-20T19:50:00Z", "temp": 20.0, "dewp": 12.0, "wspd": 4, "wdir": 120, "cover": "FEW", "visib": 6.21, "fltcat": "VFR", "altim": 1018.0, "rawOb": "LGTS 201950Z 12004KT 9999 FEW025 20/12 Q1018 NOSIG"}, "geometry": {"type": "Point", "coordinates": [22.971, 40.52]}}, {"type": "Feature", "properties": {"id": "LGRP", "site": "Rhodes/Diagoras Arpt", "prior": "1", "obsTime": "2018-09-20T19:50:00Z", "temp": 25.0, "dewp": 20.0, "wspd": 12, "wdir": 260, "cover": "FEW", "visib": 6.21, "fltcat": "VFR", "altim": 1011.0, "rawOb": "LGRP 201950Z 26012KT 9999 FEW018 25/20 Q1011 NOSIG"}, "geometry": {"type": "Point", "coordinates": [28.088, 36.406]}}, {"type": "Feature", "properties": {"id": "ENGM", "site": "Oslo/Gardermoen Arpt", "prior": "1", "obsTime": "2018-09-20T19:50:00Z", "temp": 10.0, "dewp": 3.0, "wspd": 10, "wdir": 200, "cover": "CAVOK", "visib": 6.21, "fltcat": "VFR", "altim": 1003.0, "rawOb": "ENGM 201950Z 20010KT CAVOK 10/03 Q1003 NOSIG"}, "geometry": {"type": "Point", "coordinates": [11.099, 60.197]}}, {"type": "Feature", "properties": {"id": "LTBA", "site": "Istanbul/Ataturk Int", "prior": "1", "obsTime": "2018-09-20T19:50:00Z", "temp": 22.0, "dewp": 16.0, "wspd": 8, "wdir": 30, "cover": "CAVOK", "visib": 6.21, "fltcat": "VFR", "altim": 1017.0, "rawOb": "LTBA 201950Z 03008KT 360V070 CAVOK 22/16 Q1017 NOSIG"}, "geometry": {"type": "Point", "coordinates": [28.812, 40.969]}}, {"type": "Feature", "properties": {"id": "ENHE", "site": "Heidrun(OIL)", "prior": "1", "obsTime": "2018-09-20T19:50:00Z", "temp": 10.0, "dewp": 8.0, "wspd": 37, "wdir": 230, "ceil": 24, "cover": "BKN", "visib": 5.59, "fltcat": "MVFR", "altim": 984.0, "wx": "-SHRA", "rawOb": "ENHE 201950Z 23037KT 9000 -SHRA SCT014 BKN024 10/08 Q0984 W///S6"}, "geometry": {"type": "Point", "coordinates": [2.33, 65.33]}}, {"type": "Feature", "properties": {"id": "EGPF", "site": "Glasgow Arpt", "prior": "1", "obsTime": "2018-09-20T19:50:00Z", "temp": 10.0, "dewp": 8.0, "wspd": 2, "wdir": 340, "visib": 6.21, "altim": 998.0, "wx": "-RA", "rawOb": "EGPF 201950Z AUTO 34002KT 9999 -RA //////CB 10/08 Q0998"}, "geometry": {"type": "Point", "coordinates": [-4.433, 55.872]}}, {"type": "Feature", "properties": {"id": "LXGB", "site": "Gibraltar Arpt", "prior": "1", "obsTime": "2018-09-20T19:50:00Z", "temp": 24.0, "dewp": 22.0, "wspd": 7, "wdir": 70, "cover": "FEW", "visib": 6.21, "fltcat": "VFR", "altim": 1018.0, "rawOb": "LXGB 201950Z 07007KT 9999 FEW005 24/22 Q1018 TEMPO SCT012"}, "geometry": {"type": "Point", "coordinates": [-5.35, 36.151]}}, {"type": "Feature", "properties": {"id": "LGKR", "site": "Corfu/Kapodistinas A", "prior": "1", "obsTime": "2018-09-20T19:50:00Z", "temp": 24.0, "dewp": 21.0, "wspd": 0, "wdir": 0, "cover": "CAVOK", "visib": 6.21, "fltcat": "VFR", "altim": 1015.0, "rawOb": "LGKR 201950Z 00000KT CAVOK 24/21 Q1015 NOSIG"}, "geometry": {"type": "Point", "coordinates": [19.911, 39.604]}}, {"type": "Feature", "properties": {"id": "ENBO", "site": "Bodo Arpt", "prior": "1", "obsTime": "2018-09-20T19:50:00Z", "temp": 12.0, "dewp": 8.0, "wspd": 29, "wgst": 39, "wdir": 220, "cover": "SCT", "visib": 6.21, "fltcat": "VFR", "altim": 983.0, "rawOb": "ENBO 201950Z 22029G39KT 9999 FEW015TCU SCT035 12/08 Q0983 TEMPO 21035G50KT 4000 SHRA BKN014CB"}, "geometry": {"type": "Point", "coordinates": [14.36, 67.269]}}, {"type": "Feature", "properties": {"id": "OITT", "site": "Tabriz Intl", "prior": "2", "obsTime": "2018-09-20T19:30:00Z", "temp": 18.0, "dewp": 10.0, "wspd": 8, "wdir": 90, "cover": "FEW", "visib": 6.21, "fltcat": "VFR", "altim": 1021.0, "rawOb": "OITT 201930Z 09008KT 9999 FEW035 18/10 Q1021 A3017"}, "geometry": {"type": "Point", "coordinates": [46.24, 38.131]}}, {"type": "Feature", "properties": {"id": "UKLL", "site": "LViv/Halyfskyi Intl", "prior": "2", "obsTime": "2018-09-20T20:00:00Z", "temp": 14.0, "dewp": 12.0, "wspd": 0, "wdir": 0, "cover": "CLR", "visib": 1.74, "fltcat": "IFR", "altim": 1021.0, "wx": "FU", "rawOb": "UKLL 202000Z 00000MPS 2800 FU NSC 14/12 Q1021 R31/CLRD// NOSIG"}, "geometry": {"type": "Point", "coordinates": [23.955, 49.811]}}, {"type": "Feature", "properties": {"id": "EPPO", "site": "Poznan/Lawica Arpt", "prior": "2", "obsTime": "2018-09-20T19:30:00Z", "temp": 19.0, "dewp": 14.0, "wspd": 2, "wdir": 120, "cover": "CAVOK", "visib": 6.21, "fltcat": "VFR", "altim": 1016.0, "rawOb": "EPPO 201930Z 12002KT CAVOK 19/14 Q1016"}, "geometry": {"type": "Point", "coordinates": [16.822, 52.422]}}, {"type": "Feature", "properties": {"id": "EPKK", "site": "Krakow/J Paul II Int", "prior": "2", "obsTime": "2018-09-20T19:30:00Z", "temp": 16.0, "dewp": 12.0, "wspd": 3, "wdir": 100, "cover": "CAVOK", "visib": 6.21, "fltcat": "VFR", "altim": 1019.0, "rawOb": "EPKK 201930Z 10003KT CAVOK 16/12 Q1019"}, "geometry": {"type": "Point", "coordinates": [19.787, 50.078]}}, {"type": "Feature", "properties": {"id": "EPGD", "site": "Gdansk/Walesa Arpt", "prior": "2", "obsTime": "2018-09-20T19:30:00Z", "temp": 14.0, "dewp": 13.0, "wspd": 2, "wdir": 0, "cover": "CAVOK", "visib": 6.21, "fltcat": "VFR", "altim": 1016.0, "rawOb": "EPGD 201930Z VRB02KT CAVOK 14/13 Q1016"}, "geometry": {"type": "Point", "coordinates": [18.47, 54.377]}}, {"type": "Feature", "properties": {"id": "UKOO", "site": "Odessa Intl", "prior": "2", "obsTime": "2018-09-20T20:00:00Z", "temp": 16.0, "dewp": 13.0, "wspd": 0, "wdir": 0, "cover": "CAVOK", "visib": 6.21, "fltcat": "VFR", "altim": 1020.0, "rawOb": "UKOO 202000Z 00000MPS CAVOK 16/13 Q1020 R34/090060 NOSIG"}, "geometry": {"type": "Point", "coordinates": [30.676, 46.426]}}, {"type": "Feature", "properties": {"id": "LRTM", "site": "Targu Mures Arpt", "prior": "2", "obsTime": "2018-09-20T19:30:00Z", "temp": 14.0, "dewp": 10.0, "wspd": 5, "wdir": 80, "cover": "CAVOK", "visib": 6.21, "fltcat": "VFR", "altim": 1020.0, "rawOb": "LRTM 201930Z 08005KT CAVOK 14/10 Q1020"}, "geometry": {"type": "Point", "coordinates": [24.414, 46.468]}}, {"type": "Feature", "properties": {"id": "LDSP", "site": "Split Arpt", "prior": "2", "obsTime": "2018-09-20T20:00:00Z", "temp": 25.0, "dewp": 18.0, "wspd": 1, "wdir": 0, "cover": "CAVOK", "visib": 6.21, "fltcat": "VFR", "altim": 1016.0, "rawOb": "LDSP 202000Z VRB01KT CAVOK 25/18 Q1016 NOSIG"}, "geometry": {"type": "Point", "coordinates": [16.3, 43.54]}}, {"type": "Feature", "properties": {"id": "LBSF", "site": "Sofia Arpt", "prior": "2", "obsTime": "2018-09-20T20:00:00Z", "temp": 15.0, "dewp": 8.0, "wspd": 3, "wdir": 140, "cover": "CAVOK", "visib": 6.21, "fltcat": "VFR", "altim": 1021.0, "rawOb": "LBSF 202000Z 14003KT 100V180 CAVOK 15/08 Q1021 NOSIG"}, "geometry": {"type": "Point", "coordinates": [23.411, 42.697]}}, {"type": "Feature", "properties": {"id": "UKHH", "site": "Kharkiv Intl", "prior": "2", "obsTime": "2018-09-20T20:00:00Z", "temp": 18.0, "dewp": 10.0, "wspd": 4, "wdir": 310, "cover": "CAVOK", "visib": 6.21, "fltcat": "VFR", "altim": 1019.0, "rawOb": "UKHH 202000Z 31002MPS CAVOK 18/10 Q1019 R25/0///72 NOSIG"}, "geometry": {"type": "Point", "coordinates": [36.287, 49.925]}}, {"type": "Feature", "properties": {"id": "LHBP", "site": "Budapest/Liszt Intl", "prior": "2", "obsTime": "2018-09-20T20:00:00Z", "temp": 16.0, "dewp": 15.0, "wspd": 2, "wdir": 0, "cover": "CAVOK", "visib": 6.21, "fltcat": "VFR", "altim": 1019.0, "rawOb": "LHBP 202000Z VRB02KT CAVOK 16/15 Q1019 NOSIG"}, "geometry": {"type": "Point", "coordinates": [19.261, 47.436]}}, {"type": "Feature", "properties": {"id": "LKPR", "site": "Prague/Ruzyne Arpt", "prior": "2", "obsTime": "2018-09-20T19:30:00Z", "temp": 21.0, "dewp": 11.0, "wspd": 7, "wdir": 190, "cover": "CAVOK", "visib": 6.21, "fltcat": "VFR", "altim": 1018.0, "rawOb": "LKPR 201930Z 19007KT CAVOK 21/11 Q1018 NOSIG"}, "geometry": {"type": "Point", "coordinates": [14.259, 50.103]}}, {"type": "Feature", "properties": {"id": "LFLC", "site": "Clermont-Ferrand/Aul", "prior": "2", "obsTime": "2018-09-20T19:30:00Z", "temp": 21.0, "dewp": 12.0, "wspd": 2, "wdir": 0, "cover": "CAVOK", "visib": 6.21, "fltcat": "VFR", "altim": 1016.0, "rawOb": "LFLC 201930Z AUTO VRB02KT CAVOK 21/12 Q1016 NOSIG"}, "geometry": {"type": "Point", "coordinates": [3.169, 45.786]}}, {"type": "Feature", "properties": {"id": "UKDR", "site": "Lozuvatka/Rih Intl", "prior": "2", "obsTime": "2018-09-20T20:00:00Z", "temp": 18.0, "dewp": 7.0, "wspd": 0, "wdir": 0, "cover": "CAVOK", "visib": 6.21, "fltcat": "VFR", "altim": 1020.0, "rawOb": "UKDR 202000Z 00000MPS CAVOK 18/07 Q1020 R36/09//70 NOSIG"}, "geometry": {"type": "Point", "coordinates": [33.208, 48.045]}}, {"type": "Feature", "properties": {"id": "LFML", "site": "Marseille Arpt", "prior": "2", "obsTime": "2018-09-20T19:30:00Z", "temp": 23.0, "dewp": 18.0, "wspd": 4, "wdir": 130, "cover": "CAVOK", "visib": 6.21, "fltcat": "VFR", "altim": 1017.0, "rawOb": "LFML 201930Z AUTO 13004KT CAVOK 23/18 Q1017 NOSIG"}, "geometry": {"type": "Point", "coordinates": [5.214, 43.438]}}, {"type": "Feature", "properties": {"id": "UWSS", "site": "Saratov/Tsentralny A", "prior": "2", "obsTime": "2018-09-20T19:00:00Z", "temp": 20.0, "dewp": 12.0, "wspd": 12, "wdir": 300, "cover": "CAVOK", "visib": 6.21, "fltcat": "VFR", "altim": 1012.0, "rawOb": "UWSS 201900Z 30006MPS CAVOK 20/12 Q1012 R30/010095 NOSIG RMK QFE745"}, "geometry": {"type": "Point", "coordinates": [46.044, 51.566]}}, {"type": "Feature", "properties": {"id": "LFRN", "site": "Rennes/St Jacques Ar", "prior": "2", "obsTime": "2018-09-20T19:30:00Z", "temp": 19.0, "dewp": 15.0, "wspd": 11, "wdir": 200, "ceil": 24, "cover": "BKN", "visib": 6.21, "fltcat": "MVFR", "altim": 1012.0, "rawOb": "LFRN 201930Z AUTO 20011KT 180V240 9999 BKN024 BKN032 19/15 Q1012 BECMG 21017G27KT"}, "geometry": {"type": "Point", "coordinates": [-1.729, 48.072]}}, {"type": "Feature", "properties": {"id": "LCLK", "site": "Larnaca Intl", "prior": "2", "obsTime": "2018-09-20T20:00:00Z", "temp": 26.0, "dewp": 16.0, "wspd": 3, "wdir": 330, "cover": "CAVOK", "visib": 6.21, "fltcat": "VFR", "altim": 1010.0, "rawOb": "LCLK 202000Z 33003KT CAVOK 26/16 Q1010 NOSIG"}, "geometry": {"type": "Point", "coordinates": [33.626, 34.875]}}, {"type": "Feature", "properties": {"id": "URKK", "site": "Krasnodar Arpt", "prior": "2", "obsTime": "2018-09-20T19:30:00Z", "temp": 16.0, "dewp": 11.0, "wspd": 6, "wdir": 50, "cover": "CAVOK", "visib": 6.21, "fltcat": "VFR", "altim": 1018.0, "rawOb": "URKK 201930Z 05003MPS CAVOK 16/11 Q1018 R23L/CLRD70 TEMPO 1000 BR SCT004 RMK QFE760"}, "geometry": {"type": "Point", "coordinates": [39.158, 45.035]}}, {"type": "Feature", "properties": {"id": "URWI", "site": "Elista Arpt", "prior": "2", "obsTime": "2018-09-20T19:30:00Z", "temp": 19.0, "dewp": 4.0, "wspd": 10, "wdir": 260, "visib": 6.21, "altim": 1018.0, "rawOb": "URWI 201930Z AUTO 26005MPS 9999 // ///110/// 19/04 Q1018"}, "geometry": {"type": "Point", "coordinates": [44.329, 46.374]}}, {"type": "Feature", "properties": {"id": "LPPR", "site": "Porto/Cameriro Arpt", "prior": "2", "obsTime": "2018-09-20T19:30:00Z", "temp": 17.0, "dewp": 16.0, "wspd": 3, "wdir": 60, "cover": "SCT", "visib": 6.21, "fltcat": "VFR", "altim": 1021.0, "rawOb": "LPPR 201930Z 06003KT 360V100 9999 SCT017 17/16 Q1021"}, "geometry": {"type": "Point", "coordinates": [-8.68, 41.244]}}, {"type": "Feature", "properties": {"id": "GMME", "site": "Sale Arpt", "prior": "2", "obsTime": "2018-09-20T20:00:00Z", "temp": 23.0, "dewp": 20.0, "wspd": 5, "wdir": 350, "cover": "SCT", "visib": 4.35, "fltcat": "MVFR", "altim": 1017.0, "rawOb": "GMME 202000Z 35005KT 7000 FEW006 SCT008 23/20 Q1017 BECMG 3000 BR SCT005 BKN008"}, "geometry": {"type": "Point", "coordinates": [-6.752, 34.051]}}, {"type": "Feature", "properties": {"id": "LRCV", "site": "Craiova Arpt", "prior": "2", "obsTime": "2018-09-20T19:30:00Z", "temp": 16.0, "dewp": 8.0, "wspd": 0, "wdir": 0, "cover": "CLR", "visib": 6.21, "fltcat": "VFR", "altim": 1020.0, "rawOb": "LRCV 201930Z AUTO 00000KT 9999 NCD 16/08 Q1020"}, "geometry": {"type": "Point", "coordinates": [23.889, 44.318]}}, {"type": "Feature", "properties": {"id": "BIEG", "site": "Egilsstadir Arpt", "prior": "2", "obsTime": "2018-09-20T20:00:00Z", "temp": 5.0, "dewp": 2.0, "wspd": 14, "wdir": 330, "ceil": 55, "cover": "BKN", "visib": 6.21, "fltcat": "VFR", "altim": 998.0, "wx": "VCSH", "rawOb": "BIEG 202000Z 33014KT 9999 VCSH FEW025 SCT042 BKN055 05/02 Q0998"}, "geometry": {"type": "Point", "coordinates": [-14.404, 65.282]}}, {"type": "Feature", "properties": {"id": "LEBB", "site": "Bilbao Arpt", "prior": "2", "obsTime": "2018-09-20T19:30:00Z", "temp": 22.0, "dewp": 19.0, "wspd": 2, "wdir": 0, "ceil": 17, "cover": "BKN", "visib": 6.21, "fltcat": "MVFR", "altim": 1018.0, "rawOb": "LEBB 201930Z VRB02KT 9999 BKN017 BKN020 22/19 Q1018 NOSIG"}, "geometry": {"type": "Point", "coordinates": [-2.913, 43.302]}}, {"type": "Feature", "properties": {"id": "LEAL", "site": "Alicante Arpt", "prior": "2", "obsTime": "2018-09-20T19:30:00Z", "temp": 25.0, "dewp": 21.0, "wspd": 0, "wdir": 0, "cover": "CAVOK", "visib": 6.21, "fltcat": "VFR", "altim": 1018.0, "rawOb": "LEAL 201930Z 00000KT CAVOK 25/21 Q1018 NOSIG"}, "geometry": {"type": "Point", "coordinates": [-0.558, 38.282]}}, {"type": "Feature", "properties": {"id": "LEPA", "site": "Palma De Mallorca Ar", "prior": "2", "obsTime": "2018-09-20T19:30:00Z", "temp": 24.0, "dewp": 21.0, "wspd": 4, "wdir": 140, "cover": "FEW", "visib": 6.21, "fltcat": "VFR", "altim": 1018.0, "rawOb": "LEPA 201930Z 14004KT 9999 FEW020 24/21 Q1018 NOSIG"}, "geometry": {"type": "Point", "coordinates": [2.735, 39.549]}}, {"type": "Feature", "properties": {"id": "EBBR", "site": "Brussels Intl", "prior": "2", "obsTime": "2018-09-20T19:50:00Z", "temp": 20.0, "dewp": 12.0, "wspd": 7, "wdir": 190, "cover": "CAVOK", "visib": 6.21, "fltcat": "VFR", "altim": 1011.0, "rawOb": "EBBR 201950Z 19007KT CAVOK 20/12 Q1011 NOSIG"}, "geometry": {"type": "Point", "coordinates": [4.49, 50.9]}}, {"type": "Feature", "properties": {"id": "UGTB", "site": "Tbilisi Intl", "prior": "2", "obsTime": "2018-09-20T20:00:00Z", "temp": 18.0, "dewp": 14.0, "wspd": 0, "wdir": 0, "cover": "FEW", "visib": 6.21, "fltcat": "VFR", "altim": 1024.0, "rawOb": "UGTB 202000Z 00000KT 9999 FEW066 18/14 Q1024 NOSIG"}, "geometry": {"type": "Point", "coordinates": [44.952, 41.669]}}, {"type": "Feature", "properties": {"id": "EDDG", "site": "Munster-Osnabruck Ar", "prior": "2", "obsTime": "2018-09-20T19:50:00Z", "temp": 19.0, "dewp": 11.0, "wspd": 4, "wdir": 140, "cover": "CAVOK", "visib": 6.21, "fltcat": "VFR", "altim": 1011.0, "rawOb": "EDDG 201950Z 14004KT CAVOK 19/11 Q1011 NOSIG"}, "geometry": {"type": "Point", "coordinates": [7.687, 52.135]}}, {"type": "Feature", "properties": {"id": "LPLA", "site": "Lajes Acores Arpt", "prior": "2", "obsTime": "2018-09-20T19:00:00Z", "temp": 25.0, "dewp": 20.0, "cover": "FEW", "visib": 6.21, "fltcat": "VFR", "altim": 1019.0, "rawOb": "LPLA 201900Z /////KT 9999 FEW023 25/20 Q1019"}, "geometry": {"type": "Point", "coordinates": [-27.094, 38.765]}}, {"type": "Feature", "properties": {"id": "DABC", "site": "Constantine/Boudiaf", "prior": "2", "obsTime": "2018-09-20T19:30:00Z", "temp": 20.0, "dewp": 16.0, "wspd": 5, "wdir": 20, "cover": "SCT", "visib": 6.21, "fltcat": "VFR", "altim": 1020.0, "rawOb": "DABC 201930Z 02005KT 9999 FEW026TCU FEW030CB SCT033 20/16 Q1020"}, "geometry": {"type": "Point", "coordinates": [6.618, 36.279]}}, {"type": "Feature", "properties": {"id": "EDDM", "site": "Munich Intl", "prior": "2", "obsTime": "2018-09-20T19:50:00Z", "temp": 16.0, "dewp": 14.0, "wspd": 2, "wdir": 0, "cover": "CAVOK", "visib": 6.21, "fltcat": "VFR", "altim": 1018.0, "rawOb": "EDDM 201950Z VRB02KT CAVOK 16/14 Q1018 NOSIG"}, "geometry": {"type": "Point", "coordinates": [11.785, 48.353]}}, {"type": "Feature", "properties": {"id": "EDDE", "site": "Erfurt Arpt", "prior": "2", "obsTime": "2018-09-20T19:50:00Z", "temp": 20.0, "dewp": 11.0, "wspd": 7, "wdir": 200, "cover": "CAVOK", "visib": 6.21, "fltcat": "VFR", "altim": 1015.0, "rawOb": "EDDE 201950Z 20007KT CAVOK 20/11 Q1015 NOSIG"}, "geometry": {"type": "Point", "coordinates": [10.961, 50.98]}}, {"type": "Feature", "properties": {"id": "LQSA", "site": "Sarajevo Intl", "prior": "2", "obsTime": "2018-09-20T20:00:00Z", "temp": 18.0, "dewp": 15.0, "wspd": 2, "wdir": 0, "cover": "CAVOK", "visib": 6.21, "fltcat": "VFR", "altim": 1020.0, "rawOb": "LQSA 202000Z VRB02KT CAVOK 18/15 Q1020 NOSIG"}, "geometry": {"type": "Point", "coordinates": [18.329, 43.824]}}, {"type": "Feature", "properties": {"id": "EDDH", "site": "Hamburg Arpt", "prior": "2", "obsTime": "2018-09-20T19:50:00Z", "temp": 18.0, "dewp": 13.0, "wspd": 4, "wdir": 180, "cover": "CAVOK", "visib": 6.21, "fltcat": "VFR", "altim": 1011.0, "rawOb": "EDDH 201950Z 18004KT CAVOK 18/13 Q1011 NOSIG"}, "geometry": {"type": "Point", "coordinates": [9.995, 53.632]}}, {"type": "Feature", "properties": {"id": "EKYT", "site": "Aalborg Arpt", "prior": "2", "obsTime": "2018-09-20T19:50:00Z", "temp": 14.0, "dewp": 12.0, "wspd": 7, "wdir": 170, "ceil": 27, "cover": "OVC", "fltcat": "MVFR", "altim": 1007.0, "rawOb": "EKYT 201950Z AUTO 17007KT 9999NDV SCT021/// BKN027/// OVC033/// 14/12 Q1007 NOSIG"}, "geometry": {"type": "Point", "coordinates": [9.848, 57.095]}}, {"type": "Feature", "properties": {"id": "UUOO", "site": "Voronez Intl", "prior": "2", "obsTime": "2018-09-20T19:30:00Z", "temp": 17.0, "dewp": 11.0, "wspd": 6, "wdir": 290, "cover": "CAVOK", "visib": 6.21, "fltcat": "VFR", "altim": 1017.0, "rawOb": "UUOO 201930Z 29003MPS CAVOK 17/11 Q1017 R30/090070 NOSIG RMK QFE749"}, "geometry": {"type": "Point", "coordinates": [39.231, 51.814]}}, {"type": "Feature", "properties": {"id": "LFKB", "site": "Bastia/Poretta Arpt", "prior": "2", "obsTime": "2018-09-20T19:30:00Z", "temp": 21.0, "dewp": 19.0, "wspd": 3, "wdir": 220, "cover": "CAVOK", "visib": 6.21, "fltcat": "VFR", "altim": 1016.0, "rawOb": "LFKB 201930Z AUTO 22003KT CAVOK 21/19 Q1016 NOSIG"}, "geometry": {"type": "Point", "coordinates": [9.484, 42.552]}}, {"type": "Feature", "properties": {"id": "LYTV", "site": "Tivat Arpt", "prior": "2", "obsTime": "2018-09-20T20:00:00Z", "temp": 19.0, "dewp": 16.0, "wspd": 1, "wdir": 0, "cover": "CAVOK", "visib": 6.21, "fltcat": "VFR", "altim": 1015.0, "rawOb": "LYTV 202000Z VRB01KT CAVOK 19/16 Q1015"}, "geometry": {"type": "Point", "coordinates": [18.734, 42.405]}}, {"type": "Feature", "properties": {"id": "DAOB", "site": "Tiaret/Bou Chekif Ar", "prior": "2", "obsTime": "2018-09-20T19:00:00Z", "temp": 21.0, "dewp": 15.0, "wspd": 8, "wdir": 310, "cover": "FEW", "visib": 6.21, "fltcat": "VFR", "altim": 1021.0, "rawOb": "DAOB 201900Z 31008KT 9999 FEW026 21/15 Q1021"}, "geometry": {"type": "Point", "coordinates": [1.466, 35.342]}}, {"type": "Feature", "properties": {"id": "LFSN", "site": "Nancy/Essey Arpt", "prior": "2", "obsTime": "2018-09-20T19:00:00Z", "temp": 19.0, "dewp": 14.0, "wspd": 0, "wdir": 0, "cover": "CAVOK", "visib": 6.21, "fltcat": "VFR", "altim": 1015.0, "rawOb": "LFSN 201900Z AUTO 00000KT CAVOK 19/14 Q1015"}, "geometry": {"type": "Point", "coordinates": [6.231, 48.691]}}, {"type": "Feature", "properties": {"id": "EFKU", "site": "Kuopio Arpt", "prior": "2", "obsTime": "2018-09-20T19:50:00Z", "temp": 14.0, "dewp": 6.0, "wspd": 10, "wdir": 210, "cover": "SCT", "visib": 6.21, "fltcat": "VFR", "altim": 1002.0, "rawOb": "EFKU 201950Z AUTO 21010KT 170V240 9999 FEW048 SCT222 14/06 Q1002"}, "geometry": {"type": "Point", "coordinates": [27.801, 63.003]}}, {"type": "Feature", "properties": {"id": "EYVI", "site": "Vilnius Intl", "prior": "2", "obsTime": "2018-09-20T19:50:00Z", "temp": 17.0, "dewp": 13.0, "wspd": 5, "wdir": 160, "cover": "CAVOK", "visib": 6.21, "fltcat": "VFR", "altim": 1018.0, "rawOb": "EYVI 201950Z 16005KT CAVOK 17/13 Q1018 NOSIG"}, "geometry": {"type": "Point", "coordinates": [25.287, 54.636]}}, {"type": "Feature", "properties": {"id": "LIRN", "site": "Naples Intl", "prior": "2", "obsTime": "2018-09-20T19:50:00Z", "temp": 23.0, "dewp": 18.0, "wspd": 4, "wdir": 360, "cover": "SCT", "visib": 6.21, "fltcat": "VFR", "altim": 1016.0, "rawOb": "LIRN 201950Z 36004KT 9999 FEW030 SCT060 23/18 Q1016 NOSIG"}, "geometry": {"type": "Point", "coordinates": [14.289, 40.885]}}, {"type": "Feature", "properties": {"id": "DTTG", "site": "Gabes/Matmata Intl", "prior": "2", "obsTime": "2018-09-20T19:00:00Z", "temp": 24.0, "dewp": 18.0, "wspd": 10, "wdir": 10, "ceil": 20, "cover": "BKN", "visib": 4.35, "fltcat": "MVFR", "altim": 1015.0, "wx": "TS", "rawOb": "DTTG 201900Z 01010KT 7000 TS BKN020 FEW026CB 24/18 Q1015 NOSIG"}, "geometry": {"type": "Point", "coordinates": [9.918, 33.733]}}, {"type": "Feature", "properties": {"id": "OSDI", "site": "Damascus Intl Arpt", "prior": "2", "obsTime": "2018-09-20T20:00:00Z", "temp": 21.0, "dewp": 9.0, "wspd": 10, "wdir": 210, "cover": "CAVOK", "visib": 6.21, "fltcat": "VFR", "altim": 1013.0, "rawOb": "OSDI 202000Z 21010KT CAVOK 21/09 Q1013"}, "geometry": {"type": "Point", "coordinates": [36.518, 33.413]}}, {"type": "Feature", "properties": {"id": "ORER", "site": "Erbil Intl", "prior": "2", "obsTime": "2018-09-20T19:00:00Z", "temp": 29.0, "dewp": 1.0, "wspd": 3, "wdir": 110, "cover": "CLR", "visib": 5.59, "fltcat": "VFR", "altim": 1011.0, "rawOb": "ORER 201900Z 11003KT 9000 NSC 29/01 Q1011 NOSIG"}, "geometry": {"type": "Point", "coordinates": [43.963, 36.238]}}, {"type": "Feature", "properties": {"id": "OSKL", "site": "Kamishly Arpt", "prior": "2", "obsTime": "2018-09-20T20:00:00Z", "temp": 26.0, "dewp": 8.0, "wspd": 6, "wdir": 310, "cover": "CAVOK", "visib": 6.21, "fltcat": "VFR", "altim": 1010.0, "rawOb": "OSKL 202000Z 31006KT CAVOK 26/08 Q1010"}, "geometry": {"type": "Point", "coordinates": [41.198, 37.027]}}, {"type": "Feature", "properties": {"id": "EIKN", "site": "Knock/Ireland West A", "prior": "2", "obsTime": "2018-09-20T18:30:00Z", "temp": 8.0, "dewp": 6.0, "wspd": 2, "wdir": 360, "ceil": 45, "cover": "BKN", "visib": 6.21, "fltcat": "VFR", "altim": 999.0, "rawOb": "EIKN 201830Z 36002KT 9999 FEW016 BKN045 08/06 Q0999 NOSIG"}, "geometry": {"type": "Point", "coordinates": [-8.819, 53.91]}}, {"type": "Feature", "properties": {"id": "ENTC", "site": "Tromso Arpt", "prior": "2", "obsTime": "2018-09-20T19:50:00Z", "temp": 11.0, "dewp": 6.0, "wspd": 9, "wdir": 220, "ceil": 98, "cover": "BKN", "visib": 6.21, "fltcat": "VFR", "altim": 979.0, "rawOb": "ENTC 201950Z 22009KT 9999 SCT057 BKN098 11/06 Q0979 RERA NOSIG RMK WIND 2600FT 18028KT"}, "geometry": {"type": "Point", "coordinates": [18.917, 69.681]}}, {"type": "Feature", "properties": {"id": "ENNE", "site": "Norne FPSO(OIL)", "prior": "2", "obsTime": "2018-09-20T19:50:00Z", "temp": 11.0, "dewp": 7.0, "wspd": 32, "wdir": 250, "cover": "FEW", "altim": 983.0, "rawOb": "ENNE 201950Z AUTO 25032KT 9999NDV FEW026/// 11/07 Q0983 W///S6"}, "geometry": {"type": "Point", "coordinates": [8.08, 66.03]}}, {"type": "Feature", "properties": {"id": "LGIR", "site": "Iraklion Intl", "prior": "2", "obsTime": "2018-09-20T19:50:00Z", "temp": 23.0, "dewp": 19.0, "wspd": 9, "wdir": 290, "cover": "SCT", "visib": 6.21, "fltcat": "VFR", "altim": 1015.0, "rawOb": "LGIR 201950Z 29009KT 9999 SCT020 23/19 Q1015 NOSIG"}, "geometry": {"type": "Point", "coordinates": [25.18, 35.34]}}, {"type": "Feature", "properties": {"id": "EFVA", "site": "Vaasa Arpt", "prior": "2", "obsTime": "2018-09-20T19:50:00Z", "temp": 13.0, "dewp": 8.0, "wspd": 11, "wdir": 220, "cover": "FEW", "visib": 6.21, "fltcat": "VFR", "altim": 998.0, "rawOb": "EFVA 201950Z AUTO 22011KT 180V250 9999 FEW090/// 13/08 Q0998"}, "geometry": {"type": "Point", "coordinates": [21.762, 63.05]}}, {"type": "Feature", "properties": {"id": "ENVA", "site": "Trondheim Arpt", "prior": "2", "obsTime": "2018-09-20T19:50:00Z", "temp": 12.0, "dewp": 1.0, "wspd": 12, "wdir": 190, "cover": "CAVOK", "visib": 6.21, "fltcat": "VFR", "altim": 992.0, "rawOb": "ENVA 201950Z 19012KT CAVOK 12/01 Q0992 RMK WIND 670FT 19018KT"}, "geometry": {"type": "Point", "coordinates": [10.916, 63.457]}}, {"type": "Feature", "properties": {"id": "EGPO", "site": "Stornoway Arpt", "prior": "2", "obsTime": "2018-09-20T19:50:00Z", "temp": 9.0, "dewp": 8.0, "wspd": 1, "wdir": 270, "cover": "SCT", "visib": 6.21, "fltcat": "VFR", "altim": 996.0, "rawOb": "EGPO 201950Z AUTO 27001KT 9999 SCT023/// SCT035/// 09/08 Q0996"}, "geometry": {"type": "Point", "coordinates": [-6.331, 58.215]}}, {"type": "Feature", "properties": {"id": "LTFH", "site": "Samsun-Carsamba Arpt", "prior": "2", "obsTime": "2018-09-20T19:50:00Z", "temp": 16.0, "dewp": 15.0, "wspd": 2, "wdir": 170, "cover": "FEW", "visib": 6.21, "fltcat": "VFR", "altim": 1018.0, "rawOb": "LTFH 201950Z 17002KT 9999 FEW033 16/15 Q1018 NOSIG"}, "geometry": {"type": "Point", "coordinates": [36.563, 41.257]}}, {"type": "Feature", "properties": {"id": "ULOO", "site": "Pskov Arpt", "prior": "2", "obsTime": "2018-09-20T19:00:00Z", "temp": 17.0, "dewp": 13.0, "wspd": 6, "wdir": 180, "cover": "CLR", "visib": 5.59, "fltcat": "VFR", "altim": 1014.0, "rawOb": "ULOO 201900Z AUTO 18003MPS 9000 // NCD 17/13 Q1014 RMK QFE756"}, "geometry": {"type": "Point", "coordinates": [28.393, 57.784]}}, {"type": "Feature", "properties": {"id": "LICJ", "site": "Palermo Arpt", "prior": "2", "obsTime": "2018-09-20T19:50:00Z", "temp": 25.0, "dewp": 18.0, "wspd": 11, "wdir": 210, "cover": "SCT", "visib": 6.21, "fltcat": "VFR", "altim": 1015.0, "rawOb": "LICJ 201950Z 21011KT 9999 SCT030 25/18 Q1015"}, "geometry": {"type": "Point", "coordinates": [13.103, 38.18]}}, {"type": "Feature", "properties": {"id": "LIMC", "site": "Milano/Malpensa Arpt", "prior": "2", "obsTime": "2018-09-20T19:50:00Z", "temp": 20.0, "dewp": 17.0, "wspd": 4, "wdir": 20, "cover": "CAVOK", "visib": 6.21, "fltcat": "VFR", "altim": 1018.0, "rawOb": "LIMC 201950Z 02004KT CAVOK 20/17 Q1018 NOSIG"}, "geometry": {"type": "Point", "coordinates": [8.728, 45.631]}}, {"type": "Feature", "properties": {"id": "EGCC", "site": "Manchester Intl", "prior": "2", "obsTime": "2018-09-20T19:50:00Z", "temp": 16.0, "dewp": 15.0, "wspd": 9, "wdir": 180, "ceil": 40, "cover": "BKN", "visib": 6.21, "fltcat": "VFR", "altim": 994.0, "wx": "-RA", "rawOb": "EGCC 201950Z 18009KT 140V210 9999 -RA SCT025 BKN040 16/15 Q0994 TEMPO 4000 RA BKN014"}, "geometry": {"type": "Point", "coordinates": [-2.272, 53.356]}}, {"type": "Feature", "properties": {"id": "LTAT", "site": "Malatya Arpt", "prior": "2", "obsTime": "2018-09-20T19:50:00Z", "temp": 26.0, "dewp": -4.0, "wspd": 10, "wdir": 290, "cover": "CAVOK", "visib": 6.21, "fltcat": "VFR", "altim": 1013.0, "rawOb": "LTAT 201950Z 29010KT CAVOK 26/M04 Q1013 NOSIG"}, "geometry": {"type": "Point", "coordinates": [38.091, 38.436]}}, {"type": "Feature", "properties": {"id": "ESPA", "site": "Lulea Arpt", "prior": "2", "obsTime": "2018-09-20T19:50:00Z", "temp": 13.0, "dewp": 6.0, "wspd": 9, "wgst": 19, "wdir": 220, "cover": "CAVOK", "visib": 6.21, "fltcat": "VFR", "altim": 991.0, "rawOb": "ESPA 201950Z 22009G19KT 170V250 CAVOK 13/06 Q0991"}, "geometry": {"type": "Point", "coordinates": [22.118, 65.546]}}, {"type": "Feature", "properties": {"id": "EFKS", "site": "Kuusamo Arpt", "prior": "2", "obsTime": "2018-09-20T19:20:00Z", "temp": 10.0, "dewp": 6.0, "wspd": 17, "wgst": 27, "wdir": 220, "cover": "CAVOK", "visib": 6.21, "fltcat": "VFR", "altim": 992.0, "rawOb": "EFKS 201920Z AUTO 22017G27KT CAVOK 10/06 Q0992"}, "geometry": {"type": "Point", "coordinates": [29.232, 65.99]}}, {"type": "Feature", "properties": {"id": "LTBJ", "site": "Izmir/Menderes Arpt", "prior": "2", "obsTime": "2018-09-20T19:50:00Z", "temp": 24.0, "dewp": 14.0, "wspd": 6, "wdir": 20, "cover": "CAVOK", "visib": 6.21, "fltcat": "VFR", "altim": 1013.0, "rawOb": "LTBJ 201950Z 02006KT CAVOK 24/14 Q1013 NOSIG"}, "geometry": {"type": "Point", "coordinates": [27.157, 38.291]}}, {"type": "Feature", "properties": {"id": "LIEE", "site": "Cagliari/Elmas Arpt", "prior": "2", "obsTime": "2018-09-20T19:50:00Z", "temp": 22.0, "dewp": 21.0, "wspd": 6, "wdir": 10, "cover": "CAVOK", "visib": 6.21, "fltcat": "VFR", "altim": 1013.0, "rawOb": "LIEE 201950Z 01006KT CAVOK 22/21 Q1013"}, "geometry": {"type": "Point", "coordinates": [9.056, 39.25]}}, {"type": "Feature", "properties": {"id": "LIBR", "site": "Brindisi/Casale Arpt", "prior": "2", "obsTime": "2018-09-20T19:50:00Z", "temp": 24.0, "dewp": 20.0, "wspd": 8, "wdir": 330, "cover": "FEW", "visib": 6.21, "fltcat": "VFR", "altim": 1016.0, "rawOb": "LIBR 201950Z 33008KT 9999 FEW020 24/20 Q1016"}, "geometry": {"type": "Point", "coordinates": [17.943, 40.662]}}, {"type": "Feature", "properties": {"id": "ENBR", "site": "Bergen/Flesland Arpt", "prior": "2", "obsTime": "2018-09-20T19:50:00Z", "temp": 11.0, "dewp": 9.0, "wspd": 19, "wdir": 190, "ceil": 30, "cover": "BKN", "visib": 6.21, "fltcat": "MVFR", "altim": 1000.0, "wx": "VCSH", "rawOb": "ENBR 201950Z 19019KT 9999 VCSH FEW015CB SCT020 BKN030 11/09 Q1000 RMK WIND 1200FT 20022G33KT"}, "geometry": {"type": "Point", "coordinates": [5.219, 60.291]}}, {"type": "Feature", "properties": {"id": "LTAI", "site": "Antalya Arpt", "prior": "2", "obsTime": "2018-09-20T19:50:00Z", "temp": 25.0, "dewp": 20.0, "wspd": 5, "wdir": 350, "cover": "CAVOK", "visib": 6.21, "fltcat": "VFR", "altim": 1011.0, "rawOb": "LTAI 201950Z 35005KT 230V020 CAVOK 25/20 Q1011 NOSIG"}, "geometry": {"type": "Point", "coordinates": [30.801, 36.896]}}, {"type": "Feature", "properties": {"id": "OITR", "site": "Orumieh Arpt", "prior": "3", "obsTime": "2018-09-20T19:00:00Z", "temp": 19.0, "dewp": 10.0, "wspd": 8, "wdir": 340, "ceil": 180, "cover": "BKN", "visib": 6.21, "fltcat": "VFR", "altim": 1019.0, "rawOb": "OITR 201900Z 34008KT 9999 FEW035TCU SCT040 BKN180 19/10 Q1019"}, "geometry": {"type": "Point", "coordinates": [45.067, 37.666]}}, {"type": "Feature", "properties": {"id": "EDDS", "site": "Stuttgart Arpt", "prior": "3", "obsTime": "2018-09-20T19:50:00Z", "temp": 20.0, "dewp": 12.0, "wspd": 1, "wdir": 0, "cover": "CAVOK", "visib": 6.21, "fltcat": "VFR", "altim": 1017.0, "rawOb": "EDDS 201950Z VRB01KT CAVOK 20/12 Q1017 NOSIG"}, "geometry": {"type": "Point", "coordinates": [9.22, 48.69]}}, {"type": "Feature", "properties": {"id": "EPRZ", "site": "Rzeszow/Jasionka Arp", "prior": "3", "obsTime": "2018-09-20T19:30:00Z", "temp": 15.0, "dewp": 12.0, "wspd": 2, "wdir": 0, "cover": "CAVOK", "visib": 6.21, "fltcat": "VFR", "altim": 1020.0, "rawOb": "EPRZ 201930Z VRB02KT CAVOK 15/12 Q1020"}, "geometry": {"type": "Point", "coordinates": [22.025, 50.11]}}, {"type": "Feature", "properties": {"id": "EPLB", "site": "Lublin Arpt", "prior": "3", "obsTime": "2018-09-20T20:00:00Z", "temp": 16.0, "dewp": 13.0, "wspd": 1, "wdir": 0, "cover": "CAVOK", "visib": 6.21, "fltcat": "VFR", "altim": 1019.0, "rawOb": "EPLB 202000Z VRB01KT CAVOK 16/13 Q1019"}, "geometry": {"type": "Point", "coordinates": [22.714, 51.239]}}, {"type": "Feature", "properties": {"id": "EPSC", "site": "Szczecin/Golenow Arp", "prior": "3", "obsTime": "2018-09-20T20:00:00Z", "temp": 16.0, "dewp": 13.0, "wspd": 4, "wdir": 110, "cover": "CAVOK", "visib": 6.21, "fltcat": "VFR", "altim": 1013.0, "rawOb": "EPSC 202000Z 11004KT CAVOK 16/13 Q1013"}, "geometry": {"type": "Point", "coordinates": [14.902, 53.584]}}, {"type": "Feature", "properties": {"id": "LUKK", "site": "Chishinau Arpt", "prior": "3", "obsTime": "2018-09-20T20:00:00Z", "temp": 14.0, "dewp": 11.0, "wspd": 4, "wdir": 270, "cover": "CAVOK", "visib": 6.21, "fltcat": "VFR", "altim": 1020.0, "rawOb": "LUKK 202000Z 27004KT 250V330 CAVOK 14/11 Q1020 R09/CLRD// NOSIG"}, "geometry": {"type": "Point", "coordinates": [28.931, 46.928]}}, {"type": "Feature", "properties": {"id": "LDPL", "site": "Pula Arpt", "prior": "3", "obsTime": "2018-09-20T20:00:00Z", "temp": 21.0, "dewp": 15.0, "wspd": 6, "wdir": 40, "cover": "CAVOK", "visib": 6.21, "fltcat": "VFR", "altim": 1017.0, "rawOb": "LDPL 202000Z 04006KT CAVOK 21/15 Q1017 NOSIG"}, "geometry": {"type": "Point", "coordinates": [13.921, 44.894]}}, {"type": "Feature", "properties": {"id": "LROD", "site": "Oradea Intl", "prior": "3", "obsTime": "2018-09-20T19:30:00Z", "temp": 18.0, "dewp": 12.0, "wspd": 4, "wdir": 90, "cover": "CAVOK", "visib": 6.21, "fltcat": "VFR", "altim": 1019.0, "rawOb": "LROD 201930Z 09004KT CAVOK 18/12 Q1019"}, "geometry": {"type": "Point", "coordinates": [21.902, 47.025]}}, {"type": "Feature", "properties": {"id": "LBPD", "site": "Plovdiv", "prior": "3", "obsTime": "2018-09-20T20:00:00Z", "temp": 19.0, "dewp": 8.0, "wspd": 3, "wdir": 40, "cover": "CLR", "visib": 6.21, "fltcat": "VFR", "altim": 1020.0, "rawOb": "LBPD 202000Z AUTO 04003KT 320V090 9999 NCD 19/08 Q1020"}, "geometry": {"type": "Point", "coordinates": [24.802, 42.134]}}, {"type": "Feature", "properties": {"id": "LBBG", "site": "Burgas Arpt", "prior": "3", "obsTime": "2018-09-20T20:00:00Z", "temp": 17.0, "dewp": 15.0, "wspd": 5, "wdir": 20, "cover": "CAVOK", "visib": 6.21, "fltcat": "VFR", "altim": 1020.0, "rawOb": "LBBG 202000Z 02005KT CAVOK 17/15 Q1020 NOSIG"}, "geometry": {"type": "Point", "coordinates": [27.514, 42.569]}}, {"type": "Feature", "properties": {"id": "LFBA", "site": "Agen/La Garenne Arpt", "prior": "3", "obsTime": "2018-09-20T19:30:00Z", "temp": 22.0, "dewp": 15.0, "wspd": 1, "wdir": 0, "cover": "CAVOK", "visib": 6.21, "fltcat": "VFR", "altim": 1015.0, "rawOb": "LFBA 201930Z AUTO VRB01KT CAVOK 22/15 Q1015 NOSIG"}, "geometry": {"type": "Point", "coordinates": [0.593, 44.174]}}, {"type": "Feature", "properties": {"id": "LRTR", "site": "Timisoara/Traian Vui", "prior": "3", "obsTime": "2018-09-20T19:30:00Z", "temp": 17.0, "dewp": 12.0, "wspd": 4, "wdir": 60, "cover": "CAVOK", "visib": 6.21, "fltcat": "VFR", "altim": 1019.0, "rawOb": "LRTR 201930Z 06004KT CAVOK 17/12 Q1019"}, "geometry": {"type": "Point", "coordinates": [21.336, 45.81]}}, {"type": "Feature", "properties": {"id": "EINN", "site": "Shannon Arpt", "prior": "3", "obsTime": "2018-09-20T20:00:00Z", "temp": 8.0, "dewp": 7.0, "wspd": 6, "wdir": 300, "ceil": 42, "cover": "BKN", "visib": 6.21, "fltcat": "VFR", "altim": 1000.0, "rawOb": "EINN 202000Z 30006KT 9999 FEW006 BKN042 08/07 Q1000 NOSIG"}, "geometry": {"type": "Point", "coordinates": [-8.92, 52.702]}}, {"type": "Feature", "properties": {"id": "LZTT", "site": "Poprad/Tatry Arpt", "prior": "3", "obsTime": "2018-09-20T20:00:00Z", "temp": 12.0, "dewp": 10.0, "wspd": 7, "wdir": 260, "cover": "FEW", "visib": 6.21, "fltcat": "VFR", "altim": 1022.0, "rawOb": "LZTT 202000Z 26007KT 9999 FEW060 12/10 Q1022"}, "geometry": {"type": "Point", "coordinates": [20.242, 49.074]}}, {"type": "Feature", "properties": {"id": "LKMT", "site": "Ostrava/Janacek Arpt", "prior": "3", "obsTime": "2018-09-20T19:30:00Z", "temp": 19.0, "dewp": 14.0, "wspd": 4, "wdir": 180, "cover": "CAVOK", "visib": 6.21, "fltcat": "VFR", "altim": 1019.0, "rawOb": "LKMT 201930Z 18004KT 150V210 CAVOK 19/14 Q1019 NOSIG"}, "geometry": {"type": "Point", "coordinates": [18.111, 49.696]}}, {"type": "Feature", "properties": {"id": "UMGG", "site": "Gomel Arpt", "prior": "3", "obsTime": "2018-09-20T19:00:00Z", "temp": 20.0, "dewp": 15.0, "wspd": 4, "wdir": 220, "cover": "CLR", "visib": 3.73, "fltcat": "MVFR", "altim": 1020.0, "rawOb": "UMGG 201900Z 22002MPS 6000 NSC 20/15 Q1020 R28/D NOSIG"}, "geometry": {"type": "Point", "coordinates": [31.016, 52.527]}}, {"type": "Feature", "properties": {"id": "LRCK", "site": "Constanta/Kogalnicea", "prior": "3", "obsTime": "2018-09-20T19:30:00Z", "temp": 16.0, "dewp": 14.0, "wspd": 4, "wdir": 340, "cover": "CAVOK", "visib": 6.21, "fltcat": "VFR", "altim": 1021.0, "rawOb": "LRCK 201930Z 34004KT CAVOK 16/14 Q1021 NOSIG"}, "geometry": {"type": "Point", "coordinates": [28.488, 44.361]}}, {"type": "Feature", "properties": {"id": "LKTB", "site": "Brno/Turany Arpt", "prior": "3", "obsTime": "2018-09-20T19:30:00Z", "temp": 22.0, "dewp": 15.0, "wspd": 5, "wdir": 40, "cover": "CAVOK", "visib": 6.21, "fltcat": "VFR", "altim": 1019.0, "rawOb": "LKTB 201930Z 04005KT CAVOK 22/15 Q1019 NOSIG"}, "geometry": {"type": "Point", "coordinates": [16.691, 49.152]}}, {"type": "Feature", "properties": {"id": "LFRS", "site": "Nantes/Atlantique Ar", "prior": "3", "obsTime": "2018-09-20T19:30:00Z", "temp": 18.0, "dewp": 16.0, "wspd": 7, "wdir": 220, "cover": "CAVOK", "visib": 6.21, "fltcat": "VFR", "altim": 1014.0, "rawOb": "LFRS 201930Z AUTO 22007KT CAVOK 18/16 Q1014 NOSIG"}, "geometry": {"type": "Point", "coordinates": [-1.609, 47.155]}}, {"type": "Feature", "properties": {"id": "UGKO", "site": "Kopitnari/Kutaisi In", "prior": "3", "obsTime": "2018-09-20T20:00:00Z", "temp": 17.0, "dewp": 16.0, "wspd": 4, "wdir": 60, "cover": "CAVOK", "visib": 6.21, "fltcat": "VFR", "altim": 1017.0, "rawOb": "UGKO 202000Z AUTO 06004KT CAVOK 17/16 Q1017 NOSIG"}, "geometry": {"type": "Point", "coordinates": [42.483, 42.177]}}, {"type": "Feature", "properties": {"id": "EPWR", "site": "Wroclaw/Strachowice", "prior": "3", "obsTime": "2018-09-20T20:00:00Z", "temp": 19.0, "dewp": 13.0, "wspd": 3, "wdir": 170, "cover": "CAVOK", "visib": 6.21, "fltcat": "VFR", "altim": 1017.0, "rawOb": "EPWR 202000Z 17003KT 110V200 CAVOK 19/13 Q1017"}, "geometry": {"type": "Point", "coordinates": [16.883, 51.104]}}, {"type": "Feature", "properties": {"id": "LFBO", "site": "Toulouse/Blagnac Arp", "prior": "3", "obsTime": "2018-09-20T19:30:00Z", "temp": 27.0, "dewp": 12.0, "wspd": 4, "wdir": 210, "cover": "FEW", "visib": 6.21, "fltcat": "VFR", "altim": 1016.0, "rawOb": "LFBO 201930Z AUTO 21004KT 140V260 9999 FEW008 27/12 Q1016 NOSIG"}, "geometry": {"type": "Point", "coordinates": [1.362, 43.63]}}, {"type": "Feature", "properties": {"id": "URSS", "site": "Sochi Intl", "prior": "3", "obsTime": "2018-09-20T19:30:00Z", "temp": 18.0, "dewp": 17.0, "wspd": 6, "wdir": 50, "cover": "CLR", "visib": 6.21, "fltcat": "VFR", "altim": 1016.0, "rawOb": "URSS 201930Z 05003MPS 9999 NSC 18/17 Q1016 R02/090070 R06/090070 NOSIG RMK R06/05002MPS QFE761"}, "geometry": {"type": "Point", "coordinates": [39.944, 43.445]}}, {"type": "Feature", "properties": {"id": "EPLL", "site": "Lubinek Arpt", "prior": "3", "obsTime": "2018-09-20T19:30:00Z", "temp": 18.0, "dewp": 16.0, "wspd": 2, "wdir": 40, "cover": "CAVOK", "visib": 6.21, "fltcat": "VFR", "altim": 1018.0, "rawOb": "EPLL 201930Z 04002KT CAVOK 18/16 Q1018"}, "geometry": {"type": "Point", "coordinates": [19.393, 51.721]}}, {"type": "Feature", "properties": {"id": "EPBY", "site": "Bydgoszcz/Paderewski", "prior": "3", "obsTime": "2018-09-20T20:00:00Z", "temp": 18.0, "dewp": 13.0, "wspd": 2, "wdir": 120, "cover": "CAVOK", "visib": 6.21, "fltcat": "VFR", "altim": 1016.0, "rawOb": "EPBY 202000Z 12002KT CAVOK 18/13 Q1016"}, "geometry": {"type": "Point", "coordinates": [17.978, 53.097]}}, {"type": "Feature", "properties": {"id": "LFSL", "site": "Brive/Souillac Arpt", "prior": "3", "obsTime": "2018-09-20T19:30:00Z", "temp": 21.0, "dewp": 14.0, "wspd": 0, "wdir": 0, "cover": "CAVOK", "visib": 6.21, "fltcat": "VFR", "altim": 1016.0, "rawOb": "LFSL 201930Z AUTO 00000KT CAVOK 21/14 Q1016 NOSIG"}, "geometry": {"type": "Point", "coordinates": [1.486, 45.042]}}, {"type": "Feature", "properties": {"id": "LFOA", "site": "Avord(AFB)", "prior": "3", "obsTime": "2018-09-20T19:30:00Z", "temp": 22.0, "dewp": 11.0, "wspd": 3, "wdir": 240, "cover": "CLR", "visib": 6.21, "fltcat": "VFR", "altim": 1015.0, "rawOb": "LFOA 201930Z AUTO 24003KT 9999 NCD 22/11 Q1015 NOSIG"}, "geometry": {"type": "Point", "coordinates": [2.631, 47.055]}}, {"type": "Feature", "properties": {"id": "URKA", "site": "Anapa Arpt", "prior": "3", "obsTime": "2018-09-20T19:30:00Z", "temp": 15.0, "dewp": 13.0, "wspd": 2, "wdir": 100, "cover": "CAVOK", "visib": 6.21, "fltcat": "VFR", "altim": 1018.0, "rawOb": "URKA 201930Z 10001MPS CAVOK 15/13 Q1018 R04/010070 NOSIG RMK QFE760/1013"}, "geometry": {"type": "Point", "coordinates": [37.347, 45.002]}}, {"type": "Feature", "properties": {"id": "LFBT", "site": "Tarbes/Ossun Arpt", "prior": "3", "obsTime": "2018-09-20T19:30:00Z", "temp": 21.0, "dewp": 16.0, "wspd": 5, "wdir": 170, "cover": "CAVOK", "visib": 6.21, "fltcat": "VFR", "altim": 1017.0, "rawOb": "LFBT 201930Z AUTO 17005KT CAVOK 21/16 Q1017 BECMG 27010KT"}, "geometry": {"type": "Point", "coordinates": [-0.005, 43.181]}}, {"type": "Feature", "properties": {"id": "LFOP", "site": "Rouen/Boos Arpt", "prior": "3", "obsTime": "2018-09-20T19:00:00Z", "temp": 20.0, "dewp": 13.0, "wspd": 11, "wdir": 190, "cover": "CAVOK", "visib": 6.21, "fltcat": "VFR", "altim": 1011.0, "rawOb": "LFOP 201900Z AUTO 19011KT CAVOK 20/13 Q1011 NOSIG"}, "geometry": {"type": "Point", "coordinates": [1.177, 49.386]}}, {"type": "Feature", "properties": {"id": "LFBI", "site": "Poitiers/Biard Arpt", "prior": "3", "obsTime": "2018-09-20T19:30:00Z", "temp": 21.0, "dewp": 14.0, "wspd": 5, "wdir": 270, "cover": "CAVOK", "visib": 6.21, "fltcat": "VFR", "altim": 1015.0, "rawOb": "LFBI 201930Z AUTO 27005KT CAVOK 21/14 Q1015 NOSIG"}, "geometry": {"type": "Point", "coordinates": [0.307, 46.587]}}, {"type": "Feature", "properties": {"id": "UKDD", "site": "Dnipropetrovsk Intl", "prior": "3", "obsTime": "2018-09-20T20:00:00Z", "temp": 17.0, "dewp": 10.0, "wspd": 8, "wdir": 350, "cover": "CAVOK", "visib": 6.21, "fltcat": "VFR", "altim": 1020.0, "rawOb": "UKDD 202000Z 35004MPS CAVOK 17/10 Q1020 R26/090070 NOSIG"}, "geometry": {"type": "Point", "coordinates": [35.098, 48.357]}}, {"type": "Feature", "properties": {"id": "LQBK", "site": "Banja Luka Intl", "prior": "3", "obsTime": "2018-09-20T20:00:00Z", "temp": 18.0, "dewp": 16.0, "wspd": 3, "wdir": 180, "cover": "CAVOK", "visib": 6.21, "fltcat": "VFR", "altim": 1019.0, "rawOb": "LQBK 202000Z 18003KT CAVOK 18/16 Q1019 NOSIG"}, "geometry": {"type": "Point", "coordinates": [17.299, 44.94]}}, {"type": "Feature", "properties": {"id": "LFMT", "site": "Montpelier/Mediterra", "prior": "3", "obsTime": "2018-09-20T19:30:00Z", "temp": 23.0, "dewp": 18.0, "wspd": 3, "wdir": 180, "cover": "CAVOK", "visib": 6.21, "fltcat": "VFR", "altim": 1016.0, "rawOb": "LFMT 201930Z AUTO 18003KT CAVOK 23/18 Q1016 NOSIG"}, "geometry": {"type": "Point", "coordinates": [3.967, 43.58]}}, {"type": "Feature", "properties": {"id": "GMFF", "site": "Fes/Saiss Arpt", "prior": "3", "obsTime": "2018-09-20T20:00:00Z", "temp": 27.0, "dewp": 16.0, "wspd": 6, "wdir": 260, "cover": "SCT", "visib": 6.21, "fltcat": "VFR", "altim": 1020.0, "rawOb": "GMFF 202000Z 26006KT 9999 SCT030 27/16 Q1020 NOSIG"}, "geometry": {"type": "Point", "coordinates": [-4.981, 33.927]}}, {"type": "Feature", "properties": {"id": "URMT", "site": "Stavropol/Shpakovsko", "prior": "3", "obsTime": "2018-09-20T19:30:00Z", "temp": 16.0, "dewp": 6.0, "wspd": 2, "wdir": 100, "cover": "CAVOK", "visib": 6.21, "fltcat": "VFR", "altim": 1020.0, "rawOb": "URMT 201930Z 10001MPS CAVOK 16/06 Q1020 R07/010070 NOSIG RMK QFE725"}, "geometry": {"type": "Point", "coordinates": [42.109, 45.108]}}, {"type": "Feature", "properties": {"id": "LFBL", "site": "Limoges/Bellegarde A", "prior": "3", "obsTime": "2018-09-20T19:30:00Z", "temp": 23.0, "dewp": 16.0, "wspd": 4, "wdir": 230, "cover": "CAVOK", "visib": 6.21, "fltcat": "VFR", "altim": 1016.0, "rawOb": "LFBL 201930Z AUTO 23004KT CAVOK 23/16 Q1016 NOSIG"}, "geometry": {"type": "Point", "coordinates": [1.182, 45.862]}}, {"type": "Feature", "properties": {"id": "LBGO", "site": "Gorna Orechovista Ar", "prior": "3", "obsTime": "2018-09-20T20:00:00Z", "temp": 12.0, "dewp": 12.0, "wspd": 0, "wdir": 0, "cover": "CLR", "visib": 6.21, "fltcat": "VFR", "altim": 1020.0, "rawOb": "LBGO 202000Z AUTO 00000KT 9999 NCD 12/12 Q1020"}, "geometry": {"type": "Point", "coordinates": [25.716, 43.151]}}, {"type": "Feature", "properties": {"id": "LPFR", "site": "Faro Arpt", "prior": "3", "obsTime": "2018-09-20T19:30:00Z", "temp": 23.0, "dewp": 21.0, "wspd": 5, "wdir": 270, "cover": "CAVOK", "visib": 6.21, "fltcat": "VFR", "altim": 1017.0, "rawOb": "LPFR 201930Z 27005KT CAVOK 23/21 Q1017"}, "geometry": {"type": "Point", "coordinates": [-7.973, 37.015]}}, {"type": "Feature", "properties": {"id": "LFST", "site": "Strasbourg/Entzheim", "prior": "3", "obsTime": "2018-09-20T19:30:00Z", "temp": 20.0, "dewp": 15.0, "wspd": 4, "wdir": 240, "cover": "CAVOK", "visib": 6.21, "fltcat": "VFR", "altim": 1015.0, "rawOb": "LFST 201930Z AUTO 24004KT CAVOK 20/15 Q1015 NOSIG"}, "geometry": {"type": "Point", "coordinates": [7.629, 48.539]}}, {"type": "Feature", "properties": {"id": "LCPH", "site": "Paphos Intl", "prior": "3", "obsTime": "2018-09-20T20:00:00Z", "temp": 24.0, "dewp": 23.0, "wspd": 2, "wdir": 0, "cover": "FEW", "visib": 6.21, "fltcat": "VFR", "altim": 1011.0, "rawOb": "LCPH 202000Z VRB02KT 9999 FEW020 24/23 Q1011"}, "geometry": {"type": "Point", "coordinates": [32.486, 34.718]}}, {"type": "Feature", "properties": {"id": "LRBC", "site": "Bacau Intl", "prior": "3", "obsTime": "2018-09-20T19:30:00Z", "temp": 15.0, "dewp": 8.0, "wspd": 1, "wdir": 0, "cover": "CAVOK", "visib": 6.21, "fltcat": "VFR", "altim": 1020.0, "rawOb": "LRBC 201930Z VRB01KT CAVOK 15/08 Q1020"}, "geometry": {"type": "Point", "coordinates": [26.91, 46.522]}}, {"type": "Feature", "properties": {"id": "LYNI", "site": "Nis/Constantine Arpt", "prior": "3", "obsTime": "2018-09-20T20:00:00Z", "temp": 17.0, "dewp": 9.0, "wspd": 2, "wdir": 70, "cover": "CAVOK", "visib": 6.21, "fltcat": "VFR", "altim": 1019.0, "rawOb": "LYNI 202000Z 07002KT CAVOK 17/09 Q1019 NOSIG"}, "geometry": {"type": "Point", "coordinates": [21.857, 43.336]}}, {"type": "Feature", "properties": {"id": "LFMP", "site": "Perpignan/Liabanere", "prior": "3", "obsTime": "2018-09-20T19:30:00Z", "temp": 23.0, "dewp": 15.0, "wspd": 2, "wdir": 0, "cover": "CAVOK", "visib": 6.21, "fltcat": "VFR", "altim": 1016.0, "rawOb": "LFMP 201930Z AUTO VRB02KT CAVOK 23/15 Q1016 NOSIG"}, "geometry": {"type": "Point", "coordinates": [2.87, 42.744]}}, {"type": "Feature", "properties": {"id": "BIAR", "site": "Akureyri Arpt", "prior": "3", "obsTime": "2018-09-20T20:00:00Z", "temp": 3.0, "dewp": 1.0, "wspd": 13, "wgst": 23, "wdir": 330, "ceil": 19, "cover": "OVC", "visib": 6.21, "fltcat": "MVFR", "altim": 1004.0, "wx": "-DZ", "rawOb": "BIAR 202000Z 33013G23KT 9999 -DZ FEW009 BKN019 OVC029 03/01 Q1004"}, "geometry": {"type": "Point", "coordinates": [-18.072, 65.657]}}, {"type": "Feature", "properties": {"id": "LZPP", "site": "Piesany Arpt", "prior": "3", "obsTime": "2018-09-20T19:30:00Z", "temp": 16.0, "dewp": 11.0, "wspd": 3, "wdir": 10, "cover": "CAVOK", "visib": 6.21, "fltcat": "VFR", "altim": 1019.0, "rawOb": "LZPP 201930Z 01003KT CAVOK 16/11 Q1019"}, "geometry": {"type": "Point", "coordinates": [17.829, 48.623]}}, {"type": "Feature", "properties": {"id": "LHPA", "site": "Papa Arpt", "prior": "3", "obsTime": "2018-09-20T19:45:00Z", "temp": 15.0, "dewp": 14.0, "wspd": 0, "wdir": 0, "cover": "CAVOK", "visib": 6.21, "fltcat": "VFR", "altim": 1019.0, "rawOb": "LHPA 201945Z 00000KT CAVOK 15/14 Q1019 NOSIG RMK BLU"}, "geometry": {"type": "Point", "coordinates": [17.499, 47.363]}}, {"type": "Feature", "properties": {"id": "LEVC", "site": "Valencia Arpt", "prior": "3", "obsTime": "2018-09-20T19:30:00Z", "temp": 26.0, "dewp": 21.0, "wspd": 3, "wdir": 60, "cover": "FEW", "visib": 6.21, "fltcat": "VFR", "altim": 1018.0, "rawOb": "LEVC 201930Z 06003KT 350V140 9999 FEW035 26/21 Q1018 NOSIG"}, "geometry": {"type": "Point", "coordinates": [-0.48, 39.489]}}, {"type": "Feature", "properties": {"id": "LEZL", "site": "Sevilla/San Pablo Ar", "prior": "3", "obsTime": "2018-09-20T19:30:00Z", "temp": 28.0, "dewp": 20.0, "wspd": 9, "wdir": 230, "cover": "CAVOK", "visib": 6.21, "fltcat": "VFR", "altim": 1016.0, "rawOb": "LEZL 201930Z 23009KT CAVOK 28/20 Q1016 NOSIG"}, "geometry": {"type": "Point", "coordinates": [-5.892, 37.418]}}, {"type": "Feature", "properties": {"id": "EHGG", "site": "Groningen Arpt", "prior": "3", "obsTime": "2018-09-20T19:55:00Z", "temp": 18.0, "dewp": 13.0, "wspd": 5, "wdir": 170, "cover": "CLR", "visib": 6.21, "fltcat": "VFR", "altim": 1009.0, "rawOb": "EHGG 201955Z AUTO 17005KT 130V210 9999 NSC 18/13 Q1009 NOSIG"}, "geometry": {"type": "Point", "coordinates": [6.579, 53.125]}}, {"type": "Feature", "properties": {"id": "LEGR", "site": "Granada/Lorca Arpt", "prior": "3", "obsTime": "2018-09-20T19:30:00Z", "temp": 25.0, "dewp": 18.0, "wspd": 4, "wdir": 220, "cover": "FEW", "visib": 6.21, "fltcat": "VFR", "altim": 1020.0, "rawOb": "LEGR 201930Z 22004KT 160V280 9999 FEW050 25/18 Q1020"}, "geometry": {"type": "Point", "coordinates": [-3.776, 37.188]}}, {"type": "Feature", "properties": {"id": "LHUD", "site": "Szeged Arpt", "prior": "3", "obsTime": "2018-09-20T19:45:00Z", "temp": 18.0, "dewp": 10.0, "wspd": 0, "wdir": 0, "cover": "CAVOK", "visib": 6.21, "fltcat": "VFR", "altim": 1019.0, "rawOb": "LHUD 201945Z 00000KT CAVOK 18/10 Q1019"}, "geometry": {"type": "Point", "coordinates": [20.09, 46.247]}}, {"type": "Feature", "properties": {"id": "EHGR", "site": "Gilze-Rijen(AB)", "prior": "3", "obsTime": "2018-09-20T19:55:00Z", "temp": 20.0, "dewp": 13.0, "wspd": 7, "wdir": 170, "ceil": 200, "cover": "OVC", "visib": 6.21, "fltcat": "VFR", "altim": 1010.0, "rawOb": "EHGR 201955Z AUTO 17007KT 9999 OVC200 20/13 Q1010 BLU 20005KT CAVOK"}, "geometry": {"type": "Point", "coordinates": [4.937, 51.567]}}, {"type": "Feature", "properties": {"id": "LEAS", "site": "Aviles/Asturias Arpt", "prior": "3", "obsTime": "2018-09-20T19:30:00Z", "temp": 18.0, "dewp": 16.0, "wspd": 6, "wdir": 190, "cover": "CAVOK", "visib": 6.21, "fltcat": "VFR", "altim": 1018.0, "rawOb": "LEAS 201930Z 19006KT CAVOK 18/16 Q1018 NOSIG"}, "geometry": {"type": "Point", "coordinates": [-6.035, 43.563]}}, {"type": "Feature", "properties": {"id": "UUDL", "site": "Yaroslav/Tunoshna Ar", "prior": "3", "obsTime": "2018-09-20T19:30:00Z", "temp": 10.0, "dewp": 9.0, "wspd": 4, "wdir": 230, "cover": "FEW", "visib": 6.21, "fltcat": "VFR", "altim": 1014.0, "rawOb": "UUDL 201930Z 23002MPS 9999 FEW033 10/09 Q1014 R23/010060 NOSIG RMK QFE752"}, "geometry": {"type": "Point", "coordinates": [40.158, 57.561]}}, {"type": "Feature", "properties": {"id": "EKAH", "site": "Tirstrup Arpt", "prior": "3", "obsTime": "2018-09-20T19:50:00Z", "temp": 14.0, "dewp": 14.0, "wspd": 4, "wdir": 140, "ceil": 4, "cover": "OVC", "fltcat": "LIFR", "altim": 1009.0, "wx": "-SHRA", "rawOb": "EKAH 201950Z AUTO 14004KT 090V160 9999NDV -SHRA OVC004/// 14/14 Q1009"}, "geometry": {"type": "Point", "coordinates": [10.618, 56.304]}}, {"type": "Feature", "properties": {"id": "LFBH", "site": "La Rochelle/Laleu Ar", "prior": "3", "obsTime": "2018-09-20T19:30:00Z", "temp": 19.0, "dewp": 17.0, "wspd": 3, "wdir": 280, "cover": "CAVOK", "visib": 6.21, "fltcat": "VFR", "altim": 1016.0, "rawOb": "LFBH 201930Z AUTO 28003KT CAVOK 19/17 Q1016 NOSIG"}, "geometry": {"type": "Point", "coordinates": [-1.196, 46.179]}}, {"type": "Feature", "properties": {"id": "LFLL", "site": "Lyon/St Exupery Arpt", "prior": "3", "obsTime": "2018-09-20T19:30:00Z", "temp": 25.0, "dewp": 12.0, "wspd": 7, "wdir": 140, "cover": "CAVOK", "visib": 6.21, "fltcat": "VFR", "altim": 1016.0, "rawOb": "LFLL 201930Z 14007KT 110V220 CAVOK 25/12 Q1016 NOSIG"}, "geometry": {"type": "Point", "coordinates": [5.088, 45.729]}}, {"type": "Feature", "properties": {"id": "EDDC", "site": "Dresden Arpt", "prior": "3", "obsTime": "2018-09-20T19:50:00Z", "temp": 22.0, "dewp": 11.0, "wspd": 6, "wdir": 200, "cover": "CAVOK", "visib": 6.21, "fltcat": "VFR", "altim": 1016.0, "rawOb": "EDDC 201950Z 20006KT CAVOK 22/11 Q1016 NOSIG"}, "geometry": {"type": "Point", "coordinates": [13.767, 51.133]}}, {"type": "Feature", "properties": {"id": "LFKJ", "site": "Ajaccio/Oro Arpt", "prior": "3", "obsTime": "2018-09-20T19:30:00Z", "temp": 23.0, "dewp": 20.0, "wspd": 3, "wdir": 70, "cover": "CAVOK", "visib": 6.21, "fltcat": "VFR", "altim": 1016.0, "rawOb": "LFKJ 201930Z AUTO 07003KT CAVOK 23/20 Q1016 NOSIG"}, "geometry": {"type": "Point", "coordinates": [8.8, 41.92]}}, {"type": "Feature", "properties": {"id": "DAOO", "site": "Oran/Es Senia Arpt", "prior": "3", "obsTime": "2018-09-20T19:30:00Z", "temp": 25.0, "dewp": 20.0, "wspd": 8, "wdir": 50, "cover": "SCT", "visib": 6.21, "fltcat": "VFR", "altim": 1018.0, "rawOb": "DAOO 201930Z 05008KT 9999 FEW026 SCT230 25/20 Q1018"}, "geometry": {"type": "Point", "coordinates": [-0.62, 35.623]}}, {"type": "Feature", "properties": {"id": "EDDN", "site": "Nurnberg Arpt", "prior": "3", "obsTime": "2018-09-20T19:50:00Z", "temp": 20.0, "dewp": 13.0, "wspd": 3, "wdir": 0, "cover": "CAVOK", "visib": 6.21, "fltcat": "VFR", "altim": 1017.0, "rawOb": "EDDN 201950Z VRB03KT CAVOK 20/13 Q1017 NOSIG"}, "geometry": {"type": "Point", "coordinates": [11.081, 49.498]}}, {"type": "Feature", "properties": {"id": "LEMH", "site": "Mahon/Menorca Arpt", "prior": "3", "obsTime": "2018-09-20T19:30:00Z", "temp": 23.0, "dewp": 20.0, "wspd": 0, "wdir": 0, "cover": "FEW", "visib": 6.21, "fltcat": "VFR", "altim": 1018.0, "rawOb": "LEMH 201930Z 00000KT 9999 FEW025 23/20 Q1018"}, "geometry": {"type": "Point", "coordinates": [4.218, 39.863]}}, {"type": "Feature", "properties": {"id": "EDDP", "site": "Leipzig/Halle Arpt", "prior": "3", "obsTime": "2018-09-20T19:50:00Z", "temp": 21.0, "dewp": 10.0, "wspd": 5, "wdir": 160, "cover": "CAVOK", "visib": 6.21, "fltcat": "VFR", "altim": 1014.0, "rawOb": "EDDP 201950Z 16005KT CAVOK 21/10 Q1014 NOSIG"}, "geometry": {"type": "Point", "coordinates": [12.23, 51.42]}}, {"type": "Feature", "properties": {"id": "EDDV", "site": "Hannover Arpt", "prior": "3", "obsTime": "2018-09-20T19:50:00Z", "temp": 20.0, "dewp": 11.0, "wspd": 2, "wdir": 0, "cover": "CAVOK", "visib": 6.21, "fltcat": "VFR", "altim": 1012.0, "rawOb": "EDDV 201950Z VRB02KT CAVOK 20/11 Q1012 NOSIG"}, "geometry": {"type": "Point", "coordinates": [9.69, 52.46]}}, {"type": "Feature", "properties": {"id": "EDDW", "site": "Bremen Arpt", "prior": "3", "obsTime": "2018-09-20T19:50:00Z", "temp": 18.0, "dewp": 12.0, "wspd": 6, "wdir": 170, "cover": "CAVOK", "visib": 6.21, "fltcat": "VFR", "altim": 1011.0, "rawOb": "EDDW 201950Z 17006KT CAVOK 18/12 Q1011 NOSIG"}, "geometry": {"type": "Point", "coordinates": [8.788, 53.047]}}, {"type": "Feature", "properties": {"id": "EETN", "site": "Tallin Arpt", "prior": "3", "obsTime": "2018-09-20T19:50:00Z", "temp": 16.0, "dewp": 14.0, "wspd": 11, "wdir": 210, "cover": "CAVOK", "visib": 6.21, "fltcat": "VFR", "altim": 1009.0, "rawOb": "EETN 201950Z 21011KT CAVOK 16/14 Q1009 NOSIG"}, "geometry": {"type": "Point", "coordinates": [24.827, 59.413]}}, {"type": "Feature", "properties": {"id": "LPPD", "site": "Ponta Delgada/Paulo", "prior": "3", "obsTime": "2018-09-20T19:30:00Z", "temp": 23.0, "dewp": 21.0, "wspd": 7, "wdir": 230, "cover": "SCT", "visib": 6.21, "fltcat": "VFR", "altim": 1021.0, "rawOb": "LPPD 201930Z 23007KT 9999 SCT016 23/21 Q1021"}, "geometry": {"type": "Point", "coordinates": [-25.696, 37.742]}}, {"type": "Feature", "properties": {"id": "EDDL", "site": "Dusseldorf Intl", "prior": "3", "obsTime": "2018-09-20T19:50:00Z", "temp": 22.0, "dewp": 10.0, "wspd": 9, "wdir": 190, "cover": "CAVOK", "visib": 6.21, "fltcat": "VFR", "altim": 1011.0, "rawOb": "EDDL 201950Z 19009KT CAVOK 22/10 Q1011 NOSIG"}, "geometry": {"type": "Point", "coordinates": [6.769, 51.287]}}, {"type": "Feature", "properties": {"id": "LEVX", "site": "Vigo/Peinador Arpt", "prior": "3", "obsTime": "2018-09-20T19:30:00Z", "temp": 19.0, "dewp": 17.0, "wspd": 3, "wdir": 230, "ceil": 12, "cover": "BKN", "visib": 6.21, "fltcat": "MVFR", "altim": 1021.0, "rawOb": "LEVX 201930Z 23003KT 180V280 9999 BKN012 19/17 Q1021 NOSIG"}, "geometry": {"type": "Point", "coordinates": [-8.627, 42.23]}}, {"type": "Feature", "properties": {"id": "LFMN", "site": "Nice/Cote DAzur Arpt", "prior": "3", "obsTime": "2018-09-20T19:30:00Z", "temp": 26.0, "dewp": 18.0, "wspd": 0, "wdir": 0, "cover": "SCT", "visib": 6.21, "fltcat": "VFR", "altim": 1016.0, "rawOb": "LFMN 201930Z 00000KT 9999 SCT100 26/18 Q1016 NOSIG"}, "geometry": {"type": "Point", "coordinates": [7.215, 43.66]}}, {"type": "Feature", "properties": {"id": "DABB", "site": "Annaba Arpt", "prior": "3", "obsTime": "2018-09-20T19:30:00Z", "temp": 23.0, "dewp": 20.0, "wspd": 3, "wdir": 210, "cover": "FEW", "visib": 6.21, "fltcat": "VFR", "altim": 1016.0, "rawOb": "DABB 201930Z 21003KT 190V270 9999 FEW023TCU FEW026CB 23/20 Q1016"}, "geometry": {"type": "Point", "coordinates": [7.812, 36.825]}}, {"type": "Feature", "properties": {"id": "LEZG", "site": "Zaragoza Arpt", "prior": "3", "obsTime": "2018-09-20T19:30:00Z", "temp": 27.0, "dewp": 13.0, "wspd": 5, "wdir": 170, "cover": "FEW", "visib": 6.21, "fltcat": "VFR", "altim": 1016.0, "rawOb": "LEZG 201930Z 17005KT 9999 FEW040 27/13 Q1016"}, "geometry": {"type": "Point", "coordinates": [-1.025, 41.663]}}, {"type": "Feature", "properties": {"id": "LPBJ", "site": "Beja Arpt", "prior": "3", "obsTime": "2018-09-20T19:00:00Z", "temp": 28.0, "dewp": 10.0, "wspd": 10, "wdir": 310, "cover": "FEW", "visib": 6.21, "fltcat": "VFR", "altim": 1018.0, "rawOb": "LPBJ 201900Z 31010KT 9999 FEW045 28/10 Q1018"}, "geometry": {"type": "Point", "coordinates": [-7.932, 38.079]}}, {"type": "Feature", "properties": {"id": "LKPD", "site": "Pardubice Arpt", "prior": "3", "obsTime": "2018-09-20T19:00:00Z", "temp": 20.0, "dewp": 11.0, "wspd": 3, "wdir": 190, "cover": "CAVOK", "visib": 6.21, "fltcat": "VFR", "altim": 1018.0, "rawOb": "LKPD 201900Z 19003KT CAVOK 20/11 Q1018 NOSIG"}, "geometry": {"type": "Point", "coordinates": [15.739, 50.014]}}, {"type": "Feature", "properties": {"id": "UBBN", "site": "Nakhchivan Arpt", "prior": "3", "obsTime": "2018-09-20T20:00:00Z", "temp": 20.0, "dewp": 10.0, "wspd": 12, "wdir": 110, "cover": "CLR", "visib": 6.21, "fltcat": "VFR", "altim": 1018.0, "rawOb": "UBBN 202000Z 11012KT 9999 NSC 20/10 Q1018 R14R/CLRD// NOSIG RMK MT OP QFE688"}, "geometry": {"type": "Point", "coordinates": [45.455, 39.19]}}, {"type": "Feature", "properties": {"id": "EVLA", "site": "Liepaja Intl", "prior": "3", "obsTime": "2018-09-20T19:50:00Z", "temp": 17.0, "dewp": 16.0, "wspd": 6, "wdir": 200, "cover": "CLR", "visib": 6.21, "fltcat": "VFR", "altim": 1014.0, "rawOb": "EVLA 201950Z AUTO 20006KT 9999 NCD 17/16 Q1014"}, "geometry": {"type": "Point", "coordinates": [21.099, 56.518]}}, {"type": "Feature", "properties": {"id": "UDYZ", "site": "Zvartnots Intl", "prior": "3", "obsTime": "2018-09-20T19:30:00Z", "temp": 21.0, "dewp": 7.0, "wspd": 9, "wdir": 50, "cover": "CLR", "visib": 6.21, "fltcat": "VFR", "altim": 1018.0, "rawOb": "UDYZ 201930Z 05009KT 9999 NSC 21/07 Q1018 R09/000070 NOSIG"}, "geometry": {"type": "Point", "coordinates": [44.399, 40.147]}}, {"type": "Feature", "properties": {"id": "LWSK", "site": "Skopje/Alexander the", "prior": "3", "obsTime": "2018-09-20T20:00:00Z", "temp": 16.0, "dewp": 9.0, "wspd": 1, "wdir": 0, "cover": "CAVOK", "visib": 6.21, "fltcat": "VFR", "altim": 1019.0, "rawOb": "LWSK 202000Z VRB01KT CAVOK 16/09 Q1019 NOSIG"}, "geometry": {"type": "Point", "coordinates": [21.621, 41.962]}}, {"type": "Feature", "properties": {"id": "ELLX", "site": "Luxembourg/Findel Ar", "prior": "3", "obsTime": "2018-09-20T19:50:00Z", "temp": 19.0, "dewp": 11.0, "wspd": 6, "wdir": 200, "cover": "CAVOK", "visib": 6.21, "fltcat": "VFR", "altim": 1015.0, "rawOb": "ELLX 201950Z 20006KT CAVOK 19/11 Q1015 NOSIG"}, "geometry": {"type": "Point", "coordinates": [6.213, 49.627]}}, {"type": "Feature", "properties": {"id": "LFOK", "site": "Chalons-Vatry(AFB)", "prior": "3", "obsTime": "2018-09-20T19:30:00Z", "temp": 17.0, "dewp": 12.0, "wspd": 6, "wdir": 190, "cover": "CAVOK", "visib": 6.21, "fltcat": "VFR", "altim": 1014.0, "rawOb": "LFOK 201930Z AUTO 19006KT CAVOK 17/12 Q1014 NOSIG"}, "geometry": {"type": "Point", "coordinates": [4.184, 48.777]}}, {"type": "Feature", "properties": {"id": "GMMN", "site": "Casablanca Intl", "prior": "3", "obsTime": "2018-09-20T20:00:00Z", "temp": 23.0, "dewp": 22.0, "wspd": 6, "wdir": 10, "cover": "CAVOK", "visib": 6.21, "fltcat": "VFR", "altim": 1019.0, "rawOb": "GMMN 202000Z 01006KT CAVOK 23/22 Q1019 NOSIG"}, "geometry": {"type": "Point", "coordinates": [-7.588, 33.368]}}, {"type": "Feature", "properties": {"id": "LFCR", "site": "Rodez/Marcillac Arpt", "prior": "3", "obsTime": "2018-09-20T19:30:00Z", "temp": 19.0, "dewp": 11.0, "wspd": 2, "wdir": 170, "cover": "CAVOK", "visib": 6.21, "fltcat": "VFR", "altim": 1019.0, "rawOb": "LFCR 201930Z AUTO 17002KT CAVOK 19/11 Q1019 NOSIG"}, "geometry": {"type": "Point", "coordinates": [2.482, 44.408]}}, {"type": "Feature", "properties": {"id": "EFOU", "site": "Oulu Arpt", "prior": "3", "obsTime": "2018-09-20T19:50:00Z", "temp": 12.0, "dewp": 9.0, "wspd": 8, "wdir": 200, "ceil": 54, "cover": "BKN", "visib": 6.21, "fltcat": "VFR", "altim": 994.0, "rawOb": "EFOU 201950Z AUTO 20008KT 170V230 9999 BKN054/// BKN065/// 12/09 Q0994"}, "geometry": {"type": "Point", "coordinates": [25.356, 64.929]}}, {"type": "Feature", "properties": {"id": "LFRM", "site": "Le Mans/Arnage Arpt", "prior": "3", "obsTime": "2018-09-20T19:30:00Z", "temp": 21.0, "dewp": 14.0, "wspd": 5, "wdir": 220, "cover": "CAVOK", "visib": 6.21, "fltcat": "VFR", "altim": 1013.0, "rawOb": "LFRM 201930Z AUTO 22005KT 190V260 CAVOK 21/14 Q1013 NOSIG"}, "geometry": {"type": "Point", "coordinates": [0.201, 47.947]}}, {"type": "Feature", "properties": {"id": "LYKV", "site": "Kraljevo/Ladevci Arp", "prior": "3", "obsTime": "2018-09-20T19:30:00Z", "temp": 17.0, "dewp": 14.0, "wspd": 1, "wdir": 0, "cover": "CAVOK", "visib": 6.21, "fltcat": "VFR", "altim": 1020.0, "rawOb": "LYKV 201930Z VRB01KT CAVOK 17/14 Q1020 NOSIG"}, "geometry": {"type": "Point", "coordinates": [20.587, 43.817]}}, {"type": "Feature", "properties": {"id": "EDNY", "site": "Friedrichshafen Arpt", "prior": "3", "obsTime": "2018-09-20T19:50:00Z", "temp": 16.0, "dewp": 13.0, "wspd": 0, "wdir": 0, "cover": "CAVOK", "visib": 6.21, "fltcat": "VFR", "altim": 1018.0, "rawOb": "EDNY 201950Z 00000KT CAVOK 16/13 Q1018"}, "geometry": {"type": "Point", "coordinates": [9.513, 47.672]}}, {"type": "Feature", "properties": {"id": "LEAM", "site": "Almeria Arpt", "prior": "3", "obsTime": "2018-09-20T19:30:00Z", "temp": 25.0, "dewp": 22.0, "wspd": 2, "wdir": 0, "cover": "FEW", "visib": 6.21, "fltcat": "VFR", "altim": 1018.0, "rawOb": "LEAM 201930Z VRB02KT 9999 FEW030 25/22 Q1018"}, "geometry": {"type": "Point", "coordinates": [-2.373, 36.843]}}, {"type": "Feature", "properties": {"id": "EICK", "site": "Cork Arpt", "prior": "3", "obsTime": "2018-09-20T20:00:00Z", "temp": 8.0, "dewp": 7.0, "wspd": 18, "wdir": 330, "ceil": 50, "cover": "BKN", "visib": 6.21, "fltcat": "VFR", "altim": 999.0, "rawOb": "EICK 202000Z 33018KT 9999 FEW005 SCT007 BKN050 08/07 Q0999 BECMG 4000 BKN004"}, "geometry": {"type": "Point", "coordinates": [-8.492, 51.843]}}, {"type": "Feature", "properties": {"id": "LIRS", "site": "Grosseto(AFB)", "prior": "3", "obsTime": "2018-09-20T18:55:00Z", "temp": 22.0, "dewp": 20.0, "wspd": 3, "wdir": 120, "cover": "CAVOK", "visib": 6.21, "fltcat": "VFR", "altim": 1015.0, "rawOb": "LIRS 201855Z 12003KT CAVOK 22/20 Q1015"}, "geometry": {"type": "Point", "coordinates": [11.07, 42.76]}}, {"type": "Feature", "properties": {"id": "LEGE", "site": "Gerona/Costa Brava A", "prior": "3", "obsTime": "2018-09-20T19:30:00Z", "temp": 23.0, "dewp": 17.0, "wspd": 2, "wdir": 280, "cover": "FEW", "visib": 6.21, "fltcat": "VFR", "altim": 1017.0, "rawOb": "LEGE 201930Z 28002KT 9999 FEW060 23/17 Q1017"}, "geometry": {"type": "Point", "coordinates": [2.762, 41.906]}}, {"type": "Feature", "properties": {"id": "EFKI", "site": "Kajaani Arpt", "prior": "3", "obsTime": "2018-09-20T19:50:00Z", "temp": 12.0, "dewp": 6.0, "wspd": 8, "wdir": 200, "cover": "CAVOK", "visib": 6.21, "fltcat": "VFR", "altim": 997.0, "rawOb": "EFKI 201950Z 20008KT 120V250 CAVOK 12/06 Q0997"}, "geometry": {"type": "Point", "coordinates": [27.681, 64.285]}}, {"type": "Feature", "properties": {"id": "LFSB", "site": "Basel/Euro Arpt", "prior": "3", "obsTime": "2018-09-20T19:30:00Z", "temp": 19.0, "dewp": 15.0, "wspd": 2, "wdir": 220, "cover": "CAVOK", "visib": 6.21, "fltcat": "VFR", "altim": 1016.0, "rawOb": "LFSB 201930Z 22002KT CAVOK 19/15 Q1016 NOSIG"}, "geometry": {"type": "Point", "coordinates": [7.521, 47.601]}}, {"type": "Feature", "properties": {"id": "GMTA", "site": "Al Hoceima/Idrissi A", "prior": "3", "obsTime": "2018-09-20T20:00:00Z", "temp": 25.0, "dewp": 23.0, "wspd": 2, "wdir": 260, "cover": "SCT", "visib": 4.97, "fltcat": "MVFR", "altim": 1018.0, "rawOb": "GMTA 202000Z 26002KT 8000 SCT007 25/23 Q1018 NOSIG"}, "geometry": {"type": "Point", "coordinates": [-3.839, 35.177]}}, {"type": "Feature", "properties": {"id": "DAOI", "site": "Chlef/Belkaid Arpt", "prior": "3", "obsTime": "2018-09-20T19:00:00Z", "temp": 25.0, "dewp": 18.0, "wspd": 4, "wdir": 340, "cover": "FEW", "visib": 6.21, "fltcat": "VFR", "altim": 1017.0, "rawOb": "DAOI 201900Z 34004KT 9999 FEW026 25/18 Q1017"}, "geometry": {"type": "Point", "coordinates": [1.337, 36.216]}}, {"type": "Feature", "properties": {"id": "UBBY", "site": "Zakataly Intl", "prior": "3", "obsTime": "2018-09-20T20:00:00Z", "temp": 20.0, "dewp": 15.0, "wspd": 4, "wdir": 100, "ceil": 45, "cover": "BKN", "visib": 6.21, "fltcat": "VFR", "altim": 1024.0, "rawOb": "UBBY 202000Z 10004KT 9999 FEW040CB BKN045 20/15 Q1024 R33/////// NOSIG RMK MT OP"}, "geometry": {"type": "Point", "coordinates": [46.666, 41.563]}}, {"type": "Feature", "properties": {"id": "DAUB", "site": "Biskra Arpt", "prior": "3", "obsTime": "2018-09-20T19:00:00Z", "temp": 31.0, "dewp": 17.0, "wspd": 4, "wdir": 270, "cover": "SCT", "visib": 6.21, "fltcat": "VFR", "altim": 1013.0, "rawOb": "DAUB 201900Z 27004KT 9999 FEW033CB SCT040 31/17 Q1013"}, "geometry": {"type": "Point", "coordinates": [5.736, 34.794]}}, {"type": "Feature", "properties": {"id": "DABS", "site": "Tebessi Arpt", "prior": "3", "obsTime": "2018-09-20T19:00:00Z", "temp": 19.0, "dewp": 17.0, "wspd": 2, "wdir": 180, "ceil": 33, "cover": "BKN", "visib": 6.21, "fltcat": "VFR", "altim": 1020.0, "rawOb": "DABS 201900Z 18002KT 9999 FEW030CB BKN033 19/17 Q1020 RETS"}, "geometry": {"type": "Point", "coordinates": [8.12, 35.43]}}, {"type": "Feature", "properties": {"id": "DTTZ", "site": "Tozeur/Nefta Arpt", "prior": "3", "obsTime": "2018-09-20T19:00:00Z", "temp": 28.0, "dewp": 17.0, "wspd": 14, "wdir": 60, "cover": "SCT", "visib": 4.35, "fltcat": "MVFR", "altim": 1014.0, "wx": "TS", "rawOb": "DTTZ 201900Z 06014KT 7000 TS FEW026CB SCT030 28/17 Q1014 NOSIG CB/WNW"}, "geometry": {"type": "Point", "coordinates": [8.105, 33.94]}}, {"type": "Feature", "properties": {"id": "UUBC", "site": "Ugryumovo/Kaluga Gra", "prior": "3", "obsTime": "2018-09-20T19:00:00Z", "temp": 11.0, "dewp": 10.0, "wspd": 4, "wdir": 280, "cover": "CLR", "visib": 6.21, "fltcat": "VFR", "altim": 1017.0, "rawOb": "UUBC 201900Z AUTO 28002MPS 9999 // NCD 11/10 Q1017 RMK QFE746/0995"}, "geometry": {"type": "Point", "coordinates": [36.369, 54.553]}}, {"type": "Feature", "properties": {"id": "OICI", "site": "Ilan Arpt", "prior": "3", "obsTime": "2018-09-20T19:00:00Z", "temp": 21.0, "dewp": -2.0, "wspd": 4, "wdir": 80, "cover": "CAVOK", "visib": 6.21, "fltcat": "VFR", "altim": 1019.0, "rawOb": "OICI 201900Z 08004KT CAVOK 21/M02 Q1019 A3011"}, "geometry": {"type": "Point", "coordinates": [46.404, 33.587]}}, {"type": "Feature", "properties": {"id": "DAAE", "site": "Bejaia Arpt", "prior": "3", "obsTime": "2018-09-20T19:00:00Z", "temp": 23.0, "dewp": 20.0, "wspd": 5, "wdir": 190, "cover": "FEW", "visib": 6.21, "fltcat": "VFR", "altim": 1017.0, "rawOb": "DAAE 201900Z 19005KT 9999 FEW020 23/20 Q1017"}, "geometry": {"type": "Point", "coordinates": [5.071, 36.713]}}, {"type": "Feature", "properties": {"id": "LPMR", "site": "Monte Real(AB)", "prior": "3", "obsTime": "2018-09-20T20:00:00Z", "temp": 18.0, "dewp": 17.0, "wspd": 6, "wdir": 350, "cover": "CAVOK", "visib": 6.21, "fltcat": "VFR", "altim": 1021.0, "rawOb": "LPMR 202000Z 35006KT CAVOK 18/17 Q1021"}, "geometry": {"type": "Point", "coordinates": [-8.888, 39.831]}}, {"type": "Feature", "properties": {"id": "DTTX", "site": "Sfax/Thyna Arpt", "prior": "3", "obsTime": "2018-09-20T19:00:00Z", "temp": 21.0, "dewp": 19.0, "wspd": 7, "wdir": 290, "cover": "SCT", "visib": 3.73, "fltcat": "MVFR", "altim": 1016.0, "wx": "TSRA", "rawOb": "DTTX 201900Z 29007KT 6000 TSRA SCT020 SCT023CB 21/19 Q1016"}, "geometry": {"type": "Point", "coordinates": [10.691, 34.717]}}, {"type": "Feature", "properties": {"id": "UMKK", "site": "Kaliningrad/Khrabrov", "prior": "3", "obsTime": "2018-09-20T19:30:00Z", "temp": 16.0, "dewp": 15.0, "wspd": 2, "wdir": 270, "cover": "CAVOK", "visib": 6.21, "fltcat": "VFR", "altim": 1016.0, "rawOb": "UMKK 201930Z 27001MPS CAVOK 16/15 Q1016 R24/CLRD60 NOSIG RMK QFE761/1014"}, "geometry": {"type": "Point", "coordinates": [20.592, 54.89]}}, {"type": "Feature", "properties": {"id": "ORSU", "site": "Sulaymaniyah Intl", "prior": "3", "obsTime": "2018-09-20T20:00:00Z", "temp": 20.0, "dewp": 2.0, "wspd": 2, "wdir": 0, "cover": "CAVOK", "visib": 6.21, "fltcat": "VFR", "altim": 1015.0, "rawOb": "ORSU 202000Z VRB02KT CAVOK 20/02 Q1015"}, "geometry": {"type": "Point", "coordinates": [45.319, 35.561]}}, {"type": "Feature", "properties": {"id": "DTMB", "site": "Habib Bourguiba Intl", "prior": "3", "obsTime": "2018-09-20T19:30:00Z", "temp": 22.0, "dewp": 21.0, "wspd": 3, "wdir": 230, "cover": "SCT", "visib": 3.11, "fltcat": "MVFR", "altim": 1016.0, "rawOb": "DTMB 201930Z 23003KT 5000 FEW020 SCT030 22/21 Q1016"}, "geometry": {"type": "Point", "coordinates": [10.756, 35.758]}}, {"type": "Feature", "properties": {"id": "OSLK", "site": "Latakia/Al Bassel In", "prior": "3", "obsTime": "2018-09-20T20:00:00Z", "temp": 25.0, "dewp": 20.0, "wspd": 8, "wdir": 130, "cover": "SCT", "visib": 6.21, "fltcat": "VFR", "altim": 1011.0, "rawOb": "OSLK 202000Z 13008KT 9999 SCT030 25/20 Q1011"}, "geometry": {"type": "Point", "coordinates": [35.948, 35.401]}}, {"type": "Feature", "properties": {"id": "LIPY", "site": "Falconara/Ancona Arp", "prior": "3", "obsTime": "2018-09-20T18:50:00Z", "temp": 23.0, "dewp": 20.0, "wspd": 2, "wdir": 0, "cover": "CAVOK", "visib": 6.21, "fltcat": "VFR", "altim": 1017.0, "rawOb": "LIPY 201850Z VRB02KT CAVOK 23/20 Q1017"}, "geometry": {"type": "Point", "coordinates": [13.363, 43.617]}}, {"type": "Feature", "properties": {"id": "LFSD", "site": "Dijon/Longvic(AFB)", "prior": "3", "obsTime": "2018-09-20T19:30:00Z", "temp": 22.0, "dewp": 13.0, "wspd": 3, "wdir": 230, "cover": "CAVOK", "visib": 6.21, "fltcat": "VFR", "altim": 1016.0, "rawOb": "LFSD 201930Z AUTO 23003KT CAVOK 22/13 Q1016"}, "geometry": {"type": "Point", "coordinates": [5.094, 47.27]}}, {"type": "Feature", "properties": {"id": "LFRH", "site": "Lorient/Bihoue Arpt", "prior": "3", "obsTime": "2018-09-20T19:30:00Z", "temp": 19.0, "dewp": 19.0, "wspd": 15, "wdir": 210, "ceil": 21, "cover": "BKN", "visib": 6.21, "fltcat": "MVFR", "altim": 1012.0, "rawOb": "LFRH 201930Z AUTO 21015KT 9999 FEW008 BKN021 BKN037 19/19 Q1012 BECMG 21015G25KT BKN009 BKN020"}, "geometry": {"type": "Point", "coordinates": [-3.44, 47.76]}}, {"type": "Feature", "properties": {"id": "LFRK", "site": "Caen/Carpiquet Arpt", "prior": "3", "obsTime": "2018-09-20T19:30:00Z", "temp": 20.0, "dewp": 13.0, "wspd": 15, "wdir": 200, "cover": "CAVOK", "visib": 6.21, "fltcat": "VFR", "altim": 1011.0, "rawOb": "LFRK 201930Z AUTO 20015KT CAVOK 20/13 Q1011 NOSIG"}, "geometry": {"type": "Point", "coordinates": [-0.454, 49.175]}}, {"type": "Feature", "properties": {"id": "LFAT", "site": "Le Touquet Arpt", "prior": "3", "obsTime": "2018-09-20T19:30:00Z", "temp": 20.0, "dewp": 16.0, "wspd": 3, "wdir": 240, "ceil": 44, "cover": "OVC", "visib": 6.21, "fltcat": "VFR", "altim": 1009.0, "rawOb": "LFAT 201930Z AUTO 24003KT 180V320 9999 FEW034/// OVC044/// 20/16 Q1009"}, "geometry": {"type": "Point", "coordinates": [1.624, 50.518]}}, {"type": "Feature", "properties": {"id": "UKLI", "site": "Ivano-Frankivsk Arpt", "prior": "3", "obsTime": "2018-09-20T19:38:00Z", "temp": 14.0, "dewp": 14.0, "wspd": 0, "wdir": 0, "cover": "CLR", "visib": 1.06, "fltcat": "IFR", "altim": 1020.0, "wx": "BR", "rawOb": "UKLI 201938Z 00000MPS 1700 BR NSC 14/14 Q1020 R10/090070 NOSIG"}, "geometry": {"type": "Point", "coordinates": [24.698, 48.888]}}, {"type": "Feature", "properties": {"id": "ULWC", "site": "Botovo/Cherepovets", "prior": "3", "obsTime": "2018-09-20T19:30:00Z", "temp": 14.0, "dewp": 12.0, "wspd": 6, "wdir": 240, "cover": "SCT", "visib": 6.21, "fltcat": "VFR", "altim": 1012.0, "rawOb": "ULWC 201930Z 24003MPS 9999 SCT040 14/12 Q1012 R03/010060 NOSIG RMK QFE749/0999"}, "geometry": {"type": "Point", "coordinates": [38.019, 59.281]}}, {"type": "Feature", "properties": {"id": "LEIB", "site": "Ibiza Arpt", "prior": "3", "obsTime": "2018-09-20T19:30:00Z", "temp": 23.0, "dewp": 20.0, "wspd": 4, "wdir": 330, "cover": "FEW", "visib": 6.21, "fltcat": "VFR", "altim": 1018.0, "rawOb": "LEIB 201930Z 33004KT 9999 FEW040 23/20 Q1018 NOSIG"}, "geometry": {"type": "Point", "coordinates": [1.373, 38.873]}}, {"type": "Feature", "properties": {"id": "LFAQ", "site": "Albert/Picardie Arpt", "prior": "3", "obsTime": "2018-09-20T19:30:00Z", "temp": 20.0, "dewp": 13.0, "wspd": 11, "wdir": 190, "cover": "CAVOK", "visib": 6.21, "fltcat": "VFR", "altim": 1011.0, "rawOb": "LFAQ 201930Z AUTO 19011KT CAVOK 20/13 Q1011"}, "geometry": {"type": "Point", "coordinates": [2.695, 49.971]}}, {"type": "Feature", "properties": {"id": "UKWW", "site": "Vinnitsa/Gavrishevka", "prior": "3", "obsTime": "2018-09-20T19:00:00Z", "temp": 20.0, "dewp": 12.0, "wspd": 2, "wdir": 0, "cover": "CAVOK", "visib": 6.21, "fltcat": "VFR", "altim": 1021.0, "rawOb": "UKWW 201900Z VRB01MPS CAVOK 20/12 Q1021 R31/0///65 NOSIG"}, "geometry": {"type": "Point", "coordinates": [28.614, 49.243]}}, {"type": "Feature", "properties": {"id": "EDVK", "site": "Kassel/Calden Arpt", "prior": "3", "obsTime": "2018-09-20T19:50:00Z", "temp": 22.0, "dewp": 10.0, "wspd": 7, "wdir": 170, "cover": "CAVOK", "visib": 6.21, "fltcat": "VFR", "altim": 1014.0, "rawOb": "EDVK 201950Z 17007KT CAVOK 22/10 Q1014"}, "geometry": {"type": "Point", "coordinates": [9.378, 51.409]}}, {"type": "Feature", "properties": {"id": "LICD", "site": "Lampedusa Isl Arpt", "prior": "3", "obsTime": "2018-09-20T18:50:00Z", "temp": 26.0, "dewp": 20.0, "wspd": 1, "wdir": 0, "cover": "CAVOK", "visib": 6.21, "fltcat": "VFR", "altim": 1016.0, "rawOb": "LICD 201850Z VRB01KT CAVOK 26/20 Q1016"}, "geometry": {"type": "Point", "coordinates": [12.62, 35.498]}}, {"type": "Feature", "properties": {"id": "LPHR", "site": "Horta Arpt", "prior": "3", "obsTime": "2018-09-20T19:30:00Z", "temp": 24.0, "dewp": 20.0, "wspd": 10, "wdir": 240, "cover": "SCT", "visib": 6.21, "fltcat": "VFR", "altim": 1019.0, "rawOb": "LPHR 201930Z 24010KT 9999 FEW016 SCT020 24/20 Q1019"}, "geometry": {"type": "Point", "coordinates": [-28.716, 38.52]}}, {"type": "Feature", "properties": {"id": "LEVD", "site": "Valladolid Arpt", "prior": "3", "obsTime": "2018-09-20T19:30:00Z", "temp": 23.0, "dewp": 9.0, "wspd": 6, "wdir": 290, "cover": "CAVOK", "visib": 6.21, "fltcat": "VFR", "altim": 1020.0, "rawOb": "LEVD 201930Z 29006KT CAVOK 23/09 Q1020"}, "geometry": {"type": "Point", "coordinates": [-4.851, 41.708]}}, {"type": "Feature", "properties": {"id": "LIMP", "site": "Parma Arpt", "prior": "3", "obsTime": "2018-09-20T18:50:00Z", "temp": 24.0, "dewp": 17.0, "wspd": 3, "wdir": 60, "cover": "CAVOK", "visib": 6.21, "fltcat": "VFR", "altim": 1017.0, "rawOb": "LIMP 201850Z 06003KT CAVOK 24/17 Q1017"}, "geometry": {"type": "Point", "coordinates": [10.295, 44.821]}}, {"type": "Feature", "properties": {"id": "URRP", "site": "Platov Intl", "prior": "3", "obsTime": "2018-09-20T19:30:00Z", "temp": 19.0, "dewp": 9.0, "wspd": 6, "wdir": 320, "cover": "CAVOK", "visib": 6.21, "fltcat": "VFR", "altim": 1018.0, "rawOb": "URRP 201930Z 32003MPS CAVOK 19/09 Q1018 R23/CLRD70 NOSIG RMK QFE756/1008"}, "geometry": {"type": "Point", "coordinates": [39.925, 47.494]}}, {"type": "Feature", "properties": {"id": "UUOK", "site": "Kursk/Muralevo(AB)", "prior": "3", "obsTime": "2018-09-20T19:30:00Z", "temp": 17.0, "dewp": 13.0, "wspd": 0, "wdir": 0, "cover": "CAVOK", "visib": 6.21, "fltcat": "VFR", "altim": 1019.0, "rawOb": "UUOK 201930Z 00000MPS CAVOK 17/13 Q1019 R30/////// NOSIG RMK QFE745/0994"}, "geometry": {"type": "Point", "coordinates": [36.296, 51.75]}}, {"type": "Feature", "properties": {"id": "EIWF", "site": "Waterford Arpt", "prior": "3", "obsTime": "2018-09-20T19:30:00Z", "temp": 8.0, "dewp": 8.0, "wspd": 16, "wgst": 28, "wdir": 360, "ceil": 9, "cover": "BKN", "visib": 1.49, "fltcat": "IFR", "altim": 995.0, "wx": "+DZ", "rawOb": "EIWF 201930Z 36016G28KT 320V030 2400 +DZ SCT005 BKN009 08/08 Q0995 R03/2/////"}, "geometry": {"type": "Point", "coordinates": [-7.087, 52.187]}}, {"type": "Feature", "properties": {"id": "LBPL", "site": "Dola Mitropoliya(AB)", "prior": "3", "obsTime": "2018-09-20T20:00:00Z", "temp": 16.0, "dewp": 4.0, "wspd": 0, "wdir": 0, "cover": "FEW", "visib": 6.21, "fltcat": "VFR", "altim": 1020.0, "rawOb": "LBPL 202000Z 00000KT 9999 FEW200 16/04 Q1020"}, "geometry": {"type": "Point", "coordinates": [24.503, 43.451]}}]}