{"type": "FeatureCollection", "features": [{"type": "Feature", "properties": {"id": "OITT", "site": "Tabriz Intl", "prior": "2", "obsTime": "2018-09-17T21:00:00Z", "temp": 20.0, "dewp": 10.0, "wspd": 12, "wdir": 100, "cover": "CAVOK", "visib": 6.21, "fltcat": "VFR", "altim": 1018.0, "rawOb": "OITT 172100Z 10012KT CAVOK 20/10 Q1018 A3007"}, "geometry": {"type": "Point", "coordinates": [46.24, 38.131]}}, {"type": "Feature", "properties": {"id": "OITR", "site": "Orumieh Arpt", "prior": "3", "obsTime": "2018-09-17T21:00:00Z", "temp": 13.0, "dewp": 6.0, "wspd": 4, "wdir": 230, "cover": "CAVOK", "visib": 6.21, "fltcat": "VFR", "altim": 1016.0, "rawOb": "OITR 172100Z 23004KT CAVOK 13/06 Q1016"}, "geometry": {"type": "Point", "coordinates": [45.067, 37.666]}}, {"type": "Feature", "properties": {"id": "UKBB", "site": "Borispil Arpt", "prior": "1", "obsTime": "2018-09-17T21:00:00Z", "temp": 9.0, "dewp": 8.0, "wspd": 4, "wdir": 240, "cover": "CAVOK", "visib": 6.21, "fltcat": "VFR", "altim": 1023.0, "rawOb": "UKBB 172100Z 24002MPS CAVOK 09/08 Q1023 R88/CLRD// NOSIG"}, "geometry": {"type": "Point", "coordinates": [30.893, 50.336]}}, {"type": "Feature", "properties": {"id": "UKLL", "site": "LViv/Halyfskyi Intl", "prior": "2", "obsTime": "2018-09-17T21:00:00Z", "temp": 12.0, "dewp": 10.0, "wspd": 2, "wdir": 0, "cover": "CAVOK", "visib": 6.21, "fltcat": "VFR", "altim": 1023.0, "rawOb": "UKLL 172100Z VRB01MPS CAVOK 12/10 Q1023 R13/CLRD// NOSIG"}, "geometry": {"type": "Point", "coordinates": [23.955, 49.811]}}, {"type": "Feature", "properties": {"id": "EPWA", "site": "Warsaw/Chopin Arpt", "prior": "1", "obsTime": "2018-09-17T21:00:00Z", "temp": 15.0, "dewp": 11.0, "wspd": 3, "wdir": 160, "cover": "CAVOK", "visib": 6.21, "fltcat": "VFR", "altim": 1021.0, "rawOb": "EPWA 172100Z 16003KT 100V200 CAVOK 15/11 Q1021 NOSIG"}, "geometry": {"type": "Point", "coordinates": [20.965, 52.168]}}, {"type": "Feature", "properties": {"id": "EDDS", "site": "Stuttgart Arpt", "prior": "3", "obsTime": "2018-09-17T20:50:00Z", "temp": 16.0, "dewp": 10.0, "wspd": 1, "wdir": 80, "cover": "CAVOK", "visib": 6.21, "fltcat": "VFR", "altim": 1018.0, "rawOb": "EDDS 172050Z 08001KT CAVOK 16/10 Q1018"}, "geometry": {"type": "Point", "coordinates": [9.22, 48.69]}}, {"type": "Feature", "properties": {"id": "EPRZ", "site": "Rzeszow/Jasionka Arp", "prior": "3", "obsTime": "2018-09-17T21:00:00Z", "temp": 13.0, "dewp": 12.0, "wspd": 2, "wdir": 0, "cover": "CAVOK", "visib": 6.21, "fltcat": "VFR", "altim": 1022.0, "rawOb": "EPRZ 172100Z VRB02KT CAVOK 13/12 Q1022"}, "geometry": {"type": "Point", "coordinates": [22.025, 50.11]}}, {"type": "Feature", "properties": {"id": "EPPO", "site": "Poznan/Lawica Arpt", "prior": "2", "obsTime": "2018-09-17T21:00:00Z", "temp": 13.0, "dewp": 9.0, "wspd": 2, "wdir": 130, "cover": "CAVOK", "visib": 6.21, "fltcat": "VFR", "altim": 1019.0, "rawOb": "EPPO 172100Z 13002KT CAVOK 13/09 Q1019"}, "geometry": {"type": "Point", "coordinates": [16.822, 52.422]}}, {"type": "Feature", "properties": {"id": "EPKK", "site": "Krakow/J Paul II Int", "prior": "2", "obsTime": "2018-09-17T21:00:00Z", "temp": 15.0, "dewp": 13.0, "wspd": 1, "wdir": 0, "cover": "CAVOK", "visib": 6.21, "fltcat": "VFR", "altim": 1022.0, "rawOb": "EPKK 172100Z VRB01KT CAVOK 15/13 Q1022"}, "geometry": {"type": "Point", "coordinates": [19.787, 50.078]}}, {"type": "Feature", "properties": {"id": "UKKK", "site": "Kiev/Zhuliany Arpt", "prior": "6", "obsTime": "2018-09-17T21:00:00Z", "temp": 9.0, "dewp": 8.0, "wspd": 2, "wdir": 250, "cover": "CLR", "visib": 6.21, "fltcat": "VFR", "altim": 1024.0, "rawOb": "UKKK 172100Z 25001MPS 9999 NSC 09/08 Q1024 R26/CLRD70 TEMPO 2000 FU"}, "geometry": {"type": "Point", "coordinates": [30.452, 50.402]}}, {"type": "Feature", "properties": {"id": "BIKF", "site": "Keflavik Arpt", "prior": "6", "obsTime": "2018-09-17T21:00:00Z", "temp": 9.0, "dewp": 5.0, "wspd": 4, "wdir": 90, "ceil": 55, "cover": "BKN", "visib": 6.21, "fltcat": "VFR", "altim": 993.0, "wx": "-SHRA", "rawOb": "BIKF 172100Z 09004KT 9999 -SHRA SCT030 BKN055 BKN075 09/05 Q0993"}, "geometry": {"type": "Point", "coordinates": [-22.607, 63.984]}}, {"type": "Feature", "properties": {"id": "EPGD", "site": "Gdansk/Walesa Arpt", "prior": "2", "obsTime": "2018-09-17T21:00:00Z", "temp": 12.0, "dewp": 9.0, "wspd": 2, "wdir": 0, "cover": "CAVOK", "visib": 6.21, "fltcat": "VFR", "altim": 1019.0, "rawOb": "EPGD 172100Z VRB02KT CAVOK 12/09 Q1019"}, "geometry": {"type": "Point", "coordinates": [18.47, 54.377]}}, {"type": "Feature", "properties": {"id": "UKOO", "site": "Odessa Intl", "prior": "2", "obsTime": "2018-09-17T21:00:00Z", "temp": 13.0, "dewp": 9.0, "wspd": 0, "wdir": 0, "cover": "CAVOK", "visib": 6.21, "fltcat": "VFR", "altim": 1024.0, "rawOb": "UKOO 172100Z 00000MPS CAVOK 13/09 Q1024 R34/090060 NOSIG"}, "geometry": {"type": "Point", "coordinates": [30.676, 46.426]}}, {"type": "Feature", "properties": {"id": "EPMO", "site": "Modlin Arpt", "prior": "5", "obsTime": "2018-09-17T21:00:00Z", "temp": 16.0, "dewp": 10.0, "wspd": 7, "wdir": 180, "cover": "CAVOK", "visib": 6.21, "fltcat": "VFR", "altim": 1021.0, "rawOb": "EPMO 172100Z 18007KT CAVOK 16/10 Q1021"}, "geometry": {"type": "Point", "coordinates": [20.652, 52.451]}}, {"type": "Feature", "properties": {"id": "EPLB", "site": "Lublin Arpt", "prior": "3", "obsTime": "2018-09-17T21:00:00Z", "temp": 13.0, "dewp": 11.0, "wspd": 1, "wdir": 0, "cover": "CAVOK", "visib": 6.21, "fltcat": "VFR", "altim": 1022.0, "rawOb": "EPLB 172100Z VRB01KT CAVOK 13/11 Q1022"}, "geometry": {"type": "Point", "coordinates": [22.714, 51.239]}}, {"type": "Feature", "properties": {"id": "EPKT", "site": "Katowice/Pyrzowice A", "prior": "4", "obsTime": "2018-09-17T21:00:00Z", "temp": 14.0, "dewp": 12.0, "wspd": 1, "wdir": 0, "cover": "CAVOK", "visib": 6.21, "fltcat": "VFR", "altim": 1021.0, "rawOb": "EPKT 172100Z VRB01KT CAVOK 14/12 Q1021"}, "geometry": {"type": "Point", "coordinates": [19.076, 50.474]}}, {"type": "Feature", "properties": {"id": "EPSC", "site": "Szczecin/Golenow Arp", "prior": "3", "obsTime": "2018-09-17T21:00:00Z", "temp": 15.0, "dewp": 9.0, "wspd": 5, "wdir": 110, "cover": "CAVOK", "visib": 6.21, "fltcat": "VFR", "altim": 1018.0, "rawOb": "EPSC 172100Z 11005KT CAVOK 15/09 Q1018"}, "geometry": {"type": "Point", "coordinates": [14.902, 53.584]}}, {"type": "Feature", "properties": {"id": "LUKK", "site": "Chishinau Arpt", "prior": "3", "obsTime": "2018-09-17T21:00:00Z", "temp": 12.0, "dewp": 10.0, "wspd": 0, "wdir": 0, "cover": "CAVOK", "visib": 6.21, "fltcat": "VFR", "altim": 1024.0, "rawOb": "LUKK 172100Z 00000KT CAVOK 12/10 Q1024 R09/CLRD// NOSIG"}, "geometry": {"type": "Point", "coordinates": [28.931, 46.928]}}, {"type": "Feature", "properties": {"id": "LDZA", "site": "Zagreb Arpt", "prior": "1", "obsTime": "2018-09-17T21:00:00Z", "temp": 18.0, "dewp": 13.0, "wspd": 2, "wdir": 0, "cover": "CAVOK", "visib": 6.21, "fltcat": "VFR", "altim": 1021.0, "rawOb": "LDZA 172100Z VRB02KT CAVOK 18/13 Q1021 NOSIG"}, "geometry": {"type": "Point", "coordinates": [16.064, 45.739]}}, {"type": "Feature", "properties": {"id": "LRTM", "site": "Targu Mures Arpt", "prior": "2", "obsTime": "2018-09-17T21:00:00Z", "temp": 12.0, "dewp": 10.0, "wspd": 4, "wdir": 90, "cover": "CLR", "visib": 0.68, "fltcat": "LIFR", "altim": 1024.0, "wx": "FG", "rawOb": "LRTM 172100Z AUTO 09004KT 1100 R07/1100V1600N FG NCD 12/10 Q1024"}, "geometry": {"type": "Point", "coordinates": [24.414, 46.468]}}, {"type": "Feature", "properties": {"id": "LDSP", "site": "Split Arpt", "prior": "2", "obsTime": "2018-09-17T21:00:00Z", "temp": 23.0, "dewp": 15.0, "wspd": 2, "wdir": 0, "cover": "CAVOK", "visib": 6.21, "fltcat": "VFR", "altim": 1019.0, "rawOb": "LDSP 172100Z VRB02KT CAVOK 23/15 Q1019 NOSIG"}, "geometry": {"type": "Point", "coordinates": [16.3, 43.54]}}, {"type": "Feature", "properties": {"id": "LDPL", "site": "Pula Arpt", "prior": "3", "obsTime": "2018-09-17T21:00:00Z", "temp": 19.0, "dewp": 16.0, "wspd": 3, "wdir": 60, "cover": "CAVOK", "visib": 6.21, "fltcat": "VFR", "altim": 1020.0, "rawOb": "LDPL 172100Z 06003KT 040V100 CAVOK 19/16 Q1020 NOSIG"}, "geometry": {"type": "Point", "coordinates": [13.921, 44.894]}}, {"type": "Feature", "properties": {"id": "LDOS", "site": "Osijek Arpt", "prior": "4", "obsTime": "2018-09-17T21:00:00Z", "temp": 15.0, "dewp": 12.0, "wspd": 7, "wdir": 70, "cover": "CAVOK", "visib": 6.21, "fltcat": "VFR", "altim": 1022.0, "rawOb": "LDOS 172100Z 07007KT CAVOK 15/12 Q1022"}, "geometry": {"type": "Point", "coordinates": [18.809, 45.463]}}, {"type": "Feature", "properties": {"id": "LDDU", "site": "Dubrovnik Arpt", "prior": "5", "obsTime": "2018-09-17T21:00:00Z", "temp": 22.0, "dewp": 16.0, "wspd": 6, "wdir": 290, "cover": "CAVOK", "visib": 6.21, "fltcat": "VFR", "altim": 1020.0, "rawOb": "LDDU 172100Z 29006KT 260V330 CAVOK 22/16 Q1020 NOSIG"}, "geometry": {"type": "Point", "coordinates": [18.265, 42.562]}}, {"type": "Feature", "properties": {"id": "LDZD", "site": "Zadar Arpt", "prior": "4", "obsTime": "2018-09-17T21:00:00Z", "temp": 17.0, "dewp": 16.0, "wspd": 0, "wdir": 0, "cover": "CAVOK", "visib": 6.21, "fltcat": "VFR", "altim": 1020.0, "rawOb": "LDZD 172100Z 00000KT CAVOK 17/16 Q1020 NOSIG"}, "geometry": {"type": "Point", "coordinates": [15.346, 44.107]}}, {"type": "Feature", "properties": {"id": "LROD", "site": "Oradea Intl", "prior": "3", "obsTime": "2018-09-17T21:00:00Z", "temp": 15.0, "dewp": 9.0, "wspd": 5, "wdir": 90, "cover": "CLR", "visib": 6.21, "fltcat": "VFR", "altim": 1023.0, "rawOb": "LROD 172100Z AUTO 09005KT 9999 NCD 15/09 Q1023"}, "geometry": {"type": "Point", "coordinates": [21.902, 47.025]}}, {"type": "Feature", "properties": {"id": "UUEE", "site": "Moscow/Sheremet Arpt", "prior": "0", "obsTime": "2018-09-17T21:00:00Z", "temp": 12.0, "dewp": 7.0, "wspd": 8, "wdir": 210, "cover": "CAVOK", "visib": 6.21, "fltcat": "VFR", "altim": 1015.0, "rawOb": "UUEE 172100Z 21004MPS CAVOK 12/07 Q1015 R24L/CLRD62 R24C/CLRD62 NOSIG"}, "geometry": {"type": "Point", "coordinates": [37.414, 55.973]}}, {"type": "Feature", "properties": {"id": "LRCL", "site": "Cluj-Napoca Intl", "prior": "4", "obsTime": "2018-09-17T21:00:00Z", "temp": 13.0, "dewp": 9.0, "wspd": 5, "wdir": 260, "cover": "CAVOK", "visib": 6.21, "fltcat": "VFR", "altim": 1024.0, "rawOb": "LRCL 172100Z 26005KT CAVOK 13/09 Q1024"}, "geometry": {"type": "Point", "coordinates": [23.686, 46.785]}}, {"type": "Feature", "properties": {"id": "LBWN", "site": "Varna Intl", "prior": "4", "obsTime": "2018-09-17T21:00:00Z", "temp": 17.0, "dewp": 12.0, "wspd": 1, "wdir": 0, "cover": "CAVOK", "visib": 6.21, "fltcat": "VFR", "altim": 1024.0, "rawOb": "LBWN 172100Z VRB01KT CAVOK 17/12 Q1024 NOSIG"}, "geometry": {"type": "Point", "coordinates": [27.825, 43.232]}}, {"type": "Feature", "properties": {"id": "ULLI", "site": "St Petersburg/Pulkov", "prior": "1", "obsTime": "2018-09-17T21:00:00Z", "temp": 13.0, "dewp": 12.0, "wspd": 14, "wdir": 260, "ceil": 43, "cover": "BKN", "visib": 6.21, "fltcat": "VFR", "altim": 1004.0, "rawOb": "ULLI 172100Z 26007MPS 9999 SCT026CB BKN043 13/12 Q1004 R28R/290050 NOSIG"}, "geometry": {"type": "Point", "coordinates": [30.263, 59.8]}}, {"type": "Feature", "properties": {"id": "LBSF", "site": "Sofia Arpt", "prior": "2", "obsTime": "2018-09-17T21:00:00Z", "temp": 15.0, "dewp": 12.0, "wspd": 9, "wdir": 100, "cover": "CAVOK", "visib": 6.21, "fltcat": "VFR", "altim": 1024.0, "rawOb": "LBSF 172100Z 10009KT CAVOK 15/12 Q1024 NOSIG"}, "geometry": {"type": "Point", "coordinates": [23.411, 42.697]}}, {"type": "Feature", "properties": {"id": "BIRK", "site": "Reykjavik Arpt", "prior": "0", "obsTime": "2018-09-17T21:00:00Z", "temp": 8.0, "dewp": 5.0, "wspd": 4, "wdir": 50, "cover": "SCT", "visib": 6.21, "fltcat": "VFR", "altim": 993.0, "rawOb": "BIRK 172100Z 05004KT 020V080 9999 FEW034CB SCT035 08/05 Q0993"}, "geometry": {"type": "Point", "coordinates": [-21.938, 64.129]}}, {"type": "Feature", "properties": {"id": "LBPD", "site": "Plovdiv", "prior": "3", "obsTime": "2018-09-17T21:00:00Z", "temp": 20.0, "dewp": 12.0, "wspd": 7, "wdir": 110, "ceil": 72, "cover": "OVC", "visib": 6.21, "fltcat": "VFR", "altim": 1023.0, "rawOb": "LBPD 172100Z AUTO 11007KT 9999 OVC072/// 20/12 Q1023"}, "geometry": {"type": "Point", "coordinates": [24.802, 42.134]}}, {"type": "Feature", "properties": {"id": "LFTW", "site": "Nimes/Garons Arpt", "prior": "5", "obsTime": "2018-09-17T21:00:00Z", "temp": 20.0, "dewp": 17.0, "wspd": 5, "wdir": 140, "cover": "CAVOK", "visib": 6.21, "fltcat": "VFR", "altim": 1019.0, "rawOb": "LFTW 172100Z AUTO 14005KT CAVOK 20/17 Q1019"}, "geometry": {"type": "Point", "coordinates": [4.416, 43.758]}}, {"type": "Feature", "properties": {"id": "UUWW", "site": "Moscow/Vnukovo Arpt", "prior": "5", "obsTime": "2018-09-17T21:00:00Z", "temp": 12.0, "dewp": 6.0, "wspd": 8, "wdir": 210, "cover": "CAVOK", "visib": 6.21, "fltcat": "VFR", "altim": 1016.0, "rawOb": "UUWW 172100Z 21004MPS CAVOK 12/06 Q1016 R24/000070 NOSIG"}, "geometry": {"type": "Point", "coordinates": [37.272, 55.598]}}, {"type": "Feature", "properties": {"id": "UKHH", "site": "Kharkiv Intl", "prior": "2", "obsTime": "2018-09-17T21:00:00Z", "temp": 11.0, "dewp": 4.0, "wspd": 4, "wdir": 310, "cover": "CAVOK", "visib": 6.21, "fltcat": "VFR", "altim": 1022.0, "rawOb": "UKHH 172100Z 31002MPS CAVOK 11/04 Q1022 R25/0///72 NOSIG"}, "geometry": {"type": "Point", "coordinates": [36.287, 49.925]}}, {"type": "Feature", "properties": {"id": "LFGJ", "site": "Dole/Tavaux Arpt", "prior": "5", "obsTime": "2018-09-17T21:00:00Z", "temp": 17.0, "dewp": 11.0, "wspd": 2, "wdir": 0, "cover": "CAVOK", "visib": 6.21, "fltcat": "VFR", "altim": 1016.0, "rawOb": "LFGJ 172100Z AUTO VRB02KT CAVOK 17/11 Q1016"}, "geometry": {"type": "Point", "coordinates": [5.43, 47.04]}}, {"type": "Feature", "properties": {"id": "LBBG", "site": "Burgas Arpt", "prior": "3", "obsTime": "2018-09-17T21:00:00Z", "temp": 17.0, "dewp": 13.0, "wspd": 8, "wdir": 50, "cover": "CAVOK", "visib": 6.21, "fltcat": "VFR", "altim": 1023.0, "rawOb": "LBBG 172100Z 05008KT CAVOK 17/13 Q1023 NOSIG"}, "geometry": {"type": "Point", "coordinates": [27.514, 42.569]}}, {"type": "Feature", "properties": {"id": "LHBP", "site": "Budapest/Liszt Intl", "prior": "2", "obsTime": "2018-09-17T21:00:00Z", "temp": 15.0, "dewp": 14.0, "wspd": 2, "wdir": 0, "cover": "CAVOK", "visib": 6.21, "fltcat": "VFR", "altim": 1023.0, "rawOb": "LHBP 172100Z VRB02KT CAVOK 15/14 Q1023 NOSIG"}, "geometry": {"type": "Point", "coordinates": [19.261, 47.436]}}, {"type": "Feature", "properties": {"id": "LRBS", "site": "Bucharest/Baneasa In", "prior": "1", "obsTime": "2018-09-17T21:00:00Z", "temp": 16.0, "dewp": 11.0, "wspd": 4, "wdir": 70, "cover": "CAVOK", "visib": 6.21, "fltcat": "VFR", "altim": 1024.0, "rawOb": "LRBS 172100Z 07004KT 030V090 CAVOK 16/11 Q1024 NOSIG"}, "geometry": {"type": "Point", "coordinates": [26.104, 44.504]}}, {"type": "Feature", "properties": {"id": "LFBA", "site": "Agen/La Garenne Arpt", "prior": "3", "obsTime": "2018-09-17T21:00:00Z", "temp": 22.0, "dewp": 18.0, "wspd": 4, "wdir": 130, "cover": "CAVOK", "visib": 6.21, "fltcat": "VFR", "altim": 1015.0, "rawOb": "LFBA 172100Z AUTO 13004KT 100V160 CAVOK 22/18 Q1015"}, "geometry": {"type": "Point", "coordinates": [0.593, 44.174]}}, {"type": "Feature", "properties": {"id": "LRTC", "site": "Tulcea Arpt", "prior": "5", "obsTime": "2018-09-17T21:00:00Z", "temp": 16.0, "dewp": 12.0, "wspd": 3, "wdir": 140, "cover": "CLR", "visib": 5.59, "fltcat": "VFR", "altim": 1024.0, "rawOb": "LRTC 172100Z AUTO 14003KT 100V200 9000 NCD 16/12 Q1024"}, "geometry": {"type": "Point", "coordinates": [28.714, 45.063]}}, {"type": "Feature", "properties": {"id": "GMFO", "site": "Oujda/Angads Arpt", "prior": "1", "obsTime": "2018-09-17T21:00:00Z", "temp": 22.0, "dewp": 15.0, "wspd": 8, "wdir": 160, "cover": "SCT", "visib": 6.21, "fltcat": "VFR", "altim": 1017.0, "rawOb": "GMFO 172100Z 16008KT 9999 FEW026 SCT130 22/15 Q1017 NOSIG"}, "geometry": {"type": "Point", "coordinates": [-1.93, 34.793]}}, {"type": "Feature", "properties": {"id": "LROP", "site": "Bucharest/Coanda Int", "prior": "6", "obsTime": "2018-09-17T21:00:00Z", "temp": 16.0, "dewp": 14.0, "wspd": 4, "wdir": 50, "cover": "FEW", "visib": 6.21, "fltcat": "VFR", "altim": 1024.0, "rawOb": "LROP 172100Z AUTO 05004KT 010V080 9999 FEW240/// 16/14 Q1024 NOSIG"}, "geometry": {"type": "Point", "coordinates": [26.1, 44.573]}}, {"type": "Feature", "properties": {"id": "LZIB", "site": "Bratislava/Ivanka Ar", "prior": "4", "obsTime": "2018-09-17T21:00:00Z", "temp": 17.0, "dewp": 14.0, "wspd": 4, "wdir": 20, "cover": "CAVOK", "visib": 6.21, "fltcat": "VFR", "altim": 1021.0, "rawOb": "LZIB 172100Z 02004KT CAVOK 17/14 Q1021"}, "geometry": {"type": "Point", "coordinates": [17.212, 48.171]}}, {"type": "Feature", "properties": {"id": "UKDE", "site": "Zaporizhia/Mokraya I", "prior": "5", "obsTime": "2018-09-17T21:00:00Z", "temp": 10.0, "dewp": 7.0, "wspd": 6, "wdir": 280, "cover": "CAVOK", "visib": 6.21, "fltcat": "VFR", "altim": 1023.0, "rawOb": "UKDE 172100Z 28003MPS CAVOK 10/07 Q1023 R02R/CLRD70 NOSIG"}, "geometry": {"type": "Point", "coordinates": [35.316, 47.868]}}, {"type": "Feature", "properties": {"id": "LRTR", "site": "Timisoara/Traian Vui", "prior": "3", "obsTime": "2018-09-17T21:00:00Z", "temp": 13.0, "dewp": 9.0, "wspd": 7, "wdir": 70, "cover": "CAVOK", "visib": 6.21, "fltcat": "VFR", "altim": 1022.0, "rawOb": "LRTR 172100Z 07007KT CAVOK 13/09 Q1022 NOSIG"}, "geometry": {"type": "Point", "coordinates": [21.336, 45.81]}}, {"type": "Feature", "properties": {"id": "EINN", "site": "Shannon Arpt", "prior": "3", "obsTime": "2018-09-17T21:00:00Z", "temp": 17.0, "dewp": 16.0, "wspd": 10, "wdir": 110, "ceil": 4, "cover": "BKN", "visib": 1.74, "fltcat": "LIFR", "altim": 994.0, "wx": "-RA -DZ", "rawOb": "EINN 172100Z 11010KT 2800 -RADZ FEW003 BKN004 BKN006 17/16 Q0994 NOSIG"}, "geometry": {"type": "Point", "coordinates": [-8.92, 52.702]}}, {"type": "Feature", "properties": {"id": "LKPR", "site": "Prague/Ruzyne Arpt", "prior": "2", "obsTime": "2018-09-17T21:00:00Z", "temp": 19.0, "dewp": 8.0, "wspd": 6, "wdir": 140, "cover": "CAVOK", "visib": 6.21, "fltcat": "VFR", "altim": 1020.0, "rawOb": "LKPR 172100Z 14006KT CAVOK 19/08 Q1020 NOSIG"}, "geometry": {"type": "Point", "coordinates": [14.259, 50.103]}}, {"type": "Feature", "properties": {"id": "LZTT", "site": "Poprad/Tatry Arpt", "prior": "3", "obsTime": "2018-09-17T21:00:00Z", "temp": 13.0, "dewp": 10.0, "wspd": 2, "wdir": 0, "cover": "CAVOK", "visib": 6.21, "fltcat": "VFR", "altim": 1024.0, "rawOb": "LZTT 172100Z VRB02KT CAVOK 13/10 Q1024"}, "geometry": {"type": "Point", "coordinates": [20.242, 49.074]}}, {"type": "Feature", "properties": {"id": "LKMT", "site": "Ostrava/Janacek Arpt", "prior": "3", "obsTime": "2018-09-17T21:00:00Z", "temp": 16.0, "dewp": 12.0, "wspd": 1, "wdir": 190, "cover": "CAVOK", "visib": 6.21, "fltcat": "VFR", "altim": 1022.0, "rawOb": "LKMT 172100Z 19001KT CAVOK 16/12 Q1022 NOSIG"}, "geometry": {"type": "Point", "coordinates": [18.111, 49.696]}}, {"type": "Feature", "properties": {"id": "UMMS", "site": "Minsk Arpt", "prior": "1", "obsTime": "2018-09-17T21:00:00Z", "temp": 12.0, "dewp": 9.0, "wspd": 6, "wdir": 230, "cover": "CAVOK", "visib": 6.21, "fltcat": "VFR", "altim": 1019.0, "rawOb": "UMMS 172100Z 23003MPS 200V260 CAVOK 12/09 Q1019 R31/CLRD// NOSIG"}, "geometry": {"type": "Point", "coordinates": [28.031, 53.883]}}, {"type": "Feature", "properties": {"id": "LZKZ", "site": "Kosice Intl", "prior": "4", "obsTime": "2018-09-17T21:00:00Z", "temp": 13.0, "dewp": 10.0, "wspd": 1, "wdir": 0, "cover": "CAVOK", "visib": 6.21, "fltcat": "VFR", "altim": 1023.0, "rawOb": "LZKZ 172100Z VRB01KT CAVOK 13/10 Q1023"}, "geometry": {"type": "Point", "coordinates": [21.242, 48.666]}}, {"type": "Feature", "properties": {"id": "UMGG", "site": "Gomel Arpt", "prior": "3", "obsTime": "2018-09-17T21:00:00Z", "temp": 12.0, "dewp": 7.0, "wspd": 8, "wdir": 220, "cover": "CAVOK", "visib": 6.21, "fltcat": "VFR", "altim": 1022.0, "rawOb": "UMGG 172100Z 22004MPS CAVOK 12/07 Q1022 R28/CLRD// NOSIG"}, "geometry": {"type": "Point", "coordinates": [31.016, 52.527]}}, {"type": "Feature", "properties": {"id": "LRCK", "site": "Constanta/Kogalnicea", "prior": "3", "obsTime": "2018-09-17T21:00:00Z", "temp": 16.0, "dewp": 11.0, "wspd": 3, "wdir": 70, "cover": "CAVOK", "visib": 6.21, "fltcat": "VFR", "altim": 1025.0, "rawOb": "LRCK 172100Z 07003KT CAVOK 16/11 Q1025 NOSIG"}, "geometry": {"type": "Point", "coordinates": [28.488, 44.361]}}, {"type": "Feature", "properties": {"id": "LFLC", "site": "Clermont-Ferrand/Aul", "prior": "2", "obsTime": "2018-09-17T21:00:00Z", "temp": 22.0, "dewp": 11.0, "wspd": 16, "wdir": 190, "cover": "CAVOK", "visib": 6.21, "fltcat": "VFR", "altim": 1016.0, "rawOb": "LFLC 172100Z AUTO 19016KT CAVOK 22/11 Q1016 TEMPO 18010G22KT FEW080TCU"}, "geometry": {"type": "Point", "coordinates": [3.169, 45.786]}}, {"type": "Feature", "properties": {"id": "LKTB", "site": "Brno/Turany Arpt", "prior": "3", "obsTime": "2018-09-17T21:00:00Z", "temp": 19.0, "dewp": 14.0, "wspd": 5, "wdir": 70, "cover": "CAVOK", "visib": 6.21, "fltcat": "VFR", "altim": 1021.0, "rawOb": "LKTB 172100Z 07005KT CAVOK 19/14 Q1021 NOSIG"}, "geometry": {"type": "Point", "coordinates": [16.691, 49.152]}}, {"type": "Feature", "properties": {"id": "LFBD", "site": "Bordeaux/Merignac Ar", "prior": "1", "obsTime": "2018-09-17T21:00:00Z", "temp": 22.0, "dewp": 15.0, "wspd": 2, "wdir": 150, "cover": "CAVOK", "visib": 6.21, "fltcat": "VFR", "altim": 1014.0, "rawOb": "LFBD 172100Z AUTO 15002KT CAVOK 22/15 Q1014 NOSIG"}, "geometry": {"type": "Point", "coordinates": [-0.715, 44.829]}}, {"type": "Feature", "properties": {"id": "LFPB", "site": "Paris/Le Bourge Arpt", "prior": "6", "obsTime": "2018-09-17T21:00:00Z", "temp": 18.0, "dewp": 9.0, "wspd": 3, "wdir": 90, "cover": "CAVOK", "visib": 6.21, "fltcat": "VFR", "altim": 1012.0, "rawOb": "LFPB 172100Z AUTO 09003KT CAVOK 18/09 Q1012 NOSIG"}, "geometry": {"type": "Point", "coordinates": [2.442, 48.969]}}, {"type": "Feature", "properties": {"id": "UWGG", "site": "Niznij Novgorod Intl", "prior": "1", "obsTime": "2018-09-17T21:00:00Z", "temp": 6.0, "dewp": 6.0, "wspd": 0, "wdir": 0, "cover": "CAVOK", "visib": 6.21, "fltcat": "VFR", "altim": 1015.0, "rawOb": "UWGG 172100Z 00000MPS CAVOK 06/06 Q1015 R36R/090070 NOSIG"}, "geometry": {"type": "Point", "coordinates": [43.785, 56.229]}}, {"type": "Feature", "properties": {"id": "LFRS", "site": "Nantes/Atlantique Ar", "prior": "3", "obsTime": "2018-09-17T21:00:00Z", "temp": 18.0, "dewp": 16.0, "wspd": 5, "wdir": 220, "ceil": 10, "cover": "BKN", "visib": 6.21, "fltcat": "MVFR", "altim": 1012.0, "rawOb": "LFRS 172100Z AUTO 22005KT 9999 BKN010 18/16 Q1012 NOSIG"}, "geometry": {"type": "Point", "coordinates": [-1.609, 47.155]}}, {"type": "Feature", "properties": {"id": "UUDD", "site": "Moscow/Domodedovo Ar", "prior": "5", "obsTime": "2018-09-17T21:00:00Z", "temp": 11.0, "dewp": 5.0, "wspd": 4, "wdir": 250, "cover": "CAVOK", "visib": 6.21, "fltcat": "VFR", "altim": 1016.0, "rawOb": "UUDD 172100Z 25002MPS 200V300 CAVOK 11/05 Q1016 R88/010095 NOSIG"}, "geometry": {"type": "Point", "coordinates": [37.906, 55.41]}}, {"type": "Feature", "properties": {"id": "LFBM", "site": "Mont-de-Marsan(AB)", "prior": "4", "obsTime": "2018-09-17T21:00:00Z", "temp": 23.0, "dewp": 18.0, "wspd": 3, "wdir": 110, "visib": 6.21, "altim": 1014.0, "rawOb": "LFBM 172100Z AUTO 11003KT 9999 ///TCU 23/18 Q1014 BECMG NSC"}, "geometry": {"type": "Point", "coordinates": [-0.503, 43.912]}}, {"type": "Feature", "properties": {"id": "LFLY", "site": "Lyon/Bron Arpt", "prior": "6", "obsTime": "2018-09-17T21:00:00Z", "temp": 24.0, "dewp": 14.0, "wspd": 12, "wdir": 180, "cover": "CAVOK", "visib": 6.21, "fltcat": "VFR", "altim": 1017.0, "rawOb": "LFLY 172100Z AUTO 18012KT CAVOK 24/14 Q1017 NOSIG"}, "geometry": {"type": "Point", "coordinates": [4.944, 45.728]}}, {"type": "Feature", "properties": {"id": "LFQQ", "site": "Lille/Lesquin Arpt", "prior": "4", "obsTime": "2018-09-17T21:00:00Z", "temp": 17.0, "dewp": 8.0, "wspd": 6, "wdir": 120, "cover": "CAVOK", "visib": 6.21, "fltcat": "VFR", "altim": 1012.0, "rawOb": "LFQQ 172100Z AUTO 12006KT CAVOK 17/08 Q1012 NOSIG"}, "geometry": {"type": "Point", "coordinates": [3.101, 50.565]}}, {"type": "Feature", "properties": {"id": "UGKO", "site": "Kopitnari/Kutaisi In", "prior": "3", "obsTime": "2018-09-17T21:00:00Z", "temp": 18.0, "dewp": 17.0, "wspd": 3, "wdir": 60, "ceil": 19, "cover": "OVC", "visib": 1.86, "fltcat": "IFR", "altim": 1019.0, "wx": "SHRA", "rawOb": "UGKO 172100Z 06003KT 020V090 3000 SHRA BKN019CB OVC039 18/17 Q1019 NOSIG"}, "geometry": {"type": "Point", "coordinates": [42.483, 42.177]}}, {"type": "Feature", "properties": {"id": "LFOE", "site": "Evreux/De LEure(AFB)", "prior": "5", "obsTime": "2018-09-17T21:00:00Z", "temp": 21.0, "dewp": 8.0, "wspd": 5, "wdir": 140, "cover": "CAVOK", "visib": 6.21, "fltcat": "VFR", "altim": 1012.0, "rawOb": "LFOE 172100Z AUTO 14005KT CAVOK 21/08 Q1012 NOSIG"}, "geometry": {"type": "Point", "coordinates": [1.219, 49.028]}}, {"type": "Feature", "properties": {"id": "LFBC", "site": "Cazaux Pond(AB)", "prior": "5", "obsTime": "2018-09-17T21:00:00Z", "temp": 21.0, "dewp": 15.0, "wspd": 1, "wdir": 250, "cover": "CAVOK", "visib": 6.21, "fltcat": "VFR", "altim": 1014.0, "rawOb": "LFBC 172100Z AUTO 25001KT CAVOK 21/15 Q1014"}, "geometry": {"type": "Point", "coordinates": [-1.126, 44.534]}}, {"type": "Feature", "properties": {"id": "LYBE", "site": "Belgrade/Tesla Arpt", "prior": "1", "obsTime": "2018-09-17T21:00:00Z", "temp": 17.0, "dewp": 12.0, "wspd": 7, "wdir": 100, "cover": "CAVOK", "visib": 6.21, "fltcat": "VFR", "altim": 1022.0, "rawOb": "LYBE 172100Z 10007KT CAVOK 17/12 Q1022 NOSIG"}, "geometry": {"type": "Point", "coordinates": [20.306, 44.82]}}, {"type": "Feature", "properties": {"id": "EPWR", "site": "Wroclaw/Strachowice", "prior": "3", "obsTime": "2018-09-17T21:00:00Z", "temp": 14.0, "dewp": 11.0, "wspd": 2, "wdir": 0, "cover": "CAVOK", "visib": 6.21, "fltcat": "VFR", "altim": 1020.0, "rawOb": "EPWR 172100Z VRB02KT CAVOK 14/11 Q1020"}, "geometry": {"type": "Point", "coordinates": [16.883, 51.104]}}, {"type": "Feature", "properties": {"id": "LFBO", "site": "Toulouse/Blagnac Arp", "prior": "3", "obsTime": "2018-09-17T21:00:00Z", "temp": 22.0, "dewp": 14.0, "wspd": 14, "wdir": 140, "cover": "CAVOK", "visib": 6.21, "fltcat": "VFR", "altim": 1016.0, "rawOb": "LFBO 172100Z AUTO 14014KT CAVOK 22/14 Q1016 NOSIG"}, "geometry": {"type": "Point", "coordinates": [1.362, 43.63]}}, {"type": "Feature", "properties": {"id": "URSS", "site": "Sochi Intl", "prior": "3", "obsTime": "2018-09-17T21:00:00Z", "temp": 17.0, "dewp": 15.0, "wspd": 8, "wdir": 50, "cover": "CLR", "visib": 6.21, "fltcat": "VFR", "altim": 1018.0, "rawOb": "URSS 172100Z 05004MPS 9999 NSC 17/15 Q1018 R02/090070 R06/090070 NOSIG RMK R06/07004MPS QFE762"}, "geometry": {"type": "Point", "coordinates": [39.944, 43.445]}}, {"type": "Feature", "properties": {"id": "LFBP", "site": "Pau/Uzein Arpt", "prior": "5", "obsTime": "2018-09-17T21:00:00Z", "temp": 22.0, "dewp": 14.0, "wspd": 3, "wdir": 100, "cover": "CAVOK", "visib": 6.21, "fltcat": "VFR", "altim": 1014.0, "rawOb": "LFBP 172100Z AUTO 10003KT CAVOK 22/14 Q1014 NOSIG"}, "geometry": {"type": "Point", "coordinates": [-0.419, 43.38]}}, {"type": "Feature", "properties": {"id": "EPLL", "site": "Lubinek Arpt", "prior": "3", "obsTime": "2018-09-17T21:00:00Z", "temp": 13.0, "dewp": 11.0, "wspd": 2, "wdir": 50, "cover": "CAVOK", "visib": 6.21, "fltcat": "VFR", "altim": 1021.0, "rawOb": "EPLL 172100Z 05002KT CAVOK 13/11 Q1021"}, "geometry": {"type": "Point", "coordinates": [19.393, 51.721]}}, {"type": "Feature", "properties": {"id": "UKDR", "site": "Lozuvatka/Rih Intl", "prior": "2", "obsTime": "2018-09-17T21:00:00Z", "temp": 11.0, "dewp": 3.0, "wspd": 0, "wdir": 0, "cover": "CAVOK", "visib": 6.21, "fltcat": "VFR", "altim": 1024.0, "rawOb": "UKDR 172100Z 00000MPS CAVOK 11/03 Q1024 R36/09//70 NOSIG"}, "geometry": {"type": "Point", "coordinates": [33.208, 48.045]}}, {"type": "Feature", "properties": {"id": "LKKV", "site": "Karlovy Vary Intl", "prior": "4", "obsTime": "2018-09-17T21:00:00Z", "temp": 13.0, "dewp": 9.0, "wspd": 4, "wdir": 120, "cover": "CAVOK", "visib": 6.21, "fltcat": "VFR", "altim": 1021.0, "rawOb": "LKKV 172100Z 12004KT CAVOK 13/09 Q1021"}, "geometry": {"type": "Point", "coordinates": [12.918, 50.203]}}, {"type": "Feature", "properties": {"id": "LHPR", "site": "Gyor-Per Intl", "prior": "5", "obsTime": "2018-09-17T20:45:00Z", "temp": 17.0, "dewp": 13.0, "wspd": 7, "wdir": 150, "cover": "CAVOK", "visib": 6.21, "fltcat": "VFR", "altim": 1021.0, "rawOb": "LHPR 172045Z AUTO 15007KT CAVOK 17/13 Q1021 RMK BLU"}, "geometry": {"type": "Point", "coordinates": [17.809, 47.627]}}, {"type": "Feature", "properties": {"id": "EIDW", "site": "Dublin Arpt", "prior": "1", "obsTime": "2018-09-17T21:00:00Z", "temp": 16.0, "dewp": 14.0, "wspd": 13, "wdir": 150, "ceil": 33, "cover": "BKN", "visib": 5.59, "fltcat": "VFR", "altim": 999.0, "wx": "-RA -DZ", "rawOb": "EIDW 172100Z 15013KT 110V170 9000 -RADZ FEW007 SCT018 BKN033 16/14 Q0999 WS RWY28 NOSIG"}, "geometry": {"type": "Point", "coordinates": [-6.254, 53.426]}}, {"type": "Feature", "properties": {"id": "EPBY", "site": "Bydgoszcz/Paderewski", "prior": "3", "obsTime": "2018-09-17T21:00:00Z", "temp": 12.0, "dewp": 8.0, "wspd": 1, "wdir": 0, "cover": "CAVOK", "visib": 6.21, "fltcat": "VFR", "altim": 1019.0, "rawOb": "EPBY 172100Z VRB01KT CAVOK 12/08 Q1019"}, "geometry": {"type": "Point", "coordinates": [17.978, 53.097]}}, {"type": "Feature", "properties": {"id": "LFSL", "site": "Brive/Souillac Arpt", "prior": "3", "obsTime": "2018-09-17T21:00:00Z", "temp": 23.0, "dewp": 14.0, "wspd": 6, "wdir": 150, "cover": "CAVOK", "visib": 6.21, "fltcat": "VFR", "altim": 1016.0, "rawOb": "LFSL 172100Z AUTO 15006KT CAVOK 23/14 Q1016"}, "geometry": {"type": "Point", "coordinates": [1.486, 45.042]}}, {"type": "Feature", "properties": {"id": "LFBE", "site": "Bergerac/Roumaniere", "prior": "4", "obsTime": "2018-09-17T21:00:00Z", "temp": 24.0, "dewp": 16.0, "wspd": 8, "wdir": 150, "cover": "CAVOK", "visib": 6.21, "fltcat": "VFR", "altim": 1014.0, "rawOb": "LFBE 172100Z AUTO 15008KT CAVOK 24/16 Q1014"}, "geometry": {"type": "Point", "coordinates": [0.52, 44.825]}}, {"type": "Feature", "properties": {"id": "LFOB", "site": "Beauvais/Tille Arpt", "prior": "4", "obsTime": "2018-09-17T21:00:00Z", "temp": 16.0, "dewp": 9.0, "wspd": 5, "wdir": 110, "cover": "CAVOK", "visib": 6.21, "fltcat": "VFR", "altim": 1012.0, "rawOb": "LFOB 172100Z AUTO 11005KT CAVOK 16/09 Q1012 NOSIG"}, "geometry": {"type": "Point", "coordinates": [2.114, 49.454]}}, {"type": "Feature", "properties": {"id": "LFOA", "site": "Avord(AFB)", "prior": "3", "obsTime": "2018-09-17T21:00:00Z", "temp": 22.0, "dewp": 8.0, "wspd": 4, "wdir": 140, "cover": "CAVOK", "visib": 6.21, "fltcat": "VFR", "altim": 1014.0, "rawOb": "LFOA 172100Z AUTO 14004KT CAVOK 22/08 Q1014"}, "geometry": {"type": "Point", "coordinates": [2.631, 47.055]}}, {"type": "Feature", "properties": {"id": "URKA", "site": "Anapa Arpt", "prior": "3", "obsTime": "2018-09-17T21:00:00Z", "temp": 9.0, "dewp": 8.0, "wspd": 2, "wdir": 140, "cover": "CAVOK", "visib": 6.21, "fltcat": "VFR", "altim": 1022.0, "rawOb": "URKA 172100Z 14001MPS CAVOK 09/08 Q1022 R04/010070 TEMPO 2000 BR SCT007 RMK QFE762/1017"}, "geometry": {"type": "Point", "coordinates": [37.347, 45.002]}}, {"type": "Feature", "properties": {"id": "LFQB", "site": "Troyes/Barberey Arpt", "prior": "4", "obsTime": "2018-09-17T21:00:00Z", "temp": 16.0, "dewp": 9.0, "wspd": 2, "wdir": 150, "cover": "CAVOK", "visib": 6.21, "fltcat": "VFR", "altim": 1014.0, "rawOb": "LFQB 172100Z AUTO 15002KT CAVOK 16/09 Q1014"}, "geometry": {"type": "Point", "coordinates": [4.015, 48.323]}}, {"type": "Feature", "properties": {"id": "LFBT", "site": "Tarbes/Ossun Arpt", "prior": "3", "obsTime": "2018-09-17T21:00:00Z", "temp": 20.0, "dewp": 13.0, "wspd": 3, "wdir": 20, "cover": "CAVOK", "visib": 6.21, "fltcat": "VFR", "altim": 1016.0, "rawOb": "LFBT 172100Z AUTO 02003KT CAVOK 20/13 Q1016 NOSIG"}, "geometry": {"type": "Point", "coordinates": [-0.005, 43.181]}}, {"type": "Feature", "properties": {"id": "LFOP", "site": "Rouen/Boos Arpt", "prior": "3", "obsTime": "2018-09-17T21:00:00Z", "temp": 17.0, "dewp": 9.0, "wspd": 6, "wdir": 140, "cover": "CAVOK", "visib": 6.21, "fltcat": "VFR", "altim": 1012.0, "rawOb": "LFOP 172100Z AUTO 14006KT CAVOK 17/09 Q1012"}, "geometry": {"type": "Point", "coordinates": [1.177, 49.386]}}, {"type": "Feature", "properties": {"id": "LFBI", "site": "Poitiers/Biard Arpt", "prior": "3", "obsTime": "2018-09-17T21:00:00Z", "temp": 20.0, "dewp": 14.0, "wspd": 4, "wdir": 210, "cover": "CAVOK", "visib": 6.21, "fltcat": "VFR", "altim": 1013.0, "rawOb": "LFBI 172100Z AUTO 21004KT CAVOK 20/14 Q1013 NOSIG"}, "geometry": {"type": "Point", "coordinates": [0.307, 46.587]}}, {"type": "Feature", "properties": {"id": "LFOJ", "site": "Orleans/Bricy(AFB)", "prior": "6", "obsTime": "2018-09-17T21:00:00Z", "temp": 22.0, "dewp": 9.0, "wspd": 6, "wdir": 140, "cover": "CAVOK", "visib": 6.21, "fltcat": "VFR", "altim": 1012.0, "rawOb": "LFOJ 172100Z AUTO 14006KT CAVOK 22/09 Q1012"}, "geometry": {"type": "Point", "coordinates": [1.76, 47.988]}}, {"type": "Feature", "properties": {"id": "LFSX", "site": "Luxeuil(AB)", "prior": "4", "obsTime": "2018-09-17T21:00:00Z", "temp": 18.0, "dewp": 12.0, "wspd": 2, "wdir": 90, "cover": "CAVOK", "visib": 6.21, "fltcat": "VFR", "altim": 1017.0, "rawOb": "LFSX 172100Z AUTO 09002KT CAVOK 18/12 Q1017 NOSIG"}, "geometry": {"type": "Point", "coordinates": [6.35, 47.79]}}, {"type": "Feature", "properties": {"id": "UBBG", "site": "Gyanca Intl", "prior": "4", "obsTime": "2018-09-17T21:00:00Z", "temp": 21.0, "dewp": 12.0, "wspd": 8, "wdir": 280, "cover": "SCT", "visib": 6.21, "fltcat": "VFR", "altim": 1017.0, "rawOb": "UBBG 172100Z 28008KT 9999 SCT100 21/12 Q1017 R30/CLRD// NOSIG"}, "geometry": {"type": "Point", "coordinates": [46.317, 40.741]}}, {"type": "Feature", "properties": {"id": "UKDD", "site": "Dnipropetrovsk Intl", "prior": "3", "obsTime": "2018-09-17T21:00:00Z", "temp": 11.0, "dewp": 6.0, "wspd": 4, "wdir": 320, "cover": "CAVOK", "visib": 6.21, "fltcat": "VFR", "altim": 1023.0, "rawOb": "UKDD 172100Z 32002MPS CAVOK 11/06 Q1023 R26/090070 NOSIG"}, "geometry": {"type": "Point", "coordinates": [35.098, 48.357]}}, {"type": "Feature", "properties": {"id": "LFRB", "site": "Brest/Guipavas Arpt", "prior": "1", "obsTime": "2018-09-17T21:00:00Z", "temp": 18.0, "dewp": 16.0, "wspd": 16, "wdir": 190, "ceil": 11, "cover": "OVC", "visib": 6.21, "fltcat": "MVFR", "altim": 1009.0, "rawOb": "LFRB 172100Z AUTO 19016KT 9999 OVC011 18/16 Q1009 NOSIG"}, "geometry": {"type": "Point", "coordinates": [-4.419, 48.447]}}, {"type": "Feature", "properties": {"id": "LQBK", "site": "Banja Luka Intl", "prior": "3", "obsTime": "2018-09-17T21:00:00Z", "temp": 14.0, "dewp": 13.0, "wspd": 0, "wdir": 0, "cover": "CAVOK", "visib": 6.21, "fltcat": "VFR", "altim": 1021.0, "rawOb": "LQBK 172100Z 00000KT CAVOK 14/13 Q1021 NOSIG"}, "geometry": {"type": "Point", "coordinates": [17.299, 44.94]}}, {"type": "Feature", "properties": {"id": "LFMY", "site": "Salon de Provence(MI", "prior": "6", "obsTime": "2018-09-17T21:00:00Z", "temp": 22.0, "dewp": 19.0, "wspd": 1, "wdir": 0, "ceil": 24, "cover": "OVC", "visib": 6.21, "fltcat": "MVFR", "altim": 1019.0, "rawOb": "LFMY 172100Z AUTO VRB01KT 9999 SCT018 BKN024 OVC031 22/19 Q1019"}, "geometry": {"type": "Point", "coordinates": [5.109, 43.607]}}, {"type": "Feature", "properties": {"id": "LFPG", "site": "Paris/De Gaulle Arpt", "prior": "5", "obsTime": "2018-09-17T21:00:00Z", "temp": 23.0, "dewp": 8.0, "wspd": 9, "wdir": 130, "cover": "CAVOK", "visib": 6.21, "fltcat": "VFR", "altim": 1013.0, "rawOb": "LFPG 172100Z 13009KT CAVOK 23/08 Q1013 NOSIG"}, "geometry": {"type": "Point", "coordinates": [2.542, 49.023]}}, {"type": "Feature", "properties": {"id": "LEMO", "site": "Moron(AB)", "prior": "5", "obsTime": "2018-09-17T21:00:00Z", "temp": 25.0, "dewp": 20.0, "wspd": 6, "wdir": 210, "cover": "FEW", "visib": 6.21, "fltcat": "VFR", "altim": 1015.0, "rawOb": "LEMO 172100Z 21006KT 170V240 9999 FEW061 25/20 Q1015 NOSIG"}, "geometry": {"type": "Point", "coordinates": [-5.616, 37.175]}}, {"type": "Feature", "properties": {"id": "LFMT", "site": "Montpelier/Mediterra", "prior": "3", "obsTime": "2018-09-17T21:00:00Z", "temp": 21.0, "dewp": 19.0, "wspd": 3, "wdir": 150, "cover": "CAVOK", "visib": 6.21, "fltcat": "VFR", "altim": 1019.0, "rawOb": "LFMT 172100Z AUTO 15003KT 120V190 CAVOK 21/19 Q1019 BECMG BKN007"}, "geometry": {"type": "Point", "coordinates": [3.967, 43.58]}}, {"type": "Feature", "properties": {"id": "LFML", "site": "Marseille Arpt", "prior": "2", "obsTime": "2018-09-17T21:00:00Z", "temp": 22.0, "dewp": 19.0, "wspd": 4, "wdir": 100, "cover": "FEW", "visib": 6.21, "fltcat": "VFR", "altim": 1019.0, "rawOb": "LFML 172100Z AUTO 10004KT 070V130 9999 FEW009 22/19 Q1019 TEMPO BKN014"}, "geometry": {"type": "Point", "coordinates": [5.214, 43.438]}}, {"type": "Feature", "properties": {"id": "LFOH", "site": "Le Havre/Octeville A", "prior": "4", "obsTime": "2018-09-17T21:00:00Z", "temp": 23.0, "dewp": 10.0, "wspd": 8, "wdir": 130, "cover": "CAVOK", "visib": 6.21, "fltcat": "VFR", "altim": 1010.0, "rawOb": "LFOH 172100Z AUTO 13008KT CAVOK 23/10 Q1010"}, "geometry": {"type": "Point", "coordinates": [0.089, 49.535]}}, {"type": "Feature", "properties": {"id": "GMFF", "site": "Fes/Saiss Arpt", "prior": "3", "obsTime": "2018-09-17T21:00:00Z", "temp": 24.0, "dewp": 19.0, "wspd": 6, "wdir": 180, "cover": "CAVOK", "visib": 6.21, "fltcat": "VFR", "altim": 1017.0, "rawOb": "GMFF 172100Z 18006KT CAVOK 24/19 Q1017 NOSIG"}, "geometry": {"type": "Point", "coordinates": [-4.981, 33.927]}}, {"type": "Feature", "properties": {"id": "URWW", "site": "Volgograd Intl", "prior": "1", "obsTime": "2018-09-17T21:00:00Z", "temp": 12.0, "dewp": 11.0, "wspd": 23, "wdir": 320, "ceil": 7, "cover": "OVC", "visib": 6.21, "fltcat": "IFR", "altim": 1010.0, "rawOb": "URWW 172100Z 32012MPS 9999 BKN007 OVC021CB 12/11 Q1010 R24/290060 NOSIG RMK OBST OBSC"}, "geometry": {"type": "Point", "coordinates": [44.343, 48.784]}}, {"type": "Feature", "properties": {"id": "URMT", "site": "Stavropol/Shpakovsko", "prior": "3", "obsTime": "2018-09-17T21:00:00Z", "temp": 12.0, "dewp": 5.0, "wspd": 12, "wdir": 300, "cover": "CAVOK", "visib": 6.21, "fltcat": "VFR", "altim": 1020.0, "rawOb": "URMT 172100Z 30006MPS CAVOK 12/05 Q1020 R25/010070 NOSIG RMK QFE726"}, "geometry": {"type": "Point", "coordinates": [42.109, 45.108]}}, {"type": "Feature", "properties": {"id": "LFKS", "site": "Solenzara(AFB)", "prior": "5", "obsTime": "2018-09-17T21:00:00Z", "temp": 20.0, "dewp": 18.0, "wspd": 5, "wdir": 270, "cover": "CAVOK", "visib": 6.21, "fltcat": "VFR", "altim": 1019.0, "rawOb": "LFKS 172100Z AUTO 27005KT CAVOK 20/18 Q1019"}, "geometry": {"type": "Point", "coordinates": [9.405, 41.923]}}, {"type": "Feature", "properties": {"id": "UWSS", "site": "Saratov/Tsentralny A", "prior": "2", "obsTime": "2018-09-17T21:00:00Z", "temp": 13.0, "dewp": 13.0, "wspd": 10, "wgst": 19, "wdir": 340, "ceil": 20, "cover": "OVC", "visib": 6.21, "fltcat": "MVFR", "altim": 1008.0, "rawOb": "UWSS 172100Z 34005G10MPS 9999 BKN020 OVC050CB 13/13 Q1008 R12/290355 NOSIG RMK QFE744"}, "geometry": {"type": "Point", "coordinates": [46.044, 51.566]}}, {"type": "Feature", "properties": {"id": "LFRN", "site": "Rennes/St Jacques Ar", "prior": "2", "obsTime": "2018-09-17T21:00:00Z", "temp": 19.0, "dewp": 16.0, "wspd": 8, "wdir": 200, "ceil": 14, "cover": "OVC", "visib": 6.21, "fltcat": "MVFR", "altim": 1011.0, "rawOb": "LFRN 172100Z AUTO 20008KT 9999 OVC014 19/16 Q1011 TEMPO BKN008"}, "geometry": {"type": "Point", "coordinates": [-1.729, 48.072]}}, {"type": "Feature", "properties": {"id": "LFMO", "site": "Orange/Caritat(AB)", "prior": "6", "obsTime": "2018-09-17T21:00:00Z", "temp": 21.0, "dewp": 17.0, "wspd": 3, "wdir": 140, "ceil": 42, "cover": "BKN", "visib": 6.21, "fltcat": "VFR", "altim": 1019.0, "rawOb": "LFMO 172100Z AUTO 14003KT 9999 BKN042 BKN060 21/17 Q1019 NOSIG"}, "geometry": {"type": "Point", "coordinates": [4.867, 44.141]}}, {"type": "Feature", "properties": {"id": "LFSO", "site": "Nancy/Ochey(AFB)", "prior": "6", "obsTime": "2018-09-17T21:00:00Z", "temp": 19.0, "dewp": 11.0, "wspd": 7, "wdir": 140, "cover": "CAVOK", "visib": 6.21, "fltcat": "VFR", "altim": 1016.0, "rawOb": "LFSO 172100Z AUTO 14007KT CAVOK 19/11 Q1016"}, "geometry": {"type": "Point", "coordinates": [5.955, 48.584]}}, {"type": "Feature", "properties": {"id": "LMML", "site": "Malta Intl Arpt", "prior": "1", "obsTime": "2018-09-17T20:45:00Z", "temp": 24.0, "dewp": 21.0, "wspd": 3, "wdir": 130, "cover": "FEW", "visib": 6.21, "fltcat": "VFR", "altim": 1020.0, "rawOb": "LMML 172045Z 13003KT 9999 FEW021 24/21 Q1020 NOSIG"}, "geometry": {"type": "Point", "coordinates": [14.489, 35.848]}}, {"type": "Feature", "properties": {"id": "LPPT", "site": "Lisbon Arpt", "prior": "1", "obsTime": "2018-09-17T21:00:00Z", "temp": 20.0, "dewp": 14.0, "wspd": 5, "wdir": 320, "cover": "CAVOK", "visib": 6.21, "fltcat": "VFR", "altim": 1016.0, "rawOb": "LPPT 172100Z 32005KT CAVOK 20/14 Q1016"}, "geometry": {"type": "Point", "coordinates": [-9.136, 38.781]}}, {"type": "Feature", "properties": {"id": "LFBL", "site": "Limoges/Bellegarde A", "prior": "3", "obsTime": "2018-09-17T21:00:00Z", "temp": 23.0, "dewp": 13.0, "wspd": 1, "wdir": 150, "cover": "CAVOK", "visib": 6.21, "fltcat": "VFR", "altim": 1016.0, "rawOb": "LFBL 172100Z AUTO 15001KT CAVOK 23/13 Q1016 TEMPO 12015G30KT -TSRA SCT035CB BKN060"}, "geometry": {"type": "Point", "coordinates": [1.182, 45.862]}}, {"type": "Feature", "properties": {"id": "LCLK", "site": "Larnaca Intl", "prior": "2", "obsTime": "2018-09-17T21:00:00Z", "temp": 25.0, "dewp": 12.0, "wspd": 3, "wdir": 350, "cover": "CAVOK", "visib": 6.21, "fltcat": "VFR", "altim": 1009.0, "rawOb": "LCLK 172100Z 35003KT 300V010 CAVOK 25/12 Q1009 NOSIG"}, "geometry": {"type": "Point", "coordinates": [33.626, 34.875]}}, {"type": "Feature", "properties": {"id": "LFRO", "site": "Lannion/Servel Arpt", "prior": "5", "obsTime": "2018-09-17T21:00:00Z", "temp": 19.0, "dewp": 15.0, "wspd": 10, "wdir": 180, "ceil": 20, "cover": "BKN", "visib": 6.21, "fltcat": "MVFR", "altim": 1009.0, "rawOb": "LFRO 172100Z AUTO 18010KT 9999 BKN020 19/15 Q1009"}, "geometry": {"type": "Point", "coordinates": [-3.472, 48.755]}}, {"type": "Feature", "properties": {"id": "URKK", "site": "Krasnodar Arpt", "prior": "2", "obsTime": "2018-09-17T21:00:00Z", "temp": 12.0, "dewp": 10.0, "wspd": 6, "wdir": 220, "cover": "CAVOK", "visib": 6.21, "fltcat": "VFR", "altim": 1021.0, "rawOb": "URKK 172100Z 22003MPS CAVOK 12/10 Q1021 R23L/CLRD70 TEMPO 2000 BR SCT007 RMK QFE763"}, "geometry": {"type": "Point", "coordinates": [39.158, 45.035]}}, {"type": "Feature", "properties": {"id": "LHKE", "site": "Kecskemet(AB)", "prior": "4", "obsTime": "2018-09-17T20:45:00Z", "temp": 14.0, "dewp": 12.0, "wspd": 0, "wdir": 0, "cover": "CAVOK", "visib": 6.21, "fltcat": "VFR", "altim": 1023.0, "rawOb": "LHKE 172045Z 00000KT CAVOK 14/12 Q1023 NOSIG RMK BLU"}, "geometry": {"type": "Point", "coordinates": [19.749, 46.917]}}, {"type": "Feature", "properties": {"id": "LRIA", "site": "Iasi Intl", "prior": "4", "obsTime": "2018-09-17T21:00:00Z", "temp": 15.0, "dewp": 7.0, "wspd": 4, "wdir": 90, "cover": "CAVOK", "visib": 6.21, "fltcat": "VFR", "altim": 1024.0, "rawOb": "LRIA 172100Z 09004KT CAVOK 15/07 Q1024"}, "geometry": {"type": "Point", "coordinates": [27.622, 47.177]}}, {"type": "Feature", "properties": {"id": "LBGO", "site": "Gorna Orechovista Ar", "prior": "3", "obsTime": "2018-09-17T21:00:00Z", "temp": 15.0, "dewp": 14.0, "wspd": 6, "wdir": 90, "cover": "CLR", "visib": 6.21, "fltcat": "VFR", "altim": 1023.0, "rawOb": "LBGO 172100Z AUTO 09006KT 9999 NCD 15/14 Q1023"}, "geometry": {"type": "Point", "coordinates": [25.716, 43.151]}}, {"type": "Feature", "properties": {"id": "LPFR", "site": "Faro Arpt", "prior": "3", "obsTime": "2018-09-17T21:00:00Z", "temp": 25.0, "dewp": 21.0, "wspd": 4, "wdir": 290, "cover": "CAVOK", "visib": 6.21, "fltcat": "VFR", "altim": 1014.0, "rawOb": "LPFR 172100Z 29004KT CAVOK 25/21 Q1014"}, "geometry": {"type": "Point", "coordinates": [-7.973, 37.015]}}, {"type": "Feature", "properties": {"id": "URWI", "site": "Elista Arpt", "prior": "2", "obsTime": "2018-09-17T21:00:00Z", "temp": 12.0, "dewp": 8.0, "wspd": 16, "wdir": 280, "visib": 6.21, "altim": 1016.0, "rawOb": "URWI 172100Z AUTO 28008MPS 9999 // ///022/// 12/08 Q1016"}, "geometry": {"type": "Point", "coordinates": [44.329, 46.374]}}, {"type": "Feature", "properties": {"id": "LFRD", "site": "Dinard/Pleurtuit Arp", "prior": "5", "obsTime": "2018-09-17T21:00:00Z", "temp": 18.0, "dewp": 15.0, "wspd": 11, "wdir": 200, "cover": "CAVOK", "visib": 6.21, "fltcat": "VFR", "altim": 1010.0, "rawOb": "LFRD 172100Z AUTO 20011KT CAVOK 18/15 Q1010 TEMPO BKN008"}, "geometry": {"type": "Point", "coordinates": [-2.08, 48.587]}}, {"type": "Feature", "properties": {"id": "LFLX", "site": "Chateauroux/Dessault", "prior": "4", "obsTime": "2018-09-17T21:00:00Z", "temp": 21.0, "dewp": 12.0, "wspd": 2, "wdir": 160, "cover": "CAVOK", "visib": 6.21, "fltcat": "VFR", "altim": 1014.0, "rawOb": "LFLX 172100Z AUTO 16002KT CAVOK 21/12 Q1014 NOSIG"}, "geometry": {"type": "Point", "coordinates": [1.728, 46.862]}}, {"type": "Feature", "properties": {"id": "LFKC", "site": "Calvi/St Catherine A", "prior": "4", "obsTime": "2018-09-17T21:00:00Z", "temp": 21.0, "dewp": 19.0, "wspd": 3, "wdir": 0, "ceil": 84, "cover": "BKN", "visib": 6.21, "fltcat": "VFR", "altim": 1019.0, "rawOb": "LFKC 172100Z AUTO VRB03KT 9999 FEW064 BKN084 21/19 Q1019"}, "geometry": {"type": "Point", "coordinates": [8.793, 42.53]}}, {"type": "Feature", "properties": {"id": "UGSB", "site": "Batumi Intl", "prior": "4", "obsTime": "2018-09-17T21:00:00Z", "temp": 19.0, "dewp": 17.0, "wspd": 7, "wdir": 130, "ceil": 69, "cover": "BKN", "visib": 6.21, "fltcat": "VFR", "altim": 1019.0, "rawOb": "UGSB 172100Z 13007KT 090V160 9999 FEW026CB BKN069 19/17 Q1019 R13/2///55 NOSIG"}, "geometry": {"type": "Point", "coordinates": [41.603, 41.607]}}, {"type": "Feature", "properties": {"id": "LRAR", "site": "Arad Intl", "prior": "6", "obsTime": "2018-09-17T21:00:00Z", "temp": 14.0, "dewp": 9.0, "wspd": 1, "wdir": 140, "cover": "CLR", "visib": 6.21, "fltcat": "VFR", "altim": 1023.0, "rawOb": "LRAR 172100Z AUTO 14001KT 9999 NCD 14/09 Q1023"}, "geometry": {"type": "Point", "coordinates": [21.262, 46.176]}}, {"type": "Feature", "properties": {"id": "LFPV", "site": "Villacoublay(AB)", "prior": "6", "obsTime": "2018-09-17T21:00:00Z", "temp": 23.0, "dewp": 8.0, "wspd": 4, "wdir": 130, "cover": "CAVOK", "visib": 6.21, "fltcat": "VFR", "altim": 1013.0, "rawOb": "LFPV 172100Z AUTO 13004KT CAVOK 23/08 Q1013 NOSIG"}, "geometry": {"type": "Point", "coordinates": [2.204, 48.774]}}, {"type": "Feature", "properties": {"id": "LFST", "site": "Strasbourg/Entzheim", "prior": "3", "obsTime": "2018-09-17T21:00:00Z", "temp": 16.0, "dewp": 12.0, "wspd": 4, "wdir": 250, "cover": "CAVOK", "visib": 6.21, "fltcat": "VFR", "altim": 1016.0, "rawOb": "LFST 172100Z AUTO 25004KT CAVOK 16/12 Q1016 NOSIG"}, "geometry": {"type": "Point", "coordinates": [7.629, 48.539]}}, {"type": "Feature", "properties": {"id": "LFRZ", "site": "St Nazaire/Montoir A", "prior": "5", "obsTime": "2018-09-17T21:00:00Z", "temp": 20.0, "dewp": 18.0, "wspd": 9, "wdir": 220, "ceil": 13, "cover": "OVC", "visib": 6.21, "fltcat": "MVFR", "altim": 1012.0, "rawOb": "LFRZ 172100Z AUTO 22009KT 9999 OVC013 20/18 Q1012 TEMPO BKN008"}, "geometry": {"type": "Point", "coordinates": [-2.15, 47.312]}}, {"type": "Feature", "properties": {"id": "LPPR", "site": "Porto/Cameriro Arpt", "prior": "2", "obsTime": "2018-09-17T21:00:00Z", "temp": 16.0, "dewp": 16.0, "wspd": 6, "wdir": 330, "ceil": 2, "cover": "OVC", "visib": 0.75, "fltcat": "LIFR", "altim": 1016.0, "wx": "BR BCFG", "rawOb": "LPPR 172100Z 33006KT 1200 R17/1300N BR BCFG OVC002 16/16 Q1016"}, "geometry": {"type": "Point", "coordinates": [-8.68, 41.244]}}, {"type": "Feature", "properties": {"id": "LCPH", "site": "Paphos Intl", "prior": "3", "obsTime": "2018-09-17T21:00:00Z", "temp": 23.0, "dewp": 15.0, "wspd": 0, "wdir": 0, "cover": "CAVOK", "visib": 6.21, "fltcat": "VFR", "altim": 1009.0, "rawOb": "LCPH 172100Z 00000KT CAVOK 23/15 Q1009"}, "geometry": {"type": "Point", "coordinates": [32.486, 34.718]}}, {"type": "Feature", "properties": {"id": "LFJL", "site": "Metz/Lorraine Arpt", "prior": "5", "obsTime": "2018-09-17T21:00:00Z", "temp": 18.0, "dewp": 12.0, "wspd": 11, "wdir": 120, "cover": "CAVOK", "visib": 6.21, "fltcat": "VFR", "altim": 1016.0, "rawOb": "LFJL 172100Z AUTO 12011KT CAVOK 18/12 Q1016 NOSIG"}, "geometry": {"type": "Point", "coordinates": [6.25, 48.98]}}, {"type": "Feature", "properties": {"id": "LPMA", "site": "Madeira Arpt", "prior": "5", "obsTime": "2018-09-17T21:00:00Z", "temp": 22.0, "dewp": 15.0, "wspd": 4, "wdir": 340, "cover": "FEW", "visib": 6.21, "fltcat": "VFR", "altim": 1018.0, "rawOb": "LPMA 172100Z 34004KT 310V010 9999 FEW016 22/15 Q1018"}, "geometry": {"type": "Point", "coordinates": [-16.775, 32.698]}}, {"type": "Feature", "properties": {"id": "LFRL", "site": "Lanveoc/Poulmic Arpt", "prior": "6", "obsTime": "2018-09-17T21:00:00Z", "temp": 18.0, "dewp": 16.0, "wspd": 13, "wdir": 190, "ceil": 19, "cover": "OVC", "visib": 6.21, "fltcat": "MVFR", "altim": 1009.0, "rawOb": "LFRL 172100Z AUTO 19013KT 9999 SCT011 BKN019 OVC024 18/16 Q1009"}, "geometry": {"type": "Point", "coordinates": [-4.445, 48.282]}}, {"type": "Feature", "properties": {"id": "LRBC", "site": "Bacau Intl", "prior": "3", "obsTime": "2018-09-17T21:00:00Z", "temp": 13.0, "dewp": 11.0, "wspd": 0, "wdir": 0, "cover": "CAVOK", "visib": 6.21, "fltcat": "VFR", "altim": 1024.0, "rawOb": "LRBC 172100Z 00000KT CAVOK 13/11 Q1024"}, "geometry": {"type": "Point", "coordinates": [26.91, 46.522]}}, {"type": "Feature", "properties": {"id": "LRSV", "site": "Suceava/Salcea Arpt", "prior": "0", "obsTime": "2018-09-17T21:00:00Z", "temp": 13.0, "dewp": 9.0, "wspd": 4, "wdir": 220, "cover": "CAVOK", "visib": 6.21, "fltcat": "VFR", "altim": 1024.0, "rawOb": "LRSV 172100Z 22004KT CAVOK 13/09 Q1024"}, "geometry": {"type": "Point", "coordinates": [26.354, 47.687]}}, {"type": "Feature", "properties": {"id": "LFSI", "site": "St Dizier(AB)", "prior": "5", "obsTime": "2018-09-17T21:00:00Z", "temp": 18.0, "dewp": 11.0, "wspd": 5, "wdir": 80, "cover": "CAVOK", "visib": 6.21, "fltcat": "VFR", "altim": 1014.0, "rawOb": "LFSI 172100Z AUTO 08005KT CAVOK 18/11 Q1014"}, "geometry": {"type": "Point", "coordinates": [4.9, 48.636]}}, {"type": "Feature", "properties": {"id": "GMME", "site": "Sale Arpt", "prior": "2", "obsTime": "2018-09-17T21:00:00Z", "temp": 22.0, "dewp": 20.0, "wspd": 5, "wdir": 250, "cover": "SCT", "visib": 3.73, "fltcat": "MVFR", "altim": 1015.0, "rawOb": "GMME 172100Z 25005KT 6000 SCT016 22/20 Q1015 NOSIG"}, "geometry": {"type": "Point", "coordinates": [-6.752, 34.051]}}, {"type": "Feature", "properties": {"id": "BKPR", "site": "Pristina Intl", "prior": "4", "obsTime": "2018-09-17T21:00:00Z", "temp": 16.0, "dewp": 8.0, "wspd": 6, "wdir": 360, "cover": "CAVOK", "visib": 6.21, "fltcat": "VFR", "altim": 1023.0, "rawOb": "BKPR 172100Z 36006KT CAVOK 16/08 Q1023 NOSIG"}, "geometry": {"type": "Point", "coordinates": [21.035, 42.578]}}, {"type": "Feature", "properties": {"id": "LPPS", "site": "Porto Santo Isl Arpt", "prior": "1", "obsTime": "2018-09-17T21:00:00Z", "temp": 22.0, "dewp": 16.0, "wspd": 5, "wdir": 20, "cover": "SCT", "visib": 6.21, "fltcat": "VFR", "altim": 1018.0, "rawOb": "LPPS 172100Z 02005KT 340V060 9999 SCT015 22/16 Q1018"}, "geometry": {"type": "Point", "coordinates": [-16.35, 33.073]}}, {"type": "Feature", "properties": {"id": "LYNI", "site": "Nis/Constantine Arpt", "prior": "3", "obsTime": "2018-09-17T21:00:00Z", "temp": 16.0, "dewp": 12.0, "wspd": 0, "wdir": 0, "cover": "CAVOK", "visib": 6.21, "fltcat": "VFR", "altim": 1022.0, "rawOb": "LYNI 172100Z 00000KT CAVOK 16/12 Q1022 NOSIG"}, "geometry": {"type": "Point", "coordinates": [21.857, 43.336]}}, {"type": "Feature", "properties": {"id": "LRCV", "site": "Craiova Arpt", "prior": "2", "obsTime": "2018-09-17T21:00:00Z", "temp": 16.0, "dewp": 11.0, "wspd": 5, "wdir": 40, "cover": "CAVOK", "visib": 6.21, "fltcat": "VFR", "altim": 1023.0, "rawOb": "LRCV 172100Z 04005KT CAVOK 16/11 Q1023"}, "geometry": {"type": "Point", "coordinates": [23.889, 44.318]}}, {"type": "Feature", "properties": {"id": "LFMK", "site": "Carcassonne/Salvaza", "prior": "4", "obsTime": "2018-09-17T21:00:00Z", "temp": 21.0, "dewp": 19.0, "wspd": 11, "wdir": 90, "ceil": 12, "cover": "OVC", "visib": 6.21, "fltcat": "MVFR", "altim": 1018.0, "rawOb": "LFMK 172100Z AUTO 09011KT 9999 OVC012 21/19 Q1018"}, "geometry": {"type": "Point", "coordinates": [2.306, 43.216]}}, {"type": "Feature", "properties": {"id": "LFOT", "site": "Tours/Val de Loire A", "prior": "4", "obsTime": "2018-09-17T21:00:00Z", "temp": 23.0, "dewp": 14.0, "wspd": 4, "wdir": 160, "cover": "CAVOK", "visib": 6.21, "fltcat": "VFR", "altim": 1013.0, "rawOb": "LFOT 172100Z AUTO 16004KT CAVOK 23/14 Q1013 NOSIG"}, "geometry": {"type": "Point", "coordinates": [0.728, 47.434]}}, {"type": "Feature", "properties": {"id": "LYPG", "site": "Podgorica Arpt", "prior": "5", "obsTime": "2018-09-17T21:00:00Z", "temp": 21.0, "dewp": 10.0, "wspd": 2, "wdir": 0, "cover": "CAVOK", "visib": 6.21, "fltcat": "VFR", "altim": 1019.0, "rawOb": "LYPG 172100Z VRB02KT CAVOK 21/10 Q1019 NOSIG"}, "geometry": {"type": "Point", "coordinates": [19.252, 42.36]}}, {"type": "Feature", "properties": {"id": "LFMP", "site": "Perpignan/Liabanere", "prior": "3", "obsTime": "2018-09-17T21:00:00Z", "temp": 21.0, "dewp": 19.0, "wspd": 5, "wdir": 30, "cover": "FEW", "visib": 6.21, "fltcat": "VFR", "altim": 1017.0, "rawOb": "LFMP 172100Z AUTO 03005KT 9999 FEW046 21/19 Q1017 NOSIG"}, "geometry": {"type": "Point", "coordinates": [2.87, 42.744]}}, {"type": "Feature", "properties": {"id": "LFRJ", "site": "Landivisiau(AB)", "prior": "6", "obsTime": "2018-09-17T21:00:00Z", "temp": 18.0, "dewp": 16.0, "wspd": 17, "wdir": 200, "ceil": 10, "cover": "OVC", "visib": 6.21, "fltcat": "MVFR", "altim": 1009.0, "rawOb": "LFRJ 172100Z AUTO 20017KT 9999 OVC010 18/16 Q1009"}, "geometry": {"type": "Point", "coordinates": [-4.15, 48.53]}}, {"type": "Feature", "properties": {"id": "LFKF", "site": "Figari/Corse Arpt", "prior": "5", "obsTime": "2018-09-17T21:00:00Z", "temp": 21.0, "dewp": 19.0, "wspd": 6, "wdir": 60, "cover": "CAVOK", "visib": 6.21, "fltcat": "VFR", "altim": 1019.0, "rawOb": "LFKF 172100Z AUTO 06006KT CAVOK 21/19 Q1019 NOSIG"}, "geometry": {"type": "Point", "coordinates": [9.097, 41.502]}}, {"type": "Feature", "properties": {"id": "BIEG", "site": "Egilsstadir Arpt", "prior": "2", "obsTime": "2018-09-17T21:00:00Z", "temp": 7.0, "dewp": 5.0, "wspd": 12, "wdir": 360, "ceil": 25, "cover": "OVC", "visib": 6.21, "fltcat": "MVFR", "altim": 995.0, "wx": "-RA", "rawOb": "BIEG 172100Z 36012KT 9999 -RA BKN025 OVC033 07/05 Q0995"}, "geometry": {"type": "Point", "coordinates": [-14.404, 65.282]}}, {"type": "Feature", "properties": {"id": "LFOC", "site": "Chateaudun(AFB)", "prior": "4", "obsTime": "2018-09-17T21:00:00Z", "temp": 19.0, "dewp": 9.0, "wspd": 4, "wdir": 160, "cover": "CAVOK", "visib": 6.21, "fltcat": "VFR", "altim": 1013.0, "rawOb": "LFOC 172100Z AUTO 16004KT CAVOK 19/09 Q1013"}, "geometry": {"type": "Point", "coordinates": [1.379, 48.058]}}, {"type": "Feature", "properties": {"id": "LRSB", "site": "Sibiu Intl", "prior": "4", "obsTime": "2018-09-17T21:00:00Z", "temp": 14.0, "dewp": 14.0, "wspd": 3, "wdir": 320, "cover": "SCT", "visib": 6.21, "fltcat": "VFR", "altim": 1024.0, "rawOb": "LRSB 172100Z 32003KT 9999 SCT062 14/14 Q1024"}, "geometry": {"type": "Point", "coordinates": [24.088, 45.785]}}, {"type": "Feature", "properties": {"id": "LFLS", "site": "Grenoble-Lyons Arpt", "prior": "4", "obsTime": "2018-09-17T21:00:00Z", "temp": 22.0, "dewp": 14.0, "wspd": 7, "wdir": 220, "cover": "CAVOK", "visib": 6.21, "fltcat": "VFR", "altim": 1019.0, "rawOb": "LFLS 172100Z AUTO 22007KT 180V270 CAVOK 22/14 Q1019"}, "geometry": {"type": "Point", "coordinates": [5.33, 45.363]}}, {"type": "Feature", "properties": {"id": "BIAR", "site": "Akureyri Arpt", "prior": "3", "obsTime": "2018-09-17T21:00:00Z", "temp": 8.0, "dewp": 5.0, "wspd": 8, "wdir": 300, "ceil": 29, "cover": "OVC", "visib": 6.21, "fltcat": "MVFR", "altim": 997.0, "wx": "-RA", "rawOb": "BIAR 172100Z 30008KT 9999 -RA FEW021 OVC029 08/05 Q0997"}, "geometry": {"type": "Point", "coordinates": [-18.072, 65.657]}}, {"type": "Feature", "properties": {"id": "LZPP", "site": "Piesany Arpt", "prior": "3", "obsTime": "2018-09-17T21:00:00Z", "temp": 17.0, "dewp": 12.0, "wspd": 3, "wdir": 310, "cover": "CLR", "visib": 6.21, "fltcat": "VFR", "altim": 1022.0, "rawOb": "LZPP 172100Z AUTO 31003KT 280V010 9999 NCD 17/12 Q1022"}, "geometry": {"type": "Point", "coordinates": [17.829, 48.623]}}, {"type": "Feature", "properties": {"id": "LHPA", "site": "Papa Arpt", "prior": "3", "obsTime": "2018-09-17T20:45:00Z", "temp": 18.0, "dewp": 13.0, "wspd": 4, "wdir": 150, "cover": "CAVOK", "visib": 6.21, "fltcat": "VFR", "altim": 1022.0, "rawOb": "LHPA 172045Z 15004KT CAVOK 18/13 Q1022 NOSIG RMK BLU"}, "geometry": {"type": "Point", "coordinates": [17.499, 47.363]}}, {"type": "Feature", "properties": {"id": "LFMI", "site": "Istres/Le Tube(AFB)", "prior": "6", "obsTime": "2018-09-17T21:00:00Z", "temp": 23.0, "dewp": 23.0, "wspd": 4, "wdir": 120, "cover": "FEW", "visib": 6.21, "fltcat": "VFR", "altim": 1019.0, "rawOb": "LFMI 172100Z AUTO 12004KT 9999 FEW044 23/23 Q1019 TEMPO 0100 FG VV///"}, "geometry": {"type": "Point", "coordinates": [4.925, 43.52]}}, {"type": "Feature", "properties": {"id": "LZZI", "site": "Dolny Hricov Arpt", "prior": "4", "obsTime": "2018-09-17T21:00:00Z", "temp": 14.0, "dewp": 11.0, "wspd": 1, "wdir": 0, "cover": "CAVOK", "visib": 6.21, "fltcat": "VFR", "altim": 1023.0, "rawOb": "LZZI 172100Z VRB01KT CAVOK 14/11 Q1023"}, "geometry": {"type": "Point", "coordinates": [18.613, 49.233]}}, {"type": "Feature", "properties": {"id": "LFLB", "site": "Chambery Arpt", "prior": "5", "obsTime": "2018-09-17T21:00:00Z", "temp": 19.0, "dewp": 15.0, "wspd": 2, "wdir": 310, "cover": "CAVOK", "visib": 6.21, "fltcat": "VFR", "altim": 1018.0, "rawOb": "LFLB 172100Z AUTO 31002KT CAVOK 19/15 Q1018"}, "geometry": {"type": "Point", "coordinates": [5.88, 45.638]}}, {"type": "Feature", "properties": {"id": "EIME", "site": "Casement Arpt", "prior": "6", "obsTime": "2018-09-17T21:00:00Z", "temp": 17.0, "dewp": 14.0, "wspd": 7, "wdir": 150, "ceil": 50, "cover": "BKN", "visib": 6.21, "fltcat": "VFR", "altim": 999.0, "rawOb": "EIME 172100Z 15007KT 9999 FEW018 SCT025 BKN050 17/14 Q0999"}, "geometry": {"type": "Point", "coordinates": [-6.445, 53.302]}}, {"type": "Feature", "properties": {"id": "LHSN", "site": "Szolnok(AB)", "prior": "6", "obsTime": "2018-09-17T20:45:00Z", "temp": 16.0, "dewp": 10.0, "wspd": 0, "wdir": 0, "cover": "CAVOK", "visib": 6.21, "fltcat": "VFR", "altim": 1022.0, "rawOb": "LHSN 172045Z 00000KT CAVOK 16/10 Q1022 NOSIG RMK BLU"}, "geometry": {"type": "Point", "coordinates": [20.235, 47.122]}}, {"type": "Feature", "properties": {"id": "LZSL", "site": "Sliac Arpt", "prior": "4", "obsTime": "2018-09-17T21:00:00Z", "temp": 14.0, "dewp": 10.0, "wspd": 0, "wdir": 0, "cover": "CAVOK", "visib": 6.21, "fltcat": "VFR", "altim": 1024.0, "rawOb": "LZSL 172100Z 00000KT CAVOK 14/10 Q1024"}, "geometry": {"type": "Point", "coordinates": [19.134, 48.638]}}, {"type": "Feature", "properties": {"id": "LYUZ", "site": "Uzice/Ponikve Arpt", "prior": "4", "obsTime": "2018-09-17T21:00:00Z", "temp": 14.0, "dewp": 8.0, "wspd": 0, "wdir": 0, "cover": "CAVOK", "visib": 6.21, "fltcat": "VFR", "altim": 1025.0, "rawOb": "LYUZ 172100Z AUTO 00000KT CAVOK 14/08 Q1025"}, "geometry": {"type": "Point", "coordinates": [19.705, 43.897]}}, {"type": "Feature", "properties": {"id": "EHEH", "site": "Eindhoven Arpt", "prior": "5", "obsTime": "2018-09-17T20:55:00Z", "temp": 13.0, "dewp": 9.0, "wspd": 2, "wdir": 0, "ceil": 350, "cover": "OVC", "visib": 6.21, "fltcat": "VFR", "altim": 1014.0, "rawOb": "EHEH 172055Z AUTO VRB02KT 9999 OVC350 13/09 Q1014 BLU 15006KT CAVOK"}, "geometry": {"type": "Point", "coordinates": [5.377, 51.452]}}, {"type": "Feature", "properties": {"id": "LFMU", "site": "Beziers/Vias Arpt", "prior": "4", "obsTime": "2018-09-17T21:00:00Z", "temp": 20.0, "dewp": 18.0, "wspd": 5, "wdir": 40, "cover": "CLR", "visib": 5.59, "fltcat": "VFR", "altim": 1018.0, "rawOb": "LFMU 172100Z AUTO 04005KT 9000 NSC 20/18 Q1018"}, "geometry": {"type": "Point", "coordinates": [3.352, 43.324]}}, {"type": "Feature", "properties": {"id": "LRBM", "site": "Baia Mare Arpt", "prior": "6", "obsTime": "2018-09-17T21:00:00Z", "temp": 14.0, "dewp": 9.0, "wspd": 2, "wdir": 0, "cover": "SCT", "visib": 6.21, "fltcat": "VFR", "altim": 1024.0, "rawOb": "LRBM 172100Z AUTO VRB02KT 9999 FEW018/// SCT220/// 14/09 Q1024"}, "geometry": {"type": "Point", "coordinates": [23.466, 47.658]}}, {"type": "Feature", "properties": {"id": "LTAC", "site": "Ankara/Esenboga Intl", "prior": "1", "obsTime": "2018-09-17T20:50:00Z", "temp": 16.0, "dewp": 8.0, "wspd": 8, "wdir": 10, "cover": "FEW", "visib": 6.21, "fltcat": "VFR", "altim": 1022.0, "rawOb": "LTAC 172050Z 01008KT 9999 FEW040 16/08 Q1022 NOSIG RMK RWY21L 02008KT RWY03L 01008KT RWY21R 03007KT"}, "geometry": {"type": "Point", "coordinates": [32.995, 40.128]}}, {"type": "Feature", "properties": {"id": "LEVC", "site": "Valencia Arpt", "prior": "3", "obsTime": "2018-09-17T21:00:00Z", "temp": 24.0, "dewp": 22.0, "wspd": 2, "wdir": 0, "ceil": 50, "cover": "BKN", "visib": 2.49, "fltcat": "IFR", "altim": 1017.0, "wx": "TSRA", "rawOb": "LEVC 172100Z VRB02KT 4000 TSRA FEW020CB BKN050 24/22 Q1017 BECMG 9999 NSW"}, "geometry": {"type": "Point", "coordinates": [-0.48, 39.489]}}, {"type": "Feature", "properties": {"id": "LEZL", "site": "Sevilla/San Pablo Ar", "prior": "3", "obsTime": "2018-09-17T21:00:00Z", "temp": 25.0, "dewp": 17.0, "wspd": 5, "wdir": 260, "cover": "CAVOK", "visib": 6.21, "fltcat": "VFR", "altim": 1014.0, "rawOb": "LEZL 172100Z 26005KT CAVOK 25/17 Q1014 NOSIG"}, "geometry": {"type": "Point", "coordinates": [-5.892, 37.418]}}, {"type": "Feature", "properties": {"id": "LEST", "site": "Santiago Arpt", "prior": "4", "obsTime": "2018-09-17T21:00:00Z", "temp": 17.0, "dewp": 16.0, "wspd": 2, "wdir": 0, "ceil": 9, "cover": "BKN", "visib": 6.21, "fltcat": "IFR", "altim": 1017.0, "rawOb": "LEST 172100Z VRB02KT 9999 SCT003 BKN009 17/16 Q1017 NOSIG"}, "geometry": {"type": "Point", "coordinates": [-8.416, 42.899]}}, {"type": "Feature", "properties": {"id": "LESO", "site": "San Sebastian Arpt", "prior": "5", "obsTime": "2018-09-17T21:00:00Z", "temp": 25.0, "dewp": 18.0, "wspd": 6, "wdir": 230, "cover": "CAVOK", "visib": 6.21, "fltcat": "VFR", "altim": 1015.0, "rawOb": "LESO 172100Z AUTO 23006KT 180V270 CAVOK 25/18 Q1015"}, "geometry": {"type": "Point", "coordinates": [-1.791, 43.356]}}, {"type": "Feature", "properties": {"id": "LKNA", "site": "Namest nad Oslavou A", "prior": "5", "obsTime": "2018-09-17T21:00:00Z", "temp": 18.0, "dewp": 14.0, "wspd": 6, "wdir": 110, "cover": "CAVOK", "visib": 6.21, "fltcat": "VFR", "altim": 1021.0, "rawOb": "LKNA 172100Z 11006KT CAVOK 18/14 Q1021"}, "geometry": {"type": "Point", "coordinates": [16.121, 49.167]}}, {"type": "Feature", "properties": {"id": "LJMB", "site": "Maribor/Rusjan Arpt", "prior": "5", "obsTime": "2018-09-17T21:00:00Z", "temp": 17.0, "dewp": 16.0, "wspd": 0, "wdir": 0, "cover": "CLR", "visib": 6.21, "fltcat": "VFR", "altim": 1021.0, "rawOb": "LJMB 172100Z AUTO 00000KT 9999 NSC 17/16 Q1021"}, "geometry": {"type": "Point", "coordinates": [15.686, 46.48]}}, {"type": "Feature", "properties": {"id": "EHGG", "site": "Groningen Arpt", "prior": "3", "obsTime": "2018-09-17T20:55:00Z", "temp": 12.0, "dewp": 10.0, "wspd": 2, "wdir": 0, "cover": "CLR", "visib": 6.21, "fltcat": "VFR", "altim": 1014.0, "rawOb": "EHGG 172055Z AUTO VRB02KT 9999 NSC 12/10 Q1014 NOSIG"}, "geometry": {"type": "Point", "coordinates": [6.579, 53.125]}}, {"type": "Feature", "properties": {"id": "LEGR", "site": "Granada/Lorca Arpt", "prior": "3", "obsTime": "2018-09-17T21:00:00Z", "temp": 22.0, "dewp": 18.0, "wspd": 2, "wdir": 350, "cover": "FEW", "visib": 6.21, "fltcat": "VFR", "altim": 1018.0, "rawOb": "LEGR 172100Z 35002KT 9999 FEW030 22/18 Q1018"}, "geometry": {"type": "Point", "coordinates": [-3.776, 37.188]}}, {"type": "Feature", "properties": {"id": "LEBB", "site": "Bilbao Arpt", "prior": "2", "obsTime": "2018-09-17T21:00:00Z", "temp": 21.0, "dewp": 19.0, "wspd": 3, "wdir": 200, "cover": "FEW", "visib": 6.21, "fltcat": "VFR", "altim": 1016.0, "rawOb": "LEBB 172100Z 20003KT 180V250 9999 FEW030 21/19 Q1016 NOSIG"}, "geometry": {"type": "Point", "coordinates": [-2.913, 43.302]}}, {"type": "Feature", "properties": {"id": "LTAG", "site": "Adana/Incirlik(AB)", "prior": "1", "obsTime": "2018-09-17T20:50:00Z", "temp": 21.0, "dewp": 13.0, "wspd": 5, "wdir": 300, "cover": "CAVOK", "visib": 6.21, "fltcat": "VFR", "altim": 1008.0, "rawOb": "LTAG 172050Z 30005KT CAVOK 21/13 Q1008 NOSIG"}, "geometry": {"type": "Point", "coordinates": [35.426, 37.002]}}, {"type": "Feature", "properties": {"id": "LHUD", "site": "Szeged Arpt", "prior": "3", "obsTime": "2018-09-17T20:45:00Z", "temp": 17.0, "dewp": 8.0, "wspd": 3, "wdir": 70, "cover": "CAVOK", "visib": 6.21, "fltcat": "VFR", "altim": 1023.0, "rawOb": "LHUD 172045Z 07003KT CAVOK 17/08 Q1023"}, "geometry": {"type": "Point", "coordinates": [20.09, 46.247]}}, {"type": "Feature", "properties": {"id": "LRSM", "site": "Satu Mare Arpt", "prior": "1", "obsTime": "2018-09-17T21:00:00Z", "temp": 12.0, "dewp": 10.0, "wspd": 1, "wdir": 190, "cover": "CLR", "visib": 6.21, "fltcat": "VFR", "altim": 1023.0, "rawOb": "LRSM 172100Z AUTO 19001KT 9999 NCD 12/10 Q1023"}, "geometry": {"type": "Point", "coordinates": [22.886, 47.704]}}, {"type": "Feature", "properties": {"id": "LJLJ", "site": "Ljubljana/Pucnik Arp", "prior": "4", "obsTime": "2018-09-17T21:00:00Z", "temp": 17.0, "dewp": 16.0, "wspd": 2, "wdir": 0, "cover": "SCT", "visib": 6.21, "fltcat": "VFR", "altim": 1022.0, "rawOb": "LJLJ 172100Z VRB02KT 9999 SCT040 17/16 Q1022 NOSIG"}, "geometry": {"type": "Point", "coordinates": [14.457, 46.224]}}, {"type": "Feature", "properties": {"id": "EHGR", "site": "Gilze-Rijen(AB)", "prior": "3", "obsTime": "2018-09-17T20:55:00Z", "temp": 17.0, "dewp": 8.0, "wspd": 6, "wdir": 130, "cover": "CLR", "visib": 6.21, "fltcat": "VFR", "altim": 1014.0, "rawOb": "EHGR 172055Z AUTO 13006KT 9999 NCD 17/08 Q1014 BLU"}, "geometry": {"type": "Point", "coordinates": [4.937, 51.567]}}, {"type": "Feature", "properties": {"id": "EHKD", "site": "Den Helder Arpt", "prior": "4", "obsTime": "2018-09-17T20:55:00Z", "temp": 16.0, "dewp": 12.0, "wspd": 8, "wdir": 150, "ceil": 390, "cover": "OVC", "visib": 6.21, "fltcat": "VFR", "altim": 1013.0, "rawOb": "EHKD 172055Z AUTO 15008KT 9999 OVC390 16/12 Q1013 BLU 14005KT CAVOK"}, "geometry": {"type": "Point", "coordinates": [4.78, 52.923]}}, {"type": "Feature", "properties": {"id": "EHDL", "site": "Deelen(AB)", "prior": "5", "obsTime": "2018-09-17T20:55:00Z", "temp": 15.0, "dewp": 9.0, "wspd": 3, "wdir": 130, "ceil": 380, "cover": "OVC", "visib": 6.21, "fltcat": "VFR", "altim": 1014.0, "rawOb": "EHDL 172055Z AUTO 13003KT 080V190 9999 SCT310 OVC380 15/09 Q1014 BLU"}, "geometry": {"type": "Point", "coordinates": [5.873, 52.06]}}, {"type": "Feature", "properties": {"id": "LIPC", "site": "Cervia(AFB)", "prior": "6", "obsTime": "2018-09-17T20:55:00Z", "temp": 21.0, "dewp": 20.0, "wspd": 1, "wdir": 250, "cover": "FEW", "visib": 3.73, "fltcat": "MVFR", "altim": 1019.0, "rawOb": "LIPC 172055Z 25001KT 6000 FEW030 21/20 Q1019"}, "geometry": {"type": "Point", "coordinates": [12.31, 44.223]}}, {"type": "Feature", "properties": {"id": "LYBT", "site": "Batajnica(AB)", "prior": "6", "obsTime": "2018-09-17T21:00:00Z", "temp": 18.0, "dewp": 12.0, "wspd": 4, "wdir": 70, "cover": "CAVOK", "visib": 6.21, "fltcat": "VFR", "altim": 1022.0, "rawOb": "LYBT 172100Z 07004KT 010V140 CAVOK 18/12 Q1022 NOSIG"}, "geometry": {"type": "Point", "coordinates": [20.251, 44.936]}}, {"type": "Feature", "properties": {"id": "LEAL", "site": "Alicante Arpt", "prior": "2", "obsTime": "2018-09-17T21:00:00Z", "temp": 25.0, "dewp": 23.0, "wspd": 8, "wdir": 90, "ceil": 24, "cover": "BKN", "visib": 6.21, "fltcat": "MVFR", "altim": 1016.0, "rawOb": "LEAL 172100Z 09008KT 9999 SCT012 BKN024 25/23 Q1016 NOSIG"}, "geometry": {"type": "Point", "coordinates": [-0.558, 38.282]}}, {"type": "Feature", "properties": {"id": "EKVG", "site": "Soervaag/Vagar Arpt", "prior": "1", "obsTime": "2018-09-17T21:20:00Z", "temp": 10.0, "dewp": 8.0, "wspd": 6, "wdir": 360, "ceil": 16, "cover": "OVC", "fltcat": "MVFR", "altim": 994.0, "rawOb": "EKVG 172120Z AUTO 36006KT 300V050 9999NDV OVC016/// 10/08 Q0994"}, "geometry": {"type": "Point", "coordinates": [-7.3, 62.068]}}, {"type": "Feature", "properties": {"id": "LJPZ", "site": "Portoroz Arpt", "prior": "5", "obsTime": "2018-09-17T21:00:00Z", "temp": 19.0, "dewp": 17.0, "wspd": 7, "wdir": 120, "cover": "CLR", "visib": 6.21, "fltcat": "VFR", "altim": 1020.0, "rawOb": "LJPZ 172100Z AUTO 12007KT 9999 NSC 19/17 Q1020"}, "geometry": {"type": "Point", "coordinates": [13.616, 45.472]}}, {"type": "Feature", "properties": {"id": "LEPA", "site": "Palma De Mallorca Ar", "prior": "2", "obsTime": "2018-09-17T21:00:00Z", "temp": 23.0, "dewp": 22.0, "wspd": 2, "wdir": 0, "cover": "FEW", "visib": 6.21, "fltcat": "VFR", "altim": 1017.0, "rawOb": "LEPA 172100Z VRB02KT 9999 FEW020 23/22 Q1017 NOSIG"}, "geometry": {"type": "Point", "coordinates": [2.735, 39.549]}}, {"type": "Feature", "properties": {"id": "GMMW", "site": "Nador/Aroui Intl", "prior": "5", "obsTime": "2018-09-17T21:00:00Z", "temp": 23.0, "dewp": 22.0, "wspd": 2, "wdir": 0, "cover": "FEW", "visib": 6.21, "fltcat": "VFR", "altim": 1015.0, "rawOb": "GMMW 172100Z VRB02KT 9999 FEW020 23/22 Q1015 NOSIG"}, "geometry": {"type": "Point", "coordinates": [-3.027, 34.989]}}, {"type": "Feature", "properties": {"id": "UUBW", "site": "Moscow/Ramenskoye Ar", "prior": "6", "obsTime": "2018-09-17T21:00:00Z", "temp": 12.0, "dewp": 6.0, "wspd": 4, "wdir": 230, "cover": "CAVOK", "visib": 6.21, "fltcat": "VFR", "altim": 1016.0, "rawOb": "UUBW 172100Z 23002MPS CAVOK 12/06 Q1016 R30/010060 NOSIG"}, "geometry": {"type": "Point", "coordinates": [38.141, 55.567]}}, {"type": "Feature", "properties": {"id": "EHLW", "site": "Leeuwarden(AB)", "prior": "4", "obsTime": "2018-09-17T20:55:00Z", "temp": 17.0, "dewp": 12.0, "wspd": 6, "wdir": 140, "ceil": 390, "cover": "OVC", "visib": 6.21, "fltcat": "VFR", "altim": 1014.0, "rawOb": "EHLW 172055Z AUTO 14006KT 9999 OVC390 17/12 Q1014 BLU RMK R23"}, "geometry": {"type": "Point", "coordinates": [5.753, 53.225]}}, {"type": "Feature", "properties": {"id": "LEJR", "site": "Jerez Arpt", "prior": "4", "obsTime": "2018-09-17T21:00:00Z", "temp": 25.0, "dewp": 21.0, "wspd": 1, "wdir": 0, "cover": "FEW", "visib": 6.21, "fltcat": "VFR", "altim": 1014.0, "rawOb": "LEJR 172100Z VRB01KT 9999 FEW060 25/21 Q1014"}, "geometry": {"type": "Point", "coordinates": [-6.063, 36.745]}}, {"type": "Feature", "properties": {"id": "LKCV", "site": "Caslav Arpt", "prior": "6", "obsTime": "2018-09-17T21:00:00Z", "temp": 16.0, "dewp": 12.0, "wspd": 5, "wdir": 140, "cover": "CAVOK", "visib": 6.21, "fltcat": "VFR", "altim": 1020.0, "rawOb": "LKCV 172100Z 14005KT CAVOK 16/12 Q1020 NOSIG"}, "geometry": {"type": "Point", "coordinates": [15.381, 49.941]}}, {"type": "Feature", "properties": {"id": "EBBR", "site": "Brussels Intl", "prior": "2", "obsTime": "2018-09-17T20:50:00Z", "temp": 17.0, "dewp": 7.0, "wspd": 5, "wdir": 130, "cover": "CAVOK", "visib": 6.21, "fltcat": "VFR", "altim": 1014.0, "rawOb": "EBBR 172050Z 13005KT CAVOK 17/07 Q1014 NOSIG"}, "geometry": {"type": "Point", "coordinates": [4.49, 50.9]}}, {"type": "Feature", "properties": {"id": "LEAS", "site": "Aviles/Asturias Arpt", "prior": "3", "obsTime": "2018-09-17T21:00:00Z", "temp": 16.0, "dewp": 16.0, "wspd": 1, "wdir": 0, "cover": "CAVOK", "visib": 6.21, "fltcat": "VFR", "altim": 1016.0, "rawOb": "LEAS 172100Z VRB01KT CAVOK 16/16 Q1016 NOSIG"}, "geometry": {"type": "Point", "coordinates": [-6.035, 43.563]}}, {"type": "Feature", "properties": {"id": "EHAM", "site": "Amsterdam Arpt", "prior": "1", "obsTime": "2018-09-17T20:55:00Z", "temp": 16.0, "dewp": 11.0, "wspd": 7, "wdir": 130, "cover": "CAVOK", "visib": 6.21, "fltcat": "VFR", "altim": 1013.0, "rawOb": "EHAM 172055Z 13007KT CAVOK 16/11 Q1013 NOSIG"}, "geometry": {"type": "Point", "coordinates": [4.764, 52.311]}}, {"type": "Feature", "properties": {"id": "UUDL", "site": "Yaroslav/Tunoshna Ar", "prior": "3", "obsTime": "2018-09-17T21:00:00Z", "temp": 11.0, "dewp": 7.0, "wspd": 6, "wdir": 220, "cover": "SCT", "visib": 6.21, "fltcat": "VFR", "altim": 1013.0, "wx": "-SHRA", "rawOb": "UUDL 172100Z 22003MPS 9999 -SHRA SCT050CB 11/07 Q1013 R23/290150 NOSIG RMK QFE752"}, "geometry": {"type": "Point", "coordinates": [40.158, 57.561]}}, {"type": "Feature", "properties": {"id": "EHWO", "site": "Woensdrecht(AB)", "prior": "6", "obsTime": "2018-09-17T20:55:00Z", "temp": 14.0, "dewp": 10.0, "wspd": 3, "wdir": 140, "ceil": 340, "cover": "OVC", "visib": 6.21, "fltcat": "VFR", "altim": 1013.0, "rawOb": "EHWO 172055Z AUTO 14003KT 090V150 9999 OVC340 14/10 Q1013 BLU"}, "geometry": {"type": "Point", "coordinates": [4.343, 51.449]}}, {"type": "Feature", "properties": {"id": "EHVK", "site": "Volkel(AFB)", "prior": "4", "obsTime": "2018-09-17T20:55:00Z", "temp": 14.0, "dewp": 9.0, "wspd": 1, "wdir": 100, "ceil": 350, "cover": "OVC", "visib": 6.21, "fltcat": "VFR", "altim": 1014.0, "rawOb": "EHVK 172055Z AUTO 10001KT 9999 OVC350 14/09 Q1014 BLU"}, "geometry": {"type": "Point", "coordinates": [5.703, 51.655]}}, {"type": "Feature", "properties": {"id": "EHVL", "site": "Vlieland Island?", "prior": "5", "obsTime": "2018-09-17T20:55:00Z", "temp": 17.0, "dewp": 14.0, "wspd": 12, "wdir": 160, "ceil": 390, "cover": "OVC", "visib": 6.21, "fltcat": "VFR", "altim": 1013.0, "rawOb": "EHVL 172055Z AUTO 16012KT 9999 OVC390 17/14 Q1013 BLU"}, "geometry": {"type": "Point", "coordinates": [4.92, 53.25]}}, {"type": "Feature", "properties": {"id": "LEVT", "site": "Vitoria Arpt", "prior": "5", "obsTime": "2018-09-17T21:00:00Z", "temp": 18.0, "dewp": 16.0, "wspd": 4, "wdir": 140, "cover": "SCT", "visib": 6.21, "fltcat": "VFR", "altim": 1017.0, "wx": "-RA", "rawOb": "LEVT 172100Z 14004KT 100V170 9999 -RA FEW035 SCT045 18/16 Q1017"}, "geometry": {"type": "Point", "coordinates": [-2.725, 42.882]}}, {"type": "Feature", "properties": {"id": "EKAH", "site": "Tirstrup Arpt", "prior": "3", "obsTime": "2018-09-17T20:50:00Z", "temp": 17.0, "dewp": 16.0, "wspd": 4, "wdir": 190, "cover": "FEW", "altim": 1015.0, "rawOb": "EKAH 172050Z AUTO 19004KT 140V240 9999NDV FEW064/// 17/16 Q1015"}, "geometry": {"type": "Point", "coordinates": [10.618, 56.304]}}, {"type": "Feature", "properties": {"id": "UGTB", "site": "Tbilisi Intl", "prior": "2", "obsTime": "2018-09-17T21:00:00Z", "temp": 19.0, "dewp": 13.0, "wspd": 14, "wdir": 310, "cover": "CAVOK", "visib": 6.21, "fltcat": "VFR", "altim": 1020.0, "rawOb": "UGTB 172100Z 31014KT CAVOK 19/13 Q1020 NOSIG"}, "geometry": {"type": "Point", "coordinates": [44.952, 41.669]}}, {"type": "Feature", "properties": {"id": "EETU", "site": "Tartu Arpt", "prior": "4", "obsTime": "2018-09-17T20:50:00Z", "temp": 14.0, "dewp": 10.0, "wspd": 14, "wdir": 250, "ceil": 45, "cover": "BKN", "visib": 6.21, "fltcat": "VFR", "altim": 1010.0, "rawOb": "EETU 172050Z 25014KT 9999 FEW020 BKN045 14/10 Q1010"}, "geometry": {"type": "Point", "coordinates": [26.691, 58.307]}}, {"type": "Feature", "properties": {"id": "EHRD", "site": "Rotterdam-The Hague", "prior": "4", "obsTime": "2018-09-17T20:55:00Z", "temp": 13.0, "dewp": 10.0, "wspd": 3, "wdir": 80, "cover": "CLR", "visib": 6.21, "fltcat": "VFR", "altim": 1013.0, "rawOb": "EHRD 172055Z AUTO 08003KT 9999 NSC 13/10 Q1013 NOSIG"}, "geometry": {"type": "Point", "coordinates": [4.437, 51.955]}}, {"type": "Feature", "properties": {"id": "LERS", "site": "Reus Arpt", "prior": "4", "obsTime": "2018-09-17T21:00:00Z", "temp": 22.0, "dewp": 21.0, "wspd": 3, "wdir": 30, "cover": "FEW", "visib": 6.21, "fltcat": "VFR", "altim": 1018.0, "rawOb": "LERS 172100Z 03003KT 320V050 9999 FEW025 22/21 Q1018"}, "geometry": {"type": "Point", "coordinates": [1.165, 41.147]}}, {"type": "Feature", "properties": {"id": "EDDG", "site": "Munster-Osnabruck Ar", "prior": "2", "obsTime": "2018-09-17T20:50:00Z", "temp": 13.0, "dewp": 9.0, "wspd": 1, "wdir": 0, "cover": "CAVOK", "visib": 6.21, "fltcat": "VFR", "altim": 1015.0, "rawOb": "EDDG 172050Z VRB01KT CAVOK 13/09 Q1015 NOSIG"}, "geometry": {"type": "Point", "coordinates": [7.687, 52.135]}}, {"type": "Feature", "properties": {"id": "LFBH", "site": "La Rochelle/Laleu Ar", "prior": "3", "obsTime": "2018-09-17T21:00:00Z", "temp": 20.0, "dewp": 16.0, "wspd": 3, "wdir": 280, "cover": "CAVOK", "visib": 6.21, "fltcat": "VFR", "altim": 1013.0, "rawOb": "LFBH 172100Z AUTO 28003KT CAVOK 20/16 Q1013 BECMG 4000 BR BKN002"}, "geometry": {"type": "Point", "coordinates": [-1.196, 46.179]}}, {"type": "Feature", "properties": {"id": "LFRI", "site": "La Roche/Les Ajoncs", "prior": "5", "obsTime": "2018-09-17T21:00:00Z", "temp": 18.0, "dewp": 16.0, "wspd": 3, "wdir": 230, "cover": "CAVOK", "visib": 6.21, "fltcat": "VFR", "altim": 1013.0, "rawOb": "LFRI 172100Z AUTO 23003KT 210V270 CAVOK 18/16 Q1013 TEMPO BKN008"}, "geometry": {"type": "Point", "coordinates": [-1.379, 46.702]}}, {"type": "Feature", "properties": {"id": "LPLA", "site": "Lajes Acores Arpt", "prior": "2", "obsTime": "2018-09-17T21:00:00Z", "temp": 22.0, "dewp": 18.0, "cover": "FEW", "visib": 6.21, "fltcat": "VFR", "altim": 1017.0, "rawOb": "LPLA 172100Z /////KT 9999 FEW025 22/18 Q1017"}, "geometry": {"type": "Point", "coordinates": [-27.094, 38.765]}}, {"type": "Feature", "properties": {"id": "EDDF", "site": "Frankfurt/Main Arpt", "prior": "1", "obsTime": "2018-09-17T20:50:00Z", "temp": 15.0, "dewp": 9.0, "wspd": 2, "wdir": 0, "cover": "CAVOK", "visib": 6.21, "fltcat": "VFR", "altim": 1017.0, "rawOb": "EDDF 172050Z VRB02KT CAVOK 15/09 Q1017 NOSIG"}, "geometry": {"type": "Point", "coordinates": [8.564, 50.038]}}, {"type": "Feature", "properties": {"id": "DABC", "site": "Constantine/Boudiaf", "prior": "2", "obsTime": "2018-09-17T21:00:00Z", "temp": 22.0, "dewp": 14.0, "wspd": 3, "wdir": 150, "cover": "SCT", "visib": 6.21, "fltcat": "VFR", "altim": 1022.0, "rawOb": "DABC 172100Z 15003KT 9999 SCT033 SCT100 22/14 Q1022"}, "geometry": {"type": "Point", "coordinates": [6.618, 36.279]}}, {"type": "Feature", "properties": {"id": "EDDB", "site": "Berlin/Schonefeld Ar", "prior": "6", "obsTime": "2018-09-17T20:50:00Z", "temp": 15.0, "dewp": 9.0, "wspd": 5, "wdir": 140, "cover": "CAVOK", "visib": 6.21, "fltcat": "VFR", "altim": 1018.0, "rawOb": "EDDB 172050Z 14005KT CAVOK 15/09 Q1018 NOSIG"}, "geometry": {"type": "Point", "coordinates": [13.52, 52.38]}}, {"type": "Feature", "properties": {"id": "EBAW", "site": "Antwerp Intl", "prior": "4", "obsTime": "2018-09-17T20:50:00Z", "temp": 13.0, "dewp": 9.0, "wspd": 3, "wdir": 120, "cover": "CAVOK", "visib": 6.21, "fltcat": "VFR", "altim": 1014.0, "rawOb": "EBAW 172050Z 12003KT CAVOK 13/09 Q1014 NOSIG"}, "geometry": {"type": "Point", "coordinates": [4.463, 51.19]}}, {"type": "Feature", "properties": {"id": "LERT", "site": "Rota(AB)", "prior": "6", "obsTime": "2018-09-17T21:00:00Z", "temp": 24.0, "dewp": 23.0, "wspd": 2, "wdir": 290, "cover": "CAVOK", "visib": 6.21, "fltcat": "VFR", "altim": 1014.0, "rawOb": "LERT 172100Z 29002KT CAVOK 24/23 Q1014 NOSIG"}, "geometry": {"type": "Point", "coordinates": [-6.346, 36.645]}}, {"type": "Feature", "properties": {"id": "EKRN", "site": "Ronne/Bornholm Arpt", "prior": "4", "obsTime": "2018-09-17T20:50:00Z", "temp": 15.0, "dewp": 14.0, "wspd": 3, "wdir": 160, "cover": "FEW", "altim": 1018.0, "rawOb": "EKRN 172050Z AUTO 16003KT 9999NDV FEW230/// 15/14 Q1018"}, "geometry": {"type": "Point", "coordinates": [14.761, 55.063]}}, {"type": "Feature", "properties": {"id": "EVRA", "site": "Riga Intl Arpt", "prior": "1", "obsTime": "2018-09-17T21:20:00Z", "temp": 15.0, "dewp": 12.0, "wspd": 4, "wdir": 260, "cover": "CAVOK", "visib": 6.21, "fltcat": "VFR", "altim": 1015.0, "rawOb": "EVRA 172120Z 26004KT 220V360 CAVOK 15/12 Q1015 NOSIG"}, "geometry": {"type": "Point", "coordinates": [23.97, 56.92]}}, {"type": "Feature", "properties": {"id": "EDDM", "site": "Munich Intl", "prior": "2", "obsTime": "2018-09-17T20:50:00Z", "temp": 15.0, "dewp": 14.0, "wspd": 1, "wdir": 140, "cover": "CAVOK", "visib": 6.21, "fltcat": "VFR", "altim": 1019.0, "rawOb": "EDDM 172050Z 14001KT CAVOK 15/14 Q1019 NOSIG"}, "geometry": {"type": "Point", "coordinates": [11.785, 48.353]}}, {"type": "Feature", "properties": {"id": "EHBK", "site": "Maastricht-Aachen Ar", "prior": "4", "obsTime": "2018-09-17T20:55:00Z", "temp": 18.0, "dewp": 8.0, "wspd": 3, "wdir": 180, "cover": "CLR", "visib": 6.21, "fltcat": "VFR", "altim": 1015.0, "rawOb": "EHBK 172055Z AUTO 18003KT 9999 NSC 18/08 Q1015 NOSIG"}, "geometry": {"type": "Point", "coordinates": [5.773, 50.915]}}, {"type": "Feature", "properties": {"id": "LFLL", "site": "Lyon/St Exupery Arpt", "prior": "3", "obsTime": "2018-09-17T21:00:00Z", "temp": 24.0, "dewp": 14.0, "wspd": 11, "wdir": 170, "cover": "CAVOK", "visib": 6.21, "fltcat": "VFR", "altim": 1017.0, "rawOb": "LFLL 172100Z 17011KT CAVOK 24/14 Q1017 NOSIG"}, "geometry": {"type": "Point", "coordinates": [5.088, 45.729]}}, {"type": "Feature", "properties": {"id": "EKRK", "site": "Koebenhavn/Roskilde", "prior": "5", "obsTime": "2018-09-17T20:50:00Z", "temp": 15.0, "dewp": 13.0, "wspd": 5, "wdir": 200, "cover": "CLR", "altim": 1016.0, "rawOb": "EKRK 172050Z AUTO 20005KT 9999NDV NCD 15/13 Q1016"}, "geometry": {"type": "Point", "coordinates": [12.131, 55.586]}}, {"type": "Feature", "properties": {"id": "EKEB", "site": "Esbjerg Arpt", "prior": "5", "obsTime": "2018-09-17T20:50:00Z", "temp": 17.0, "dewp": 16.0, "wspd": 5, "wdir": 180, "ceil": 10, "cover": "BKN", "fltcat": "MVFR", "altim": 1014.0, "rawOb": "EKEB 172050Z AUTO 18005KT 140V210 9999NDV BKN010/// 17/16 Q1014"}, "geometry": {"type": "Point", "coordinates": [8.554, 55.526]}}, {"type": "Feature", "properties": {"id": "EDDE", "site": "Erfurt Arpt", "prior": "2", "obsTime": "2018-09-17T20:50:00Z", "temp": 17.0, "dewp": 7.0, "wspd": 8, "wdir": 200, "cover": "CAVOK", "visib": 6.21, "fltcat": "VFR", "altim": 1018.0, "rawOb": "EDDE 172050Z 20008KT CAVOK 17/07 Q1018"}, "geometry": {"type": "Point", "coordinates": [10.961, 50.98]}}, {"type": "Feature", "properties": {"id": "EDDC", "site": "Dresden Arpt", "prior": "3", "obsTime": "2018-09-17T20:50:00Z", "temp": 18.0, "dewp": 8.0, "wspd": 6, "wdir": 160, "cover": "CAVOK", "visib": 6.21, "fltcat": "VFR", "altim": 1019.0, "rawOb": "EDDC 172050Z 16006KT CAVOK 18/08 Q1019"}, "geometry": {"type": "Point", "coordinates": [13.767, 51.133]}}, {"type": "Feature", "properties": {"id": "LECO", "site": "Coruna Arpt", "prior": "1", "obsTime": "2018-09-17T21:00:00Z", "temp": 20.0, "dewp": 16.0, "wspd": 2, "wdir": 0, "cover": "FEW", "visib": 6.21, "fltcat": "VFR", "altim": 1015.0, "rawOb": "LECO 172100Z VRB02KT 9999 FEW022 20/16 Q1015 NOSIG"}, "geometry": {"type": "Point", "coordinates": [-8.378, 43.3]}}, {"type": "Feature", "properties": {"id": "UUOB", "site": "Belgorod Intl", "prior": "4", "obsTime": "2018-09-17T21:00:00Z", "temp": 10.0, "dewp": 5.0, "wspd": 4, "wdir": 280, "cover": "CAVOK", "visib": 6.21, "fltcat": "VFR", "altim": 1022.0, "rawOb": "UUOB 172100Z 28002MPS CAVOK 10/05 Q1022 R29/010060 NOSIG"}, "geometry": {"type": "Point", "coordinates": [36.59, 50.644]}}, {"type": "Feature", "properties": {"id": "EDMA", "site": "Augsberg Arpt", "prior": "5", "obsTime": "2018-09-17T20:50:00Z", "temp": 16.0, "dewp": 14.0, "wspd": 1, "wdir": 0, "cover": "CLR", "visib": 6.21, "fltcat": "VFR", "altim": 1019.0, "rawOb": "EDMA 172050Z AUTO VRB01KT 9999 // NCD 16/14 Q1019"}, "geometry": {"type": "Point", "coordinates": [10.932, 48.425]}}, {"type": "Feature", "properties": {"id": "LFKJ", "site": "Ajaccio/Oro Arpt", "prior": "3", "obsTime": "2018-09-17T21:00:00Z", "temp": 22.0, "dewp": 18.0, "wspd": 4, "wdir": 60, "cover": "CAVOK", "visib": 6.21, "fltcat": "VFR", "altim": 1018.0, "rawOb": "LFKJ 172100Z AUTO 06004KT CAVOK 22/18 Q1018 NOSIG"}, "geometry": {"type": "Point", "coordinates": [8.8, 41.92]}}, {"type": "Feature", "properties": {"id": "LSZH", "site": "Zurich Intl Arpt", "prior": "4", "obsTime": "2018-09-17T20:50:00Z", "temp": 16.0, "dewp": 13.0, "wspd": 0, "wdir": 0, "cover": "CAVOK", "visib": 6.21, "fltcat": "VFR", "altim": 1019.0, "rawOb": "LSZH 172050Z 00000KT CAVOK 16/13 Q1019 NOSIG"}, "geometry": {"type": "Point", "coordinates": [8.549, 47.457]}}, {"type": "Feature", "properties": {"id": "GMTT", "site": "Tangier/Batouta Arpt", "prior": "4", "obsTime": "2018-09-17T21:00:00Z", "temp": 25.0, "dewp": 18.0, "wspd": 8, "wdir": 70, "cover": "CAVOK", "visib": 6.21, "fltcat": "VFR", "altim": 1013.0, "rawOb": "GMTT 172100Z 07008KT CAVOK 25/18 Q1013 NOSIG"}, "geometry": {"type": "Point", "coordinates": [-5.92, 35.731]}}, {"type": "Feature", "properties": {"id": "LQSA", "site": "Sarajevo Intl", "prior": "2", "obsTime": "2018-09-17T21:00:00Z", "temp": 14.0, "dewp": 12.0, "wspd": 5, "wdir": 120, "cover": "CAVOK", "visib": 6.21, "fltcat": "VFR", "altim": 1023.0, "rawOb": "LQSA 172100Z 12005KT CAVOK 14/12 Q1023 NOSIG"}, "geometry": {"type": "Point", "coordinates": [18.329, 43.824]}}, {"type": "Feature", "properties": {"id": "LEXJ", "site": "Santander Arpt", "prior": "4", "obsTime": "2018-09-17T21:00:00Z", "temp": 20.0, "dewp": 16.0, "wspd": 2, "wdir": 140, "cover": "SCT", "visib": 6.21, "fltcat": "VFR", "altim": 1016.0, "rawOb": "LEXJ 172100Z 14002KT 9999 FEW030TCU SCT086 20/16 Q1016"}, "geometry": {"type": "Point", "coordinates": [-3.822, 43.427]}}, {"type": "Feature", "properties": {"id": "EDDR", "site": "Saarbrucken Arpt", "prior": "4", "obsTime": "2018-09-17T20:50:00Z", "temp": 17.0, "dewp": 10.0, "wspd": 5, "wdir": 80, "cover": "CAVOK", "visib": 6.21, "fltcat": "VFR", "altim": 1017.0, "rawOb": "EDDR 172050Z 08005KT CAVOK 17/10 Q1017"}, "geometry": {"type": "Point", "coordinates": [7.111, 49.215]}}, {"type": "Feature", "properties": {"id": "LEPP", "site": "Pamplona Arpt", "prior": "4", "obsTime": "2018-09-17T21:00:00Z", "temp": 24.0, "dewp": 12.0, "wspd": 5, "wdir": 130, "ceil": 45, "cover": "BKN", "visib": 6.21, "fltcat": "VFR", "altim": 1018.0, "rawOb": "LEPP 172100Z 13005KT 100V170 9999 BKN045 24/12 Q1018"}, "geometry": {"type": "Point", "coordinates": [-1.647, 42.771]}}, {"type": "Feature", "properties": {"id": "DAOO", "site": "Oran/Es Senia Arpt", "prior": "3", "obsTime": "2018-09-17T21:00:00Z", "temp": 27.0, "dewp": 16.0, "wspd": 10, "wdir": 220, "cover": "FEW", "visib": 6.21, "fltcat": "VFR", "altim": 1015.0, "rawOb": "DAOO 172100Z 22010KT 9999 FEW023CB 27/16 Q1015"}, "geometry": {"type": "Point", "coordinates": [-0.62, 35.623]}}, {"type": "Feature", "properties": {"id": "EDDN", "site": "Nurnberg Arpt", "prior": "3", "obsTime": "2018-09-17T20:50:00Z", "temp": 17.0, "dewp": 9.0, "wspd": 6, "wdir": 100, "cover": "CAVOK", "visib": 6.21, "fltcat": "VFR", "altim": 1019.0, "rawOb": "EDDN 172050Z 10006KT CAVOK 17/09 Q1019"}, "geometry": {"type": "Point", "coordinates": [11.081, 49.498]}}, {"type": "Feature", "properties": {"id": "LEMH", "site": "Mahon/Menorca Arpt", "prior": "3", "obsTime": "2018-09-17T21:00:00Z", "temp": 24.0, "dewp": 23.0, "wspd": 5, "wdir": 60, "cover": "FEW", "visib": 6.21, "fltcat": "VFR", "altim": 1017.0, "rawOb": "LEMH 172100Z 06005KT 9999 FEW019 24/23 Q1017"}, "geometry": {"type": "Point", "coordinates": [4.218, 39.863]}}, {"type": "Feature", "properties": {"id": "LEMD", "site": "Madrid/Barajas Arpt", "prior": "0", "obsTime": "2018-09-17T21:00:00Z", "temp": 21.0, "dewp": 14.0, "wspd": 5, "wdir": 90, "cover": "SCT", "visib": 6.21, "fltcat": "VFR", "altim": 1018.0, "rawOb": "LEMD 172100Z 09005KT 030V150 9999 FEW060CB SCT080 21/14 Q1018 BECMG NSC"}, "geometry": {"type": "Point", "coordinates": [-3.564, 40.486]}}, {"type": "Feature", "properties": {"id": "LSZA", "site": "Lugano Arpt", "prior": "4", "obsTime": "2018-09-17T20:50:00Z", "temp": 19.0, "dewp": 18.0, "wspd": 2, "wdir": 0, "ceil": 110, "cover": "BKN", "visib": 4.97, "fltcat": "MVFR", "altim": 1022.0, "wx": "-RA VCTS", "rawOb": "LSZA 172050Z AUTO VRB02KT 8000 -RA VCTS FEW050CB SCT090 BKN110 19/18 Q1022"}, "geometry": {"type": "Point", "coordinates": [8.91, 46.004]}}, {"type": "Feature", "properties": {"id": "EDDP", "site": "Leipzig/Halle Arpt", "prior": "3", "obsTime": "2018-09-17T20:50:00Z", "temp": 21.0, "dewp": 8.0, "wspd": 7, "wdir": 90, "cover": "CAVOK", "visib": 6.21, "fltcat": "VFR", "altim": 1018.0, "rawOb": "EDDP 172050Z 09007KT CAVOK 21/08 Q1018 NOSIG"}, "geometry": {"type": "Point", "coordinates": [12.23, 51.42]}}, {"type": "Feature", "properties": {"id": "EYKA", "site": "Kaunas Arpt", "prior": "5", "obsTime": "2018-09-17T21:20:00Z", "temp": 14.0, "dewp": 9.0, "wspd": 3, "wdir": 270, "cover": "CAVOK", "visib": 6.21, "fltcat": "VFR", "altim": 1018.0, "rawOb": "EYKA 172120Z 27003KT CAVOK 14/09 Q1018"}, "geometry": {"type": "Point", "coordinates": [24.082, 54.964]}}, {"type": "Feature", "properties": {"id": "EDDV", "site": "Hannover Arpt", "prior": "3", "obsTime": "2018-09-17T20:50:00Z", "temp": 16.0, "dewp": 10.0, "wspd": 2, "wdir": 0, "cover": "CAVOK", "visib": 6.21, "fltcat": "VFR", "altim": 1016.0, "rawOb": "EDDV 172050Z VRB02KT CAVOK 16/10 Q1016 NOSIG"}, "geometry": {"type": "Point", "coordinates": [9.69, 52.46]}}, {"type": "Feature", "properties": {"id": "LSGG", "site": "Geneva/Cointrin Arpt", "prior": "1", "obsTime": "2018-09-17T20:50:00Z", "temp": 18.0, "dewp": 13.0, "wspd": 2, "wdir": 310, "cover": "CAVOK", "visib": 6.21, "fltcat": "VFR", "altim": 1018.0, "rawOb": "LSGG 172050Z 31002KT CAVOK 18/13 Q1018 NOSIG"}, "geometry": {"type": "Point", "coordinates": [6.111, 46.237]}}, {"type": "Feature", "properties": {"id": "EDDW", "site": "Bremen Arpt", "prior": "3", "obsTime": "2018-09-17T20:50:00Z", "temp": 14.0, "dewp": 10.0, "wspd": 2, "wdir": 120, "cover": "CAVOK", "visib": 6.21, "fltcat": "VFR", "altim": 1016.0, "rawOb": "EDDW 172050Z 12002KT CAVOK 14/10 Q1016 NOSIG"}, "geometry": {"type": "Point", "coordinates": [8.788, 53.047]}}, {"type": "Feature", "properties": {"id": "EBLG", "site": "Bierset/Liege Arpt", "prior": "4", "obsTime": "2018-09-17T20:50:00Z", "temp": 19.0, "dewp": 8.0, "wspd": 7, "wdir": 130, "cover": "CAVOK", "visib": 6.21, "fltcat": "VFR", "altim": 1015.0, "rawOb": "EBLG 172050Z 13007KT CAVOK 19/08 Q1015 NOSIG"}, "geometry": {"type": "Point", "coordinates": [5.445, 50.641]}}, {"type": "Feature", "properties": {"id": "EDDT", "site": "Berlin/Tegel Arpt", "prior": "0", "obsTime": "2018-09-17T20:50:00Z", "temp": 16.0, "dewp": 9.0, "wspd": 1, "wdir": 0, "cover": "CAVOK", "visib": 6.21, "fltcat": "VFR", "altim": 1018.0, "rawOb": "EDDT 172050Z VRB01KT CAVOK 16/09 Q1018 NOSIG"}, "geometry": {"type": "Point", "coordinates": [13.293, 52.559]}}, {"type": "Feature", "properties": {"id": "EETN", "site": "Tallin Arpt", "prior": "3", "obsTime": "2018-09-17T21:20:00Z", "temp": 13.0, "dewp": 9.0, "wspd": 15, "wdir": 300, "cover": "SCT", "visib": 6.21, "fltcat": "VFR", "altim": 1010.0, "rawOb": "EETN 172120Z 30015KT 9999 SCT023 13/09 Q1010 NOSIG"}, "geometry": {"type": "Point", "coordinates": [24.827, 59.413]}}, {"type": "Feature", "properties": {"id": "LPPD", "site": "Ponta Delgada/Paulo", "prior": "3", "obsTime": "2018-09-17T21:00:00Z", "temp": 20.0, "dewp": 19.0, "wspd": 13, "wdir": 10, "cover": "SCT", "visib": 6.21, "fltcat": "VFR", "altim": 1016.0, "wx": "-SHRA", "rawOb": "LPPD 172100Z 01013KT 340V040 9999 -SHRA FEW012 FEW018TCU SCT040 20/19 Q1016"}, "geometry": {"type": "Point", "coordinates": [-25.696, 37.742]}}, {"type": "Feature", "properties": {"id": "GEML", "site": "Melilla Arpt", "prior": "4", "obsTime": "2018-09-17T21:00:00Z", "temp": 25.0, "dewp": 23.0, "wspd": 3, "wdir": 280, "cover": "CLR", "visib": 6.21, "fltcat": "VFR", "altim": 1015.0, "rawOb": "GEML 172100Z AUTO 28003KT 230V310 9999 NCD 25/23 Q1015"}, "geometry": {"type": "Point", "coordinates": [-2.957, 35.281]}}, {"type": "Feature", "properties": {"id": "EDDK", "site": "Koln-Bonn Arpt", "prior": "4", "obsTime": "2018-09-17T20:50:00Z", "temp": 20.0, "dewp": 7.0, "wspd": 3, "wdir": 110, "cover": "CAVOK", "visib": 6.21, "fltcat": "VFR", "altim": 1016.0, "rawOb": "EDDK 172050Z 11003KT 060V170 CAVOK 20/07 Q1016 NOSIG"}, "geometry": {"type": "Point", "coordinates": [7.146, 50.868]}}, {"type": "Feature", "properties": {"id": "EDDH", "site": "Hamburg Arpt", "prior": "2", "obsTime": "2018-09-17T20:50:00Z", "temp": 14.0, "dewp": 11.0, "wspd": 1, "wdir": 0, "cover": "CAVOK", "visib": 6.21, "fltcat": "VFR", "altim": 1016.0, "rawOb": "EDDH 172050Z VRB01KT CAVOK 14/11 Q1016 NOSIG"}, "geometry": {"type": "Point", "coordinates": [9.995, 53.632]}}, {"type": "Feature", "properties": {"id": "EDDL", "site": "Dusseldorf Intl", "prior": "3", "obsTime": "2018-09-17T20:50:00Z", "temp": 19.0, "dewp": 8.0, "wspd": 7, "wdir": 150, "cover": "CAVOK", "visib": 6.21, "fltcat": "VFR", "altim": 1015.0, "rawOb": "EDDL 172050Z 15007KT CAVOK 19/08 Q1015 NOSIG"}, "geometry": {"type": "Point", "coordinates": [6.769, 51.287]}}, {"type": "Feature", "properties": {"id": "LSZB", "site": "Bern Arpt", "prior": "4", "obsTime": "2018-09-17T20:50:00Z", "temp": 16.0, "dewp": 16.0, "wspd": 5, "wdir": 110, "cover": "CAVOK", "visib": 6.21, "fltcat": "VFR", "altim": 1019.0, "rawOb": "LSZB 172050Z AUTO 11005KT 090V150 CAVOK 16/16 Q1019"}, "geometry": {"type": "Point", "coordinates": [7.498, 46.913]}}, {"type": "Feature", "properties": {"id": "LEVX", "site": "Vigo/Peinador Arpt", "prior": "3", "obsTime": "2018-09-17T21:00:00Z", "temp": 16.0, "dewp": 15.0, "wspd": 0, "wdir": 0, "ceil": 7, "cover": "OVC", "visib": 6.21, "fltcat": "IFR", "altim": 1017.0, "wx": "BCFG", "rawOb": "LEVX 172100Z 00000KT 9999 2000NW BCFG SCT004 OVC007 16/15 Q1017 TEMPO 1500 BCFG BKN005"}, "geometry": {"type": "Point", "coordinates": [-8.627, 42.23]}}, {"type": "Feature", "properties": {"id": "LICT", "site": "Trapani/Birgi Arpt", "prior": "4", "obsTime": "2018-09-17T20:55:00Z", "temp": 23.0, "dewp": 22.0, "wspd": 3, "wdir": 100, "cover": "FEW", "visib": 6.21, "fltcat": "VFR", "altim": 1019.0, "rawOb": "LICT 172055Z 10003KT 9999 FEW010 23/22 Q1019"}, "geometry": {"type": "Point", "coordinates": [12.49, 37.91]}}, {"type": "Feature", "properties": {"id": "GMTN", "site": "Tetouan/Sania Rmel A", "prior": "5", "obsTime": "2018-09-17T21:00:00Z", "temp": 24.0, "dewp": 21.0, "wspd": 6, "wdir": 70, "ceil": 6, "cover": "BKN", "visib": 3.11, "fltcat": "IFR", "altim": 1015.0, "rawOb": "GMTN 172100Z 07006KT 5000 BKN006 SCT016 24/21 Q1015 NOSIG"}, "geometry": {"type": "Point", "coordinates": [-5.32, 35.594]}}, {"type": "Feature", "properties": {"id": "EYPA", "site": "Palanga Intl", "prior": "5", "obsTime": "2018-09-17T21:20:00Z", "temp": 17.0, "dewp": 15.0, "wspd": 5, "wdir": 280, "ceil": 12, "cover": "BKN", "visib": 6.21, "fltcat": "MVFR", "altim": 1018.0, "rawOb": "EYPA 172120Z 28005KT 220V340 9999 BKN012 17/15 Q1018"}, "geometry": {"type": "Point", "coordinates": [21.093, 55.971]}}, {"type": "Feature", "properties": {"id": "LFMN", "site": "Nice/Cote DAzur Arpt", "prior": "3", "obsTime": "2018-09-17T21:00:00Z", "temp": 22.0, "dewp": 19.0, "wspd": 5, "wdir": 320, "cover": "CAVOK", "visib": 6.21, "fltcat": "VFR", "altim": 1019.0, "rawOb": "LFMN 172100Z 32005KT CAVOK 22/19 Q1019 NOSIG"}, "geometry": {"type": "Point", "coordinates": [7.215, 43.66]}}, {"type": "Feature", "properties": {"id": "ULMM", "site": "Murmansk Arpt", "prior": "0", "obsTime": "2018-09-17T21:00:00Z", "temp": 7.0, "dewp": 4.0, "wspd": 6, "wdir": 250, "ceil": 40, "cover": "BKN", "visib": 6.21, "fltcat": "VFR", "altim": 994.0, "rawOb": "ULMM 172100Z 25003MPS 9999 BKN040CB 07/04 Q0994 R31/290155 NOSIG RMK QFE739"}, "geometry": {"type": "Point", "coordinates": [32.75, 68.783]}}, {"type": "Feature", "properties": {"id": "LEMG", "site": "Malaga Arpt", "prior": "4", "obsTime": "2018-09-17T21:00:00Z", "temp": 25.0, "dewp": 22.0, "wspd": 2, "wdir": 0, "cover": "SCT", "visib": 6.21, "fltcat": "VFR", "altim": 1015.0, "rawOb": "LEMG 172100Z VRB02KT 9999 FEW015 SCT025 25/22 Q1015 NOSIG"}, "geometry": {"type": "Point", "coordinates": [-4.499, 36.674]}}, {"type": "Feature", "properties": {"id": "EBCI", "site": "Charleroi Arpt", "prior": "5", "obsTime": "2018-09-17T20:50:00Z", "temp": 18.0, "dewp": 7.0, "wspd": 6, "wdir": 150, "cover": "CAVOK", "visib": 6.21, "fltcat": "VFR", "altim": 1015.0, "rawOb": "EBCI 172050Z 15006KT 080V200 CAVOK 18/07 Q1015 NOSIG"}, "geometry": {"type": "Point", "coordinates": [4.452, 50.46]}}, {"type": "Feature", "properties": {"id": "DABB", "site": "Annaba Arpt", "prior": "3", "obsTime": "2018-09-17T21:00:00Z", "temp": 26.0, "dewp": 20.0, "wspd": 0, "wdir": 0, "cover": "SCT", "visib": 6.21, "fltcat": "VFR", "altim": 1016.0, "rawOb": "DABB 172100Z 00000KT 9999 FEW026 SCT040 26/20 Q1016"}, "geometry": {"type": "Point", "coordinates": [7.812, 36.825]}}, {"type": "Feature", "properties": {"id": "DAAG", "site": "Algiers Intl Arpt", "prior": "1", "obsTime": "2018-09-17T21:00:00Z", "temp": 25.0, "dewp": 18.0, "wspd": 11, "wdir": 230, "ceil": 80, "cover": "BKN", "visib": 4.97, "fltcat": "MVFR", "altim": 1020.0, "wx": "-RA", "rawOb": "DAAG 172100Z 23011KT 8000 -RA FEW020 FEW026CB SCT040 BKN080 25/18 Q1020"}, "geometry": {"type": "Point", "coordinates": [3.216, 36.694]}}, {"type": "Feature", "properties": {"id": "EKYT", "site": "Aalborg Arpt", "prior": "2", "obsTime": "2018-09-17T20:50:00Z", "temp": 16.0, "dewp": 15.0, "wspd": 5, "wdir": 190, "ceil": 50, "cover": "BKN", "altim": 1013.0, "rawOb": "EKYT 172050Z AUTO 19005KT 9999NDV FEW015/// BKN050/// 16/15 Q1013 TEMPO BKN012"}, "geometry": {"type": "Point", "coordinates": [9.848, 57.095]}}, {"type": "Feature", "properties": {"id": "LEZG", "site": "Zaragoza Arpt", "prior": "3", "obsTime": "2018-09-17T21:00:00Z", "temp": 25.0, "dewp": 12.0, "wspd": 5, "wdir": 100, "cover": "SCT", "visib": 6.21, "fltcat": "VFR", "altim": 1016.0, "rawOb": "LEZG 172100Z 10005KT 070V130 9999 FEW040 SCT085 25/12 Q1016"}, "geometry": {"type": "Point", "coordinates": [-1.025, 41.663]}}, {"type": "Feature", "properties": {"id": "UUOO", "site": "Voronez Intl", "prior": "2", "obsTime": "2018-09-17T21:00:00Z", "temp": 7.0, "dewp": 4.0, "wspd": 6, "wdir": 290, "cover": "CAVOK", "visib": 6.21, "fltcat": "VFR", "altim": 1019.0, "rawOb": "UUOO 172100Z 29003MPS CAVOK 07/04 Q1019 R30/090070 NOSIG RMK QFE751"}, "geometry": {"type": "Point", "coordinates": [39.231, 51.814]}}, {"type": "Feature", "properties": {"id": "LPBJ", "site": "Beja Arpt", "prior": "3", "obsTime": "2018-09-17T21:00:00Z", "temp": 23.0, "dewp": 14.0, "wspd": 5, "wdir": 270, "cover": "FEW", "visib": 6.21, "fltcat": "VFR", "altim": 1016.0, "rawOb": "LPBJ 172100Z 27005KT 9999 FEW032 23/14 Q1016"}, "geometry": {"type": "Point", "coordinates": [-7.932, 38.079]}}, {"type": "Feature", "properties": {"id": "ULAA", "site": "Arhangelsk/Talagi Ar", "prior": "1", "obsTime": "2018-09-17T21:00:00Z", "temp": 7.0, "dewp": 7.0, "wspd": 6, "wdir": 240, "cover": "SCT", "visib": 6.21, "fltcat": "VFR", "altim": 1001.0, "rawOb": "ULAA 172100Z 24003MPS 210V280 9999 SCT030 07/07 Q1001 R26/290060 NOSIG RMK QFE749/0999"}, "geometry": {"type": "Point", "coordinates": [40.713, 64.6]}}, {"type": "Feature", "properties": {"id": "ESSA", "site": "Stockholm/Arlanda Ar", "prior": "0", "obsTime": "2018-09-17T20:50:00Z", "temp": 10.0, "dewp": 6.0, "wspd": 6, "wdir": 220, "cover": "CAVOK", "visib": 6.21, "fltcat": "VFR", "altim": 1012.0, "rawOb": "ESSA 172050Z 22006KT CAVOK 10/06 Q1012 NOSIG"}, "geometry": {"type": "Point", "coordinates": [17.926, 59.655]}}, {"type": "Feature", "properties": {"id": "LKKB", "site": "Prague/Kbely Arpt", "prior": "6", "obsTime": "2018-09-17T21:00:00Z", "temp": 18.0, "dewp": 8.0, "wspd": 5, "wdir": 120, "cover": "CAVOK", "visib": 6.21, "fltcat": "VFR", "altim": 1020.0, "rawOb": "LKKB 172100Z 12005KT CAVOK 18/08 Q1020 NOSIG"}, "geometry": {"type": "Point", "coordinates": [14.544, 50.122]}}, {"type": "Feature", "properties": {"id": "LKPD", "site": "Pardubice Arpt", "prior": "3", "obsTime": "2018-09-17T21:00:00Z", "temp": 17.0, "dewp": 11.0, "wspd": 3, "wdir": 90, "cover": "CAVOK", "visib": 6.21, "fltcat": "VFR", "altim": 1020.0, "rawOb": "LKPD 172100Z 09003KT CAVOK 17/11 Q1020"}, "geometry": {"type": "Point", "coordinates": [15.739, 50.014]}}, {"type": "Feature", "properties": {"id": "UBBN", "site": "Nakhchivan Arpt", "prior": "3", "obsTime": "2018-09-17T21:00:00Z", "temp": 22.0, "dewp": 11.0, "wspd": 6, "wdir": 110, "cover": "SCT", "visib": 6.21, "fltcat": "VFR", "altim": 1015.0, "rawOb": "UBBN 172100Z 11006KT 9999 FEW050CB SCT100 22/11 Q1015 R14R/CLRD// NOSIG RMK MT OP QFE686"}, "geometry": {"type": "Point", "coordinates": [45.455, 39.19]}}, {"type": "Feature", "properties": {"id": "EVLA", "site": "Liepaja Intl", "prior": "3", "obsTime": "2018-09-17T20:50:00Z", "temp": 15.0, "dewp": 14.0, "wspd": 3, "wdir": 250, "cover": "FEW", "visib": 6.21, "fltcat": "VFR", "altim": 1016.0, "rawOb": "EVLA 172050Z AUTO 25003KT 9999 FEW230/// 15/14 Q1016"}, "geometry": {"type": "Point", "coordinates": [21.099, 56.518]}}, {"type": "Feature", "properties": {"id": "EFHK", "site": "Helsinki/Vantaa Arpt", "prior": "1", "obsTime": "2018-09-17T20:50:00Z", "temp": 11.0, "dewp": 9.0, "wspd": 11, "wdir": 280, "ceil": 240, "cover": "BKN", "visib": 6.21, "fltcat": "VFR", "altim": 1008.0, "rawOb": "EFHK 172050Z 28011KT 9999 FEW016 BKN240 11/09 Q1008 NOSIG"}, "geometry": {"type": "Point", "coordinates": [24.97, 60.325]}}, {"type": "Feature", "properties": {"id": "EDFH", "site": "Hahn Arpt", "prior": "4", "obsTime": "2018-09-17T20:50:00Z", "temp": 16.0, "dewp": 7.0, "wspd": 8, "wdir": 140, "cover": "CAVOK", "visib": 6.21, "fltcat": "VFR", "altim": 1018.0, "rawOb": "EDFH 172050Z 14008KT CAVOK 16/07 Q1018"}, "geometry": {"type": "Point", "coordinates": [7.266, 49.95]}}, {"type": "Feature", "properties": {"id": "LEBL", "site": "Barcelona/Prat Arpt", "prior": "1", "obsTime": "2018-09-17T21:00:00Z", "temp": 24.0, "dewp": 20.0, "wspd": 4, "wdir": 60, "cover": "FEW", "visib": 6.21, "fltcat": "VFR", "altim": 1018.0, "rawOb": "LEBL 172100Z 06004KT 9999 FEW018 24/20 Q1018 NOSIG"}, "geometry": {"type": "Point", "coordinates": [2.084, 41.296]}}, {"type": "Feature", "properties": {"id": "UDYZ", "site": "Zvartnots Intl", "prior": "3", "obsTime": "2018-09-17T21:00:00Z", "temp": 18.0, "dewp": 7.0, "wspd": 2, "wdir": 0, "cover": "CLR", "visib": 6.21, "fltcat": "VFR", "altim": 1016.0, "rawOb": "UDYZ 172100Z VRB02KT 9999 NSC 18/07 Q1016 R09/000070 NOSIG"}, "geometry": {"type": "Point", "coordinates": [44.399, 40.147]}}, {"type": "Feature", "properties": {"id": "LWSK", "site": "Skopje/Alexander the", "prior": "3", "obsTime": "2018-09-17T21:00:00Z", "temp": 17.0, "dewp": 10.0, "wspd": 5, "wdir": 120, "cover": "CAVOK", "visib": 6.21, "fltcat": "VFR", "altim": 1022.0, "rawOb": "LWSK 172100Z 12005KT CAVOK 17/10 Q1022 NOSIG"}, "geometry": {"type": "Point", "coordinates": [21.621, 41.962]}}, {"type": "Feature", "properties": {"id": "EBOS", "site": "Ostend-Bruges Intl", "prior": "4", "obsTime": "2018-09-17T20:50:00Z", "temp": 15.0, "dewp": 8.0, "wspd": 6, "wdir": 130, "cover": "CAVOK", "visib": 6.21, "fltcat": "VFR", "altim": 1012.0, "rawOb": "EBOS 172050Z 13006KT CAVOK 15/08 Q1012 NOSIG"}, "geometry": {"type": "Point", "coordinates": [2.874, 51.2]}}, {"type": "Feature", "properties": {"id": "ELLX", "site": "Luxembourg/Findel Ar", "prior": "3", "obsTime": "2018-09-17T20:50:00Z", "temp": 21.0, "dewp": 8.0, "wspd": 5, "wdir": 110, "cover": "CAVOK", "visib": 6.21, "fltcat": "VFR", "altim": 1017.0, "rawOb": "ELLX 172050Z 11005KT CAVOK 21/08 Q1017 NOSIG"}, "geometry": {"type": "Point", "coordinates": [6.213, 49.627]}}, {"type": "Feature", "properties": {"id": "DAUO", "site": "El Oued/Guemar Arpt", "prior": "2", "obsTime": "2018-09-17T21:00:00Z", "temp": 32.0, "dewp": 12.0, "wspd": 4, "wdir": 100, "cover": "SCT", "visib": 6.21, "fltcat": "VFR", "altim": 1017.0, "rawOb": "DAUO 172100Z 10004KT 9999 FEW033 SCT100 32/12 Q1017"}, "geometry": {"type": "Point", "coordinates": [6.78, 33.51]}}, {"type": "Feature", "properties": {"id": "LFOK", "site": "Chalons-Vatry(AFB)", "prior": "3", "obsTime": "2018-09-17T21:00:00Z", "temp": 21.0, "dewp": 6.0, "wspd": 6, "wdir": 120, "cover": "CAVOK", "visib": 6.21, "fltcat": "VFR", "altim": 1014.0, "rawOb": "LFOK 172100Z AUTO 12006KT CAVOK 21/06 Q1014 NOSIG"}, "geometry": {"type": "Point", "coordinates": [4.184, 48.777]}}, {"type": "Feature", "properties": {"id": "LJCE", "site": "Cerklje Arpt", "prior": "6", "obsTime": "2018-09-17T21:00:00Z", "temp": 17.0, "dewp": 15.0, "wspd": 0, "wdir": 0, "cover": "CLR", "visib": 6.21, "fltcat": "VFR", "altim": 1021.0, "rawOb": "LJCE 172100Z AUTO 00000KT 9999 NCD 17/15 Q1021"}, "geometry": {"type": "Point", "coordinates": [15.532, 45.9]}}, {"type": "Feature", "properties": {"id": "GMMN", "site": "Casablanca Intl", "prior": "3", "obsTime": "2018-09-17T21:00:00Z", "temp": 23.0, "dewp": 22.0, "wspd": 4, "wdir": 350, "cover": "SCT", "visib": 6.21, "fltcat": "VFR", "altim": 1016.0, "rawOb": "GMMN 172100Z 35004KT 9999 SCT010 23/22 Q1016 NOSIG"}, "geometry": {"type": "Point", "coordinates": [-7.588, 33.368]}}, {"type": "Feature", "properties": {"id": "LFPO", "site": "Paris/Orly Fld", "prior": "1", "obsTime": "2018-09-17T21:00:00Z", "temp": 21.0, "dewp": 8.0, "wspd": 2, "wdir": 160, "cover": "CAVOK", "visib": 6.21, "fltcat": "VFR", "altim": 1013.0, "rawOb": "LFPO 172100Z 16002KT CAVOK 21/08 Q1013 NOSIG"}, "geometry": {"type": "Point", "coordinates": [2.368, 48.725]}}, {"type": "Feature", "properties": {"id": "LFSG", "site": "Epinal-Mirecourt Arp", "prior": "5", "obsTime": "2018-09-17T21:00:00Z", "temp": 16.0, "dewp": 10.0, "wspd": 0, "wdir": 0, "cover": "CAVOK", "visib": 6.21, "fltcat": "VFR", "altim": 1016.0, "rawOb": "LFSG 172100Z AUTO 00000KT CAVOK 16/10 Q1016"}, "geometry": {"type": "Point", "coordinates": [6.07, 48.325]}}, {"type": "Feature", "properties": {"id": "LFMV", "site": "Avignon/Caumont Arpt", "prior": "4", "obsTime": "2018-09-17T21:00:00Z", "temp": 20.0, "dewp": 18.0, "wspd": 3, "wdir": 190, "cover": "SCT", "visib": 6.21, "fltcat": "VFR", "altim": 1019.0, "rawOb": "LFMV 172100Z AUTO 19003KT 9999 FEW041 SCT052 20/18 Q1019"}, "geometry": {"type": "Point", "coordinates": [4.902, 43.906]}}, {"type": "Feature", "properties": {"id": "LFCR", "site": "Rodez/Marcillac Arpt", "prior": "3", "obsTime": "2018-09-17T21:00:00Z", "temp": 19.0, "dewp": 14.0, "wspd": 8, "wdir": 110, "cover": "CAVOK", "visib": 6.21, "fltcat": "VFR", "altim": 1019.0, "rawOb": "LFCR 172100Z AUTO 11008KT CAVOK 19/14 Q1019 NOSIG"}, "geometry": {"type": "Point", "coordinates": [2.482, 44.408]}}, {"type": "Feature", "properties": {"id": "EFOU", "site": "Oulu Arpt", "prior": "3", "obsTime": "2018-09-17T20:50:00Z", "temp": 9.0, "dewp": 8.0, "wspd": 5, "wdir": 210, "ceil": 23, "cover": "OVC", "visib": 6.21, "fltcat": "MVFR", "altim": 1001.0, "wx": "-RA", "rawOb": "EFOU 172050Z AUTO 21005KT 9999 -RA FEW019/// BKN023/// OVC045/// 09/08 Q1001"}, "geometry": {"type": "Point", "coordinates": [25.356, 64.929]}}, {"type": "Feature", "properties": {"id": "LFRM", "site": "Le Mans/Arnage Arpt", "prior": "3", "obsTime": "2018-09-17T21:00:00Z", "temp": 21.0, "dewp": 14.0, "wspd": 1, "wdir": 0, "cover": "CAVOK", "visib": 6.21, "fltcat": "VFR", "altim": 1012.0, "rawOb": "LFRM 172100Z AUTO VRB01KT CAVOK 21/14 Q1012 NOSIG"}, "geometry": {"type": "Point", "coordinates": [0.201, 47.947]}}, {"type": "Feature", "properties": {"id": "LFLP", "site": "Annecy/Meythet Arpt", "prior": "6", "obsTime": "2018-09-17T21:00:00Z", "temp": 18.0, "dewp": 13.0, "wspd": 3, "wdir": 40, "cover": "CAVOK", "visib": 6.21, "fltcat": "VFR", "altim": 1019.0, "rawOb": "LFLP 172100Z AUTO 04003KT CAVOK 18/13 Q1019"}, "geometry": {"type": "Point", "coordinates": [6.098, 45.928]}}, {"type": "Feature", "properties": {"id": "LYKV", "site": "Kraljevo/Ladevci Arp", "prior": "3", "obsTime": "2018-09-17T21:00:00Z", "temp": 13.0, "dewp": 12.0, "wspd": 1, "wdir": 0, "cover": "CAVOK", "visib": 6.21, "fltcat": "VFR", "altim": 1023.0, "rawOb": "LYKV 172100Z VRB01KT CAVOK 13/12 Q1023 NOSIG"}, "geometry": {"type": "Point", "coordinates": [20.587, 43.817]}}, {"type": "Feature", "properties": {"id": "EDNY", "site": "Friedrichshafen Arpt", "prior": "3", "obsTime": "2018-09-17T20:50:00Z", "temp": 15.0, "dewp": 12.0, "wspd": 2, "wdir": 0, "cover": "CLR", "visib": 6.21, "fltcat": "VFR", "altim": 1019.0, "rawOb": "EDNY 172050Z AUTO VRB02KT 9999 // NCD 15/12 Q1019"}, "geometry": {"type": "Point", "coordinates": [9.513, 47.672]}}, {"type": "Feature", "properties": {"id": "LFKB", "site": "Bastia/Poretta Arpt", "prior": "2", "obsTime": "2018-09-17T21:00:00Z", "temp": 20.0, "dewp": 19.0, "wspd": 5, "wdir": 190, "cover": "CAVOK", "visib": 6.21, "fltcat": "VFR", "altim": 1019.0, "rawOb": "LFKB 172100Z AUTO 19005KT 160V220 CAVOK 20/19 Q1019 NOSIG"}, "geometry": {"type": "Point", "coordinates": [9.484, 42.552]}}, {"type": "Feature", "properties": {"id": "LEAM", "site": "Almeria Arpt", "prior": "3", "obsTime": "2018-09-17T21:00:00Z", "temp": 26.0, "dewp": 21.0, "wspd": 8, "wdir": 320, "cover": "CAVOK", "visib": 6.21, "fltcat": "VFR", "altim": 1014.0, "rawOb": "LEAM 172100Z AUTO 32008KT 290V350 CAVOK 26/21 Q1014"}, "geometry": {"type": "Point", "coordinates": [-2.373, 36.843]}}, {"type": "Feature", "properties": {"id": "LYTV", "site": "Tivat Arpt", "prior": "2", "obsTime": "2018-09-17T21:00:00Z", "temp": 19.0, "dewp": 17.0, "wspd": 2, "wdir": 0, "cover": "CAVOK", "visib": 6.21, "fltcat": "VFR", "altim": 1019.0, "rawOb": "LYTV 172100Z VRB02KT CAVOK 19/17 Q1019"}, "geometry": {"type": "Point", "coordinates": [18.734, 42.405]}}, {"type": "Feature", "properties": {"id": "UDSG", "site": "Shirak Intl", "prior": "4", "obsTime": "2018-09-17T21:00:00Z", "temp": 13.0, "dewp": 5.0, "wspd": 7, "wdir": 10, "cover": "CLR", "visib": 5.59, "fltcat": "VFR", "altim": 1021.0, "rawOb": "UDSG 172100Z 01007KT 9000 NSC 13/05 Q1021 R02/CLRD70 NOSIG"}, "geometry": {"type": "Point", "coordinates": [43.859, 40.75]}}, {"type": "Feature", "properties": {"id": "EICK", "site": "Cork Arpt", "prior": "3", "obsTime": "2018-09-17T21:00:00Z", "temp": 16.0, "dewp": 16.0, "wspd": 17, "wdir": 140, "ceil": 1, "cover": "OVC", "visib": 1.24, "fltcat": "LIFR", "altim": 993.0, "wx": "-RA -DZ", "rawOb": "EICK 172100Z 14017KT 2000 -RADZ OVC001 16/16 Q0993 TEMPO 1000"}, "geometry": {"type": "Point", "coordinates": [-8.492, 51.843]}}, {"type": "Feature", "properties": {"id": "LIRS", "site": "Grosseto(AFB)", "prior": "3", "obsTime": "2018-09-17T20:55:00Z", "temp": 23.0, "dewp": 21.0, "wspd": 4, "wdir": 90, "cover": "SCT", "visib": 6.21, "fltcat": "VFR", "altim": 1019.0, "rawOb": "LIRS 172055Z 09004KT 9999 SCT020 SCT060 23/21 Q1019"}, "geometry": {"type": "Point", "coordinates": [11.07, 42.76]}}, {"type": "Feature", "properties": {"id": "LEGE", "site": "Gerona/Costa Brava A", "prior": "3", "obsTime": "2018-09-17T21:00:00Z", "temp": 19.0, "dewp": 17.0, "wspd": 0, "wdir": 0, "cover": "FEW", "visib": 6.21, "fltcat": "VFR", "altim": 1018.0, "rawOb": "LEGE 172100Z 00000KT 9999 FEW030 19/17 Q1018"}, "geometry": {"type": "Point", "coordinates": [2.762, 41.906]}}, {"type": "Feature", "properties": {"id": "EKBI", "site": "Billund Arpt", "prior": "4", "obsTime": "2018-09-17T20:50:00Z", "temp": 17.0, "dewp": 16.0, "wspd": 6, "wdir": 190, "ceil": 8, "cover": "OVC", "fltcat": "IFR", "altim": 1015.0, "rawOb": "EKBI 172050Z AUTO 19006KT 9999NDV OVC008/// 17/16 Q1015"}, "geometry": {"type": "Point", "coordinates": [9.156, 55.74]}}, {"type": "Feature", "properties": {"id": "DAOB", "site": "Tiaret/Bou Chekif Ar", "prior": "2", "obsTime": "2018-09-17T21:00:00Z", "temp": 17.0, "dewp": 15.0, "wspd": 5, "wdir": 80, "cover": "SCT", "visib": 6.21, "fltcat": "VFR", "altim": 1022.0, "rawOb": "DAOB 172100Z 08005KT 9999 FEW026 SCT090 17/15 Q1022"}, "geometry": {"type": "Point", "coordinates": [1.466, 35.342]}}, {"type": "Feature", "properties": {"id": "DAOV", "site": "Mascara/Ghriss Arpt", "prior": "4", "obsTime": "2018-09-17T21:00:00Z", "temp": 22.0, "dewp": 16.0, "wspd": 4, "wdir": 170, "cover": "SCT", "visib": 6.21, "fltcat": "VFR", "altim": 1019.0, "rawOb": "DAOV 172100Z 17004KT 9999 FEW030 SCT233 22/16 Q1019"}, "geometry": {"type": "Point", "coordinates": [0.147, 35.208]}}, {"type": "Feature", "properties": {"id": "LFOV", "site": "Laval/Entrammes Arpt", "prior": "4", "obsTime": "2018-09-17T21:00:00Z", "temp": 21.0, "dewp": 13.0, "wspd": 7, "wdir": 230, "cover": "CAVOK", "visib": 6.21, "fltcat": "VFR", "altim": 1012.0, "rawOb": "LFOV 172100Z AUTO 23007KT CAVOK 21/13 Q1012"}, "geometry": {"type": "Point", "coordinates": [-0.743, 48.031]}}, {"type": "Feature", "properties": {"id": "EFKI", "site": "Kajaani Arpt", "prior": "3", "obsTime": "2018-09-17T20:50:00Z", "temp": 9.0, "dewp": 7.0, "wspd": 8, "wdir": 290, "ceil": 38, "cover": "OVC", "visib": 6.21, "fltcat": "VFR", "altim": 1001.0, "rawOb": "EFKI 172050Z AUTO 29008KT 260V320 9999 FEW012 BKN038 BKN053 OVC067 09/07 Q1001"}, "geometry": {"type": "Point", "coordinates": [27.681, 64.285]}}, {"type": "Feature", "properties": {"id": "DAON", "site": "Tlemcen/Zenata Arpt", "prior": "4", "obsTime": "2018-09-17T21:00:00Z", "temp": 27.0, "dewp": 14.0, "wspd": 12, "wdir": 160, "cover": "SCT", "visib": 6.21, "fltcat": "VFR", "altim": 1015.0, "rawOb": "DAON 172100Z 16012KT 9999 SCT026 SCT100 27/14 Q1015"}, "geometry": {"type": "Point", "coordinates": [-1.457, 35.013]}}, {"type": "Feature", "properties": {"id": "EKCH", "site": "Kobenhavn Intl", "prior": "1", "obsTime": "2018-09-17T20:50:00Z", "temp": 16.0, "dewp": 13.0, "wspd": 5, "wdir": 210, "cover": "CAVOK", "visib": 6.21, "fltcat": "VFR", "altim": 1016.0, "rawOb": "EKCH 172050Z 21005KT 190V260 CAVOK 16/13 Q1016 NOSIG"}, "geometry": {"type": "Point", "coordinates": [12.655, 55.618]}}, {"type": "Feature", "properties": {"id": "DAAV", "site": "Jijel/Achouat Arpt", "prior": "4", "obsTime": "2018-09-17T21:00:00Z", "temp": 26.0, "dewp": 20.0, "wspd": 3, "wdir": 140, "ceil": 90, "cover": "BKN", "visib": 6.21, "fltcat": "VFR", "altim": 1017.0, "rawOb": "DAAV 172100Z 14003KT 9999 FEW030 BKN090 26/20 Q1017"}, "geometry": {"type": "Point", "coordinates": [5.874, 36.793]}}, {"type": "Feature", "properties": {"id": "LFSB", "site": "Basel/Euro Arpt", "prior": "3", "obsTime": "2018-09-17T21:00:00Z", "temp": 17.0, "dewp": 13.0, "wspd": 3, "wdir": 190, "cover": "CAVOK", "visib": 6.21, "fltcat": "VFR", "altim": 1017.0, "rawOb": "LFSB 172100Z 19003KT CAVOK 17/13 Q1017 NOSIG"}, "geometry": {"type": "Point", "coordinates": [7.521, 47.601]}}, {"type": "Feature", "properties": {"id": "EKKA", "site": "Karup Arpt", "prior": "5", "obsTime": "2018-09-17T21:19:00Z", "temp": 17.0, "dewp": 16.0, "wspd": 8, "wdir": 190, "ceil": 9, "cover": "OVC", "fltcat": "IFR", "altim": 1013.0, "rawOb": "EKKA 172119Z AUTO 19008KT 170V260 9999NDV OVC009/// 17/16 Q1013"}, "geometry": {"type": "Point", "coordinates": [9.104, 56.297]}}, {"type": "Feature", "properties": {"id": "LFBZ", "site": "Biarritz/Parme Arpt", "prior": "4", "obsTime": "2018-09-17T21:00:00Z", "temp": 24.0, "dewp": 18.0, "wspd": 4, "wdir": 240, "visib": 6.21, "altim": 1015.0, "rawOb": "LFBZ 172100Z AUTO 24004KT 170V290 9999 ///CB 24/18 Q1015 TEMPO VRB15G25KT -TSRA BECMG NSC"}, "geometry": {"type": "Point", "coordinates": [-1.527, 43.469]}}, {"type": "Feature", "properties": {"id": "LFMC", "site": "Le Luc Arpt", "prior": "6", "obsTime": "2018-09-17T21:00:00Z", "temp": 20.0, "dewp": 18.0, "wspd": 0, "wdir": 0, "visib": 6.21, "altim": 1020.0, "rawOb": "LFMC 172100Z AUTO 00000KT 9999 ////// 20/18 Q1020"}, "geometry": {"type": "Point", "coordinates": [6.387, 43.384]}}, {"type": "Feature", "properties": {"id": "GMTA", "site": "Al Hoceima/Idrissi A", "prior": "3", "obsTime": "2018-09-17T21:00:00Z", "temp": 25.0, "dewp": 23.0, "wspd": 2, "wdir": 20, "cover": "SCT", "visib": 4.97, "fltcat": "MVFR", "altim": 1014.0, "rawOb": "GMTA 172100Z 02002KT 8000 SCT030 SCT100 25/23 Q1014 NOSIG"}, "geometry": {"type": "Point", "coordinates": [-3.839, 35.177]}}, {"type": "Feature", "properties": {"id": "LFSN", "site": "Nancy/Essey Arpt", "prior": "2", "obsTime": "2018-09-17T21:00:00Z", "temp": 17.0, "dewp": 11.0, "wspd": 5, "wdir": 90, "cover": "CAVOK", "visib": 6.21, "fltcat": "VFR", "altim": 1016.0, "rawOb": "LFSN 172100Z AUTO 09005KT CAVOK 17/11 Q1016"}, "geometry": {"type": "Point", "coordinates": [6.231, 48.691]}}, {"type": "Feature", "properties": {"id": "EFKU", "site": "Kuopio Arpt", "prior": "2", "obsTime": "2018-09-17T20:50:00Z", "temp": 9.0, "dewp": 8.0, "wspd": 10, "wdir": 300, "ceil": 4, "cover": "OVC", "visib": 6.21, "fltcat": "LIFR", "altim": 1002.0, "rawOb": "EFKU 172050Z AUTO 30010KT 9999 OVC004 09/08 Q1002"}, "geometry": {"type": "Point", "coordinates": [27.801, 63.003]}}, {"type": "Feature", "properties": {"id": "LETO", "site": "Torrejon (AFB)", "prior": "6", "obsTime": "2018-09-17T21:00:00Z", "temp": 21.0, "dewp": 14.0, "wspd": 7, "wdir": 110, "cover": "FEW", "visib": 6.21, "fltcat": "VFR", "altim": 1018.0, "rawOb": "LETO 172100Z 11007KT 070V150 9999 FEW068CB 21/14 Q1018 NOSIG"}, "geometry": {"type": "Point", "coordinates": [-3.452, 40.492]}}, {"type": "Feature", "properties": {"id": "EDLP", "site": "Paderborn Arpt", "prior": "4", "obsTime": "2018-09-17T20:50:00Z", "temp": 19.0, "dewp": 8.0, "wspd": 6, "wdir": 170, "cover": "CAVOK", "visib": 6.21, "fltcat": "VFR", "altim": 1017.0, "rawOb": "EDLP 172050Z 17006KT CAVOK 19/08 Q1017"}, "geometry": {"type": "Point", "coordinates": [8.618, 51.614]}}, {"type": "Feature", "properties": {"id": "LQMO", "site": "Mostar Intl", "prior": "4", "obsTime": "2018-09-17T21:00:00Z", "temp": 19.0, "dewp": 12.0, "wspd": 1, "wdir": 0, "cover": "CAVOK", "visib": 6.21, "fltcat": "VFR", "altim": 1019.0, "rawOb": "LQMO 172100Z VRB01KT CAVOK 19/12 Q1019"}, "geometry": {"type": "Point", "coordinates": [17.845, 43.283]}}, {"type": "Feature", "properties": {"id": "DAOI", "site": "Chlef/Belkaid Arpt", "prior": "3", "obsTime": "2018-09-17T20:00:00Z", "temp": 24.0, "dewp": 18.0, "wspd": 6, "wdir": 50, "ceil": 100, "cover": "BKN", "visib": 6.21, "fltcat": "VFR", "altim": 1018.0, "rawOb": "DAOI 172000Z 05006KT 9999 SCT026 FEW030CB BKN100 24/18 Q1018"}, "geometry": {"type": "Point", "coordinates": [1.337, 36.216]}}, {"type": "Feature", "properties": {"id": "DABT", "site": "Batna/Boulaid Arpt", "prior": "5", "obsTime": "2018-09-17T21:00:00Z", "temp": 22.0, "dewp": 16.0, "wspd": 3, "wdir": 130, "cover": "SCT", "visib": 6.21, "fltcat": "VFR", "altim": 1023.0, "rawOb": "DABT 172100Z 13003KT 9999 SCT026 22/16 Q1023"}, "geometry": {"type": "Point", "coordinates": [6.31, 35.753]}}, {"type": "Feature", "properties": {"id": "UKKM", "site": "Hostomel Arpt", "prior": "5", "obsTime": "2018-09-17T21:00:00Z", "temp": 11.0, "dewp": 7.0, "wspd": 4, "wdir": 200, "cover": "CLR", "visib": 6.21, "fltcat": "VFR", "altim": 1024.0, "rawOb": "UKKM 172100Z AUTO 20002MPS 9999 // NCD 11/07 Q1024"}, "geometry": {"type": "Point", "coordinates": [30.195, 50.597]}}, {"type": "Feature", "properties": {"id": "DAUK", "site": "Touggourt/Madhi Arpt", "prior": "5", "obsTime": "2018-09-17T21:00:00Z", "temp": 31.0, "dewp": 16.0, "wspd": 4, "wdir": 60, "cover": "CAVOK", "visib": 6.21, "fltcat": "VFR", "altim": 1017.0, "rawOb": "DAUK 172100Z 06004KT CAVOK 31/16 Q1017"}, "geometry": {"type": "Point", "coordinates": [6.089, 33.075]}}, {"type": "Feature", "properties": {"id": "LFMH", "site": "St Etienne/Boutheon", "prior": "5", "obsTime": "2018-09-17T21:00:00Z", "temp": 21.0, "dewp": 11.0, "wspd": 6, "wdir": 200, "cover": "CAVOK", "visib": 6.21, "fltcat": "VFR", "altim": 1018.0, "rawOb": "LFMH 172100Z AUTO 20006KT CAVOK 21/11 Q1018"}, "geometry": {"type": "Point", "coordinates": [4.296, 45.541]}}, {"type": "Feature", "properties": {"id": "ORBI", "site": "Baghdad Intl", "prior": "0", "obsTime": "2018-09-17T21:00:00Z", "temp": 29.0, "dewp": 13.0, "wspd": 3, "wdir": 350, "cover": "CLR", "visib": 6.21, "fltcat": "VFR", "altim": 1005.0, "rawOb": "ORBI 172100Z 35003KT 9999 R33R/P2000N NSC 29/13 Q1005 NOSIG"}, "geometry": {"type": "Point", "coordinates": [44.232, 33.263]}}, {"type": "Feature", "properties": {"id": "UBBY", "site": "Zakataly Intl", "prior": "3", "obsTime": "2018-09-17T21:00:00Z", "temp": 21.0, "dewp": 15.0, "wspd": 10, "wdir": 140, "ceil": 100, "cover": "BKN", "visib": 6.21, "fltcat": "VFR", "altim": 1020.0, "rawOb": "UBBY 172100Z 14010KT 9999 SCT050CB BKN100 21/15 Q1020 R33/////// NOSIG RMK MT OP"}, "geometry": {"type": "Point", "coordinates": [46.666, 41.563]}}, {"type": "Feature", "properties": {"id": "LYVR", "site": "Vrsac Arpt", "prior": "4", "obsTime": "2018-09-17T21:00:00Z", "temp": 21.0, "dewp": 11.0, "wspd": 8, "wdir": 120, "cover": "CAVOK", "visib": 6.21, "fltcat": "VFR", "altim": 1022.0, "rawOb": "LYVR 172100Z 12008KT CAVOK 21/11 Q1022 NOSIG"}, "geometry": {"type": "Point", "coordinates": [21.309, 45.146]}}, {"type": "Feature", "properties": {"id": "GMFM", "site": "Meknes/Bassatine Arp", "prior": "5", "obsTime": "2018-09-17T21:00:00Z", "temp": 24.0, "dewp": 19.0, "wspd": 2, "wdir": 260, "cover": "CAVOK", "visib": 6.21, "fltcat": "VFR", "altim": 1017.0, "rawOb": "GMFM 172100Z 26002KT CAVOK 24/19 Q1017 NOSIG"}, "geometry": {"type": "Point", "coordinates": [-5.519, 33.879]}}, {"type": "Feature", "properties": {"id": "DAUB", "site": "Biskra Arpt", "prior": "3", "obsTime": "2018-09-17T21:00:00Z", "temp": 30.0, "dewp": 16.0, "wspd": 3, "wdir": 350, "ceil": 100, "cover": "BKN", "visib": 6.21, "fltcat": "VFR", "altim": 1018.0, "rawOb": "DAUB 172100Z 35003KT 9999 SCT040 BKN100 30/16 Q1018"}, "geometry": {"type": "Point", "coordinates": [5.736, 34.794]}}, {"type": "Feature", "properties": {"id": "EKSP", "site": "Vojens Arpt", "prior": "5", "obsTime": "2018-09-17T20:50:00Z", "temp": 15.0, "dewp": 14.0, "wspd": 5, "wdir": 170, "cover": "SCT", "visib": 4.35, "fltcat": "MVFR", "altim": 1015.0, "rawOb": "EKSP 172050Z 17005KT 7000 FEW014 SCT200 15/14 Q1015"}, "geometry": {"type": "Point", "coordinates": [9.27, 55.22]}}, {"type": "Feature", "properties": {"id": "DABS", "site": "Tebessi Arpt", "prior": "3", "obsTime": "2018-09-17T21:00:00Z", "temp": 22.0, "dewp": 14.0, "wspd": 2, "wdir": 160, "cover": "SCT", "visib": 6.21, "fltcat": "VFR", "altim": 1024.0, "rawOb": "DABS 172100Z 16002KT 9999 FEW033 SCT100 22/14 Q1024"}, "geometry": {"type": "Point", "coordinates": [8.12, 35.43]}}, {"type": "Feature", "properties": {"id": "LFCK", "site": "Castres/Mazamet Arpt", "prior": "5", "obsTime": "2018-09-17T21:00:00Z", "temp": 21.0, "dewp": 14.0, "wspd": 16, "wgst": 27, "wdir": 110, "cover": "CAVOK", "visib": 6.21, "fltcat": "VFR", "altim": 1018.0, "rawOb": "LFCK 172100Z AUTO 11016G27KT CAVOK 21/14 Q1018 NOSIG"}, "geometry": {"type": "Point", "coordinates": [2.289, 43.556]}}, {"type": "Feature", "properties": {"id": "EYVI", "site": "Vilnius Intl", "prior": "2", "obsTime": "2018-09-17T20:50:00Z", "temp": 14.0, "dewp": 10.0, "wspd": 4, "wdir": 220, "cover": "CAVOK", "visib": 6.21, "fltcat": "VFR", "altim": 1018.0, "rawOb": "EYVI 172050Z 22004KT CAVOK 14/10 Q1018 NOSIG"}, "geometry": {"type": "Point", "coordinates": [25.287, 54.636]}}, {"type": "Feature", "properties": {"id": "LIRN", "site": "Naples Intl", "prior": "2", "obsTime": "2018-09-17T20:50:00Z", "temp": 24.0, "dewp": 21.0, "wspd": 3, "wdir": 300, "cover": "CAVOK", "visib": 6.21, "fltcat": "VFR", "altim": 1020.0, "rawOb": "LIRN 172050Z 30003KT 280V360 CAVOK 24/21 Q1020 NOSIG"}, "geometry": {"type": "Point", "coordinates": [14.289, 40.885]}}, {"type": "Feature", "properties": {"id": "LFMD", "site": "Cannes/Mandelieu Arp", "prior": "6", "obsTime": "2018-09-17T21:00:00Z", "temp": 20.0, "dewp": 18.0, "wspd": 2, "wdir": 0, "cover": "CAVOK", "visib": 6.21, "fltcat": "VFR", "altim": 1019.0, "rawOb": "LFMD 172100Z AUTO VRB02KT CAVOK 20/18 Q1019 NOSIG"}, "geometry": {"type": "Point", "coordinates": [6.951, 43.546]}}, {"type": "Feature", "properties": {"id": "EGPK", "site": "Prestwick Intl", "prior": "5", "obsTime": "2018-09-17T20:50:00Z", "temp": 17.0, "dewp": 14.0, "wspd": 19, "wdir": 190, "cover": "SCT", "visib": 6.21, "fltcat": "VFR", "altim": 999.0, "rawOb": "EGPK 172050Z 19019KT 9999 FEW015 SCT025 17/14 Q0999"}, "geometry": {"type": "Point", "coordinates": [-4.58, 55.503]}}, {"type": "Feature", "properties": {"id": "DTTG", "site": "Gabes/Matmata Intl", "prior": "2", "obsTime": "2018-09-17T21:00:00Z", "temp": 27.0, "dewp": 16.0, "wspd": 8, "wdir": 90, "cover": "FEW", "visib": 6.21, "fltcat": "VFR", "altim": 1018.0, "rawOb": "DTTG 172100Z 09008KT 9999 FEW030 27/16 Q1018"}, "geometry": {"type": "Point", "coordinates": [9.918, 33.733]}}, {"type": "Feature", "properties": {"id": "DTTZ", "site": "Tozeur/Nefta Arpt", "prior": "3", "obsTime": "2018-09-17T21:00:00Z", "temp": 31.0, "dewp": 11.0, "wspd": 5, "wdir": 60, "cover": "CAVOK", "visib": 6.21, "fltcat": "VFR", "altim": 1018.0, "rawOb": "DTTZ 172100Z 06005KT CAVOK 31/11 Q1018 NOSIG"}, "geometry": {"type": "Point", "coordinates": [8.105, 33.94]}}, {"type": "Feature", "properties": {"id": "UUBC", "site": "Ugryumovo/Kaluga Gra", "prior": "3", "obsTime": "2018-09-17T21:00:00Z", "temp": 7.0, "dewp": 6.0, "wspd": 4, "wdir": 260, "cover": "CLR", "visib": 6.21, "fltcat": "VFR", "altim": 1018.0, "rawOb": "UUBC 172100Z AUTO 26002MPS 9999 // NSC 07/06 Q1018 RMK QFE747/0996"}, "geometry": {"type": "Point", "coordinates": [36.369, 54.553]}}, {"type": "Feature", "properties": {"id": "LICA", "site": "Lamezia Terme Arpt", "prior": "1", "obsTime": "2018-09-17T20:50:00Z", "temp": 21.0, "dewp": 20.0, "wspd": 3, "wdir": 70, "cover": "FEW", "visib": 6.21, "fltcat": "VFR", "altim": 1020.0, "rawOb": "LICA 172050Z 07003KT 9999 FEW020 21/20 Q1020"}, "geometry": {"type": "Point", "coordinates": [16.242, 38.905]}}, {"type": "Feature", "properties": {"id": "EGJJ", "site": "Jersey Arpt", "prior": "5", "obsTime": "2018-09-17T20:50:00Z", "temp": 19.0, "dewp": 15.0, "wspd": 15, "wdir": 210, "cover": "CLR", "visib": 6.21, "fltcat": "VFR", "altim": 1009.0, "rawOb": "EGJJ 172050Z AUTO 21015KT 9999 NCD 19/15 Q1009"}, "geometry": {"type": "Point", "coordinates": [-2.196, 49.207]}}, {"type": "Feature", "properties": {"id": "GMMB", "site": "Ben Slimane Arpt", "prior": "5", "obsTime": "2018-09-17T21:00:00Z", "temp": 23.0, "dewp": 22.0, "wspd": 5, "wdir": 280, "cover": "CLR", "visib": 1.24, "fltcat": "IFR", "altim": 1016.0, "rawOb": "GMMB 172100Z AUTO 28005KT 220V310 //// R32/P2000N NCD 23/22 Q1016 NOSIG"}, "geometry": {"type": "Point", "coordinates": [-7.221, 33.655]}}, {"type": "Feature", "properties": {"id": "OICI", "site": "Ilan Arpt", "prior": "3", "obsTime": "2018-09-17T21:00:00Z", "temp": 22.0, "dewp": 4.0, "wspd": 4, "wdir": 100, "cover": "CAVOK", "visib": 6.21, "fltcat": "VFR", "altim": 1018.0, "rawOb": "OICI 172100Z 10004KT CAVOK 22/04 Q1018 A3008"}, "geometry": {"type": "Point", "coordinates": [46.404, 33.587]}}, {"type": "Feature", "properties": {"id": "DAAE", "site": "Bejaia Arpt", "prior": "3", "obsTime": "2018-09-17T21:00:00Z", "temp": 25.0, "dewp": 19.0, "wspd": 4, "wdir": 220, "ceil": 90, "cover": "BKN", "visib": 6.21, "fltcat": "VFR", "altim": 1017.0, "rawOb": "DAAE 172100Z 22004KT 9999 FEW046 BKN090 25/19 Q1017"}, "geometry": {"type": "Point", "coordinates": [5.071, 36.713]}}, {"type": "Feature", "properties": {"id": "LIRM", "site": "Grazzanise(AFB)", "prior": "6", "obsTime": "2018-09-17T20:55:00Z", "temp": 21.0, "dewp": 19.0, "wspd": 3, "wdir": 330, "cover": "CAVOK", "visib": 6.21, "fltcat": "VFR", "altim": 1019.0, "rawOb": "LIRM 172055Z 33003KT CAVOK 21/19 Q1019"}, "geometry": {"type": "Point", "coordinates": [14.082, 41.06]}}, {"type": "Feature", "properties": {"id": "EDHI", "site": "Hamburg/Finkenwerder", "prior": "6", "obsTime": "2018-09-17T20:50:00Z", "temp": 15.0, "dewp": 12.0, "wspd": 3, "wdir": 40, "cover": "CLR", "visib": 6.21, "fltcat": "VFR", "altim": 1016.0, "rawOb": "EDHI 172050Z AUTO 04003KT 9999 // NCD 15/12 Q1016"}, "geometry": {"type": "Point", "coordinates": [9.836, 53.534]}}, {"type": "Feature", "properties": {"id": "DTTA", "site": "Tunis/Carthage Intl", "prior": "1", "obsTime": "2018-09-17T21:00:00Z", "temp": 28.0, "dewp": 19.0, "wspd": 2, "wdir": 140, "cover": "SCT", "visib": 6.21, "fltcat": "VFR", "altim": 1017.0, "rawOb": "DTTA 172100Z 14002KT 9999 SCT033 28/19 Q1017 NOSIG"}, "geometry": {"type": "Point", "coordinates": [10.227, 36.851]}}, {"type": "Feature", "properties": {"id": "DAAS", "site": "Setif/Arnat Arpt", "prior": "4", "obsTime": "2018-09-17T21:00:00Z", "temp": 22.0, "dewp": 11.0, "wspd": 4, "wdir": 100, "cover": "SCT", "visib": 6.21, "fltcat": "VFR", "altim": 1024.0, "rawOb": "DAAS 172100Z 10004KT 9999 SCT026 22/11 Q1024"}, "geometry": {"type": "Point", "coordinates": [5.331, 36.178]}}, {"type": "Feature", "properties": {"id": "DTTJ", "site": "Djerba/Zarzis Intl", "prior": "5", "obsTime": "2018-09-17T21:00:00Z", "temp": 27.0, "dewp": 20.0, "wspd": 8, "wdir": 130, "cover": "CAVOK", "visib": 6.21, "fltcat": "VFR", "altim": 1019.0, "rawOb": "DTTJ 172100Z 13008KT CAVOK 27/20 Q1019 NOSIG"}, "geometry": {"type": "Point", "coordinates": [10.776, 33.875]}}, {"type": "Feature", "properties": {"id": "LFTH", "site": "Hyeres Arpt", "prior": "4", "obsTime": "2018-09-17T21:00:00Z", "temp": 20.0, "dewp": 18.0, "wspd": 4, "wdir": 360, "cover": "CAVOK", "visib": 6.21, "fltcat": "VFR", "altim": 1019.0, "rawOb": "LFTH 172100Z AUTO 36004KT CAVOK 20/18 Q1019 TEMPO 4000 BR BKN014"}, "geometry": {"type": "Point", "coordinates": [6.146, 43.097]}}, {"type": "Feature", "properties": {"id": "LPOV", "site": "Ovar(MIL)", "prior": "5", "obsTime": "2018-09-17T21:00:00Z", "temp": 16.0, "dewp": 16.0, "wspd": 7, "wdir": 340, "ceil": 3, "cover": "BKN", "visib": 5.59, "fltcat": "LIFR", "altim": 1016.0, "rawOb": "LPOV 172100Z 34007KT 9000 FEW002 BKN003 16/16 Q1016"}, "geometry": {"type": "Point", "coordinates": [-8.646, 40.918]}}, {"type": "Feature", "properties": {"id": "LIPO", "site": "Brescia Arpt", "prior": "4", "obsTime": "2018-09-17T20:50:00Z", "temp": 21.0, "dewp": 19.0, "wspd": 4, "wdir": 20, "cover": "SCT", "visib": 4.97, "fltcat": "MVFR", "altim": 1020.0, "rawOb": "LIPO 172050Z 02004KT 8000 SCT070 21/19 Q1020"}, "geometry": {"type": "Point", "coordinates": [10.332, 45.428]}}, {"type": "Feature", "properties": {"id": "LFQA", "site": "Reims/Prunay Aprt", "prior": "5", "obsTime": "2018-09-17T21:00:00Z", "temp": 13.0, "dewp": 7.0, "wspd": 5, "wdir": 90, "cover": "CAVOK", "visib": 6.21, "fltcat": "VFR", "altim": 1014.0, "rawOb": "LFQA 172100Z AUTO 09005KT CAVOK 13/07 Q1014"}, "geometry": {"type": "Point", "coordinates": [4.156, 49.208]}}, {"type": "Feature", "properties": {"id": "LFBY", "site": "Dax/Seyresse Arpt", "prior": "5", "obsTime": "2018-09-17T21:00:00Z", "temp": 24.0, "dewp": 20.0, "wspd": 5, "wgst": 16, "wdir": 200, "visib": 6.21, "altim": 1014.0, "rawOb": "LFBY 172100Z AUTO 20005G16KT 140V280 9999 // ////// 24/20 Q1014"}, "geometry": {"type": "Point", "coordinates": [-1.068, 43.689]}}, {"type": "Feature", "properties": {"id": "EKVD", "site": "Vamdrup Arpt", "prior": "5", "obsTime": "2018-09-17T20:50:00Z", "temp": 17.0, "dewp": 15.0, "wspd": 5, "wdir": 190, "altim": 1015.0, "rawOb": "EKVD 172050Z AUTO 19005KT 160V220 //// ///////// 17/15 Q1015"}, "geometry": {"type": "Point", "coordinates": [9.331, 55.436]}}, {"type": "Feature", "properties": {"id": "LPMT", "site": "Montijo(MIL)", "prior": "6", "obsTime": "2018-09-17T21:00:00Z", "temp": 21.0, "dewp": 14.0, "wspd": 8, "wdir": 340, "cover": "CAVOK", "visib": 6.21, "fltcat": "VFR", "altim": 1015.0, "rawOb": "LPMT 172100Z 34008KT CAVOK 21/14 Q1015"}, "geometry": {"type": "Point", "coordinates": [-9.026, 38.708]}}, {"type": "Feature", "properties": {"id": "LPMR", "site": "Monte Real(AB)", "prior": "3", "obsTime": "2018-09-17T21:00:00Z", "temp": 17.0, "dewp": 16.0, "wspd": 4, "wdir": 350, "ceil": 7, "cover": "BKN", "visib": 6.21, "fltcat": "IFR", "altim": 1017.0, "rawOb": "LPMR 172100Z 35004KT 9999 BKN007 17/16 Q1017"}, "geometry": {"type": "Point", "coordinates": [-8.888, 39.831]}}, {"type": "Feature", "properties": {"id": "LFRV", "site": "Vannes/Meucon Arpt", "prior": "4", "obsTime": "2018-09-17T21:00:00Z", "temp": 19.0, "dewp": 17.0, "wspd": 6, "wdir": 200, "ceil": 15, "cover": "OVC", "visib": 6.21, "fltcat": "MVFR", "altim": 1011.0, "rawOb": "LFRV 172100Z AUTO 20006KT 170V240 9999 OVC015 19/17 Q1011"}, "geometry": {"type": "Point", "coordinates": [-2.718, 47.723]}}, {"type": "Feature", "properties": {"id": "DTTK", "site": "Kairouan(CITY)", "prior": "4", "obsTime": "2018-09-17T21:00:00Z", "temp": 28.0, "dewp": 21.0, "wspd": 3, "wdir": 330, "cover": "FEW", "visib": 6.21, "fltcat": "VFR", "altim": 1018.0, "rawOb": "DTTK 172100Z 33003KT 9999 FEW023 28/21 Q1018"}, "geometry": {"type": "Point", "coordinates": [10.1, 35.67]}}, {"type": "Feature", "properties": {"id": "DTTX", "site": "Sfax/Thyna Arpt", "prior": "3", "obsTime": "2018-09-17T21:00:00Z", "temp": 28.0, "dewp": 21.0, "wspd": 6, "wdir": 150, "cover": "FEW", "visib": 6.21, "fltcat": "VFR", "altim": 1018.0, "rawOb": "DTTX 172100Z 15006KT 9999 FEW030 28/21 Q1018"}, "geometry": {"type": "Point", "coordinates": [10.691, 34.717]}}, {"type": "Feature", "properties": {"id": "DTNH", "site": "Enfidha/Mammamet Arp", "prior": "5", "obsTime": "2018-09-17T21:00:00Z", "temp": 27.0, "dewp": 26.0, "wspd": 4, "wdir": 30, "cover": "FEW", "visib": 6.21, "fltcat": "VFR", "altim": 1018.0, "rawOb": "DTNH 172100Z 03004KT 9999 FEW033 27/26 Q1018 NOSIG"}, "geometry": {"type": "Point", "coordinates": [10.439, 36.076]}}, {"type": "Feature", "properties": {"id": "DTTB", "site": "Bizerte Arpt", "prior": "4", "obsTime": "2018-09-17T21:00:00Z", "temp": 25.0, "dewp": 23.0, "wspd": 3, "wdir": 40, "cover": "FEW", "visib": 6.21, "fltcat": "VFR", "altim": 1017.0, "rawOb": "DTTB 172100Z 04003KT 9999 FEW020 25/23 Q1017"}, "geometry": {"type": "Point", "coordinates": [9.786, 37.242]}}, {"type": "Feature", "properties": {"id": "UMKK", "site": "Kaliningrad/Khrabrov", "prior": "3", "obsTime": "2018-09-17T21:00:00Z", "temp": 13.0, "dewp": 11.0, "wspd": 6, "wdir": 220, "cover": "CAVOK", "visib": 6.21, "fltcat": "VFR", "altim": 1018.0, "rawOb": "UMKK 172100Z 22003MPS CAVOK 13/11 Q1018 R24/CLRD60 NOSIG RMK QFE763/1017"}, "geometry": {"type": "Point", "coordinates": [20.592, 54.89]}}, {"type": "Feature", "properties": {"id": "LFBG", "site": "Cognac/Parvaud Arpt", "prior": "4", "obsTime": "2018-09-17T21:00:00Z", "temp": 23.0, "dewp": 16.0, "wspd": 0, "wdir": 0, "cover": "CAVOK", "visib": 6.21, "fltcat": "VFR", "altim": 1013.0, "rawOb": "LFBG 172100Z AUTO 00000KT CAVOK 23/16 Q1013"}, "geometry": {"type": "Point", "coordinates": [-0.313, 45.662]}}, {"type": "Feature", "properties": {"id": "EDSB", "site": "Baden Arpt", "prior": "5", "obsTime": "2018-09-17T20:50:00Z", "temp": 17.0, "dewp": 11.0, "wspd": 3, "wdir": 30, "cover": "CAVOK", "visib": 6.21, "fltcat": "VFR", "altim": 1016.0, "rawOb": "EDSB 172050Z 03003KT 360V060 CAVOK 17/11 Q1016"}, "geometry": {"type": "Point", "coordinates": [8.081, 48.78]}}, {"type": "Feature", "properties": {"id": "LIBP", "site": "Pescara/Abruzzo Arpt", "prior": "4", "obsTime": "2018-09-17T20:50:00Z", "temp": 21.0, "dewp": 20.0, "wspd": 3, "wdir": 230, "cover": "CAVOK", "visib": 6.21, "fltcat": "VFR", "altim": 1020.0, "rawOb": "LIBP 172050Z 23003KT 140V280 CAVOK 21/20 Q1020"}, "geometry": {"type": "Point", "coordinates": [14.182, 42.431]}}, {"type": "Feature", "properties": {"id": "EKSB", "site": "Soenderborg Arpt", "prior": "4", "obsTime": "2018-09-17T20:50:00Z", "temp": 16.0, "dewp": 15.0, "wspd": 4, "wdir": 160, "cover": "CLR", "altim": 1015.0, "rawOb": "EKSB 172050Z AUTO 16004KT 5000NDV NCD 16/15 Q1015"}, "geometry": {"type": "Point", "coordinates": [9.793, 54.964]}}, {"type": "Feature", "properties": {"id": "LFRG", "site": "Deauville/Saint Gati", "prior": "5", "obsTime": "2018-09-17T21:00:00Z", "temp": 21.0, "dewp": 11.0, "wspd": 6, "wdir": 150, "cover": "CAVOK", "visib": 6.21, "fltcat": "VFR", "altim": 1011.0, "rawOb": "LFRG 172100Z AUTO 15006KT 120V180 CAVOK 21/11 Q1011"}, "geometry": {"type": "Point", "coordinates": [0.154, 49.365]}}, {"type": "Feature", "properties": {"id": "ORSU", "site": "Sulaymaniyah Intl", "prior": "3", "obsTime": "2018-09-17T21:00:00Z", "temp": 21.0, "dewp": 6.0, "wspd": 6, "wdir": 310, "cover": "CAVOK", "visib": 6.21, "fltcat": "VFR", "altim": 1014.0, "rawOb": "ORSU 172100Z 31006KT CAVOK 21/06 Q1014"}, "geometry": {"type": "Point", "coordinates": [45.319, 35.561]}}, {"type": "Feature", "properties": {"id": "LKLN", "site": "Plzen Line Arpt", "prior": "5", "obsTime": "2018-09-17T21:00:00Z", "temp": 16.0, "dewp": 12.0, "wspd": 0, "wdir": 0, "cover": "CAVOK", "visib": 6.21, "fltcat": "VFR", "altim": 1020.0, "rawOb": "LKLN 172100Z AUTO 00000KT CAVOK 16/12 Q1020"}, "geometry": {"type": "Point", "coordinates": [13.271, 49.674]}}, {"type": "Feature", "properties": {"id": "DTMB", "site": "Habib Bourguiba Intl", "prior": "3", "obsTime": "2018-09-17T21:00:00Z", "temp": 28.0, "dewp": 21.0, "wspd": 7, "wdir": 120, "cover": "FEW", "visib": 6.21, "fltcat": "VFR", "altim": 1018.0, "rawOb": "DTMB 172100Z 12007KT 9999 FEW046 28/21 Q1018"}, "geometry": {"type": "Point", "coordinates": [10.756, 35.758]}}, {"type": "Feature", "properties": {"id": "DTKA", "site": "Tabarka Intl", "prior": "4", "obsTime": "2018-09-17T21:00:00Z", "temp": 26.0, "dewp": 17.0, "wspd": 1, "wdir": 0, "altim": 1017.0, "rawOb": "DTKA 172100Z AUTO VRB01KT /// 26/17 Q1017"}, "geometry": {"type": "Point", "coordinates": [8.877, 36.98]}}, {"type": "Feature", "properties": {"id": "DTTF", "site": "Gafsa/Ksar Intl", "prior": "5", "obsTime": "2018-09-17T21:00:00Z", "temp": 28.0, "dewp": 11.0, "wspd": 4, "wdir": 260, "cover": "CAVOK", "visib": 6.21, "fltcat": "VFR", "altim": 1018.0, "rawOb": "DTTF 172100Z 26004KT CAVOK 28/11 Q1018 NOSIG"}, "geometry": {"type": "Point", "coordinates": [8.823, 34.422]}}, {"type": "Feature", "properties": {"id": "OSDI", "site": "Damascus Intl Arpt", "prior": "2", "obsTime": "2018-09-17T21:00:00Z", "temp": 22.0, "dewp": 14.0, "wspd": 0, "wdir": 0, "cover": "CAVOK", "visib": 6.21, "fltcat": "VFR", "altim": 1012.0, "rawOb": "OSDI 172100Z 00000KT CAVOK 22/14 Q1012"}, "geometry": {"type": "Point", "coordinates": [36.518, 33.413]}}, {"type": "Feature", "properties": {"id": "EDLW", "site": "Dortmund Arpt", "prior": "4", "obsTime": "2018-09-17T20:50:00Z", "temp": 17.0, "dewp": 7.0, "wspd": 7, "wdir": 150, "cover": "CLR", "visib": 6.21, "fltcat": "VFR", "altim": 1016.0, "rawOb": "EDLW 172050Z AUTO 15007KT 9999 // NCD 17/07 Q1016"}, "geometry": {"type": "Point", "coordinates": [7.615, 51.519]}}, {"type": "Feature", "properties": {"id": "OSLK", "site": "Latakia/Al Bassel In", "prior": "3", "obsTime": "2018-09-17T21:00:00Z", "temp": 24.0, "dewp": 21.0, "wspd": 5, "wdir": 60, "cover": "CAVOK", "visib": 6.21, "fltcat": "VFR", "altim": 1009.0, "rawOb": "OSLK 172100Z 06005KT CAVOK 24/21 Q1009"}, "geometry": {"type": "Point", "coordinates": [35.948, 35.401]}}, {"type": "Feature", "properties": {"id": "ORER", "site": "Erbil Intl", "prior": "2", "obsTime": "2018-09-17T21:00:00Z", "temp": 25.0, "dewp": 5.0, "wspd": 2, "wdir": 0, "cover": "CAVOK", "visib": 6.21, "fltcat": "VFR", "altim": 1011.0, "rawOb": "ORER 172100Z VRB02KT CAVOK 25/05 Q1011 NOSIG"}, "geometry": {"type": "Point", "coordinates": [43.963, 36.238]}}, {"type": "Feature", "properties": {"id": "LIPY", "site": "Falconara/Ancona Arp", "prior": "3", "obsTime": "2018-09-17T20:50:00Z", "temp": 21.0, "dewp": 18.0, "wspd": 2, "wdir": 0, "cover": "CAVOK", "visib": 6.21, "fltcat": "VFR", "altim": 1019.0, "rawOb": "LIPY 172050Z VRB02KT CAVOK 21/18 Q1019"}, "geometry": {"type": "Point", "coordinates": [13.363, 43.617]}}, {"type": "Feature", "properties": {"id": "DTTN", "site": "Jendouba?", "prior": "5", "obsTime": "2018-09-17T21:00:00Z", "temp": 27.0, "dewp": 16.0, "cover": "SCT", "visib": 4.97, "fltcat": "MVFR", "altim": 1018.0, "rawOb": "DTTN 172100Z /////KT 8000 SCT020 SCT030 27/16 Q1018"}, "geometry": {"type": "Point", "coordinates": [8.8, 36.48]}}, {"type": "Feature", "properties": {"id": "URMG", "site": "Grozny Arpt", "prior": "4", "obsTime": "2018-09-17T21:00:00Z", "temp": 19.0, "dewp": 17.0, "wspd": 4, "wdir": 270, "cover": "CAVOK", "visib": 6.21, "fltcat": "VFR", "altim": 1019.0, "rawOb": "URMG 172100Z 27002MPS CAVOK 19/17 Q1019 R26/190060 NOSIG RMK QFE750/1000"}, "geometry": {"type": "Point", "coordinates": [45.7, 43.388]}}, {"type": "Feature", "properties": {"id": "LFRC", "site": "Cherbourg/Maupertus", "prior": "4", "obsTime": "2018-09-17T21:00:00Z", "temp": 19.0, "dewp": 12.0, "wspd": 11, "wdir": 200, "cover": "CAVOK", "visib": 6.21, "fltcat": "VFR", "altim": 1009.0, "rawOb": "LFRC 172100Z AUTO 20011KT CAVOK 19/12 Q1009"}, "geometry": {"type": "Point", "coordinates": [-1.47, 49.65]}}, {"type": "Feature", "properties": {"id": "LFSD", "site": "Dijon/Longvic(AFB)", "prior": "3", "obsTime": "2018-09-17T21:00:00Z", "temp": 17.0, "dewp": 10.0, "wspd": 0, "wdir": 0, "cover": "CAVOK", "visib": 6.21, "fltcat": "VFR", "altim": 1016.0, "rawOb": "LFSD 172100Z AUTO 00000KT CAVOK 17/10 Q1016"}, "geometry": {"type": "Point", "coordinates": [5.094, 47.27]}}, {"type": "Feature", "properties": {"id": "LFRQ", "site": "Quimper/Pluguffan Ar", "prior": "5", "obsTime": "2018-09-17T21:00:00Z", "temp": 18.0, "dewp": 16.0, "wspd": 9, "wdir": 210, "ceil": 10, "cover": "OVC", "visib": 6.21, "fltcat": "MVFR", "altim": 1010.0, "rawOb": "LFRQ 172100Z AUTO 21009KT 160V240 9999 BKN010 OVC015 18/16 Q1010 NOSIG"}, "geometry": {"type": "Point", "coordinates": [-4.17, 47.975]}}, {"type": "Feature", "properties": {"id": "LFPN", "site": "Toussus le Noble Arp", "prior": "6", "obsTime": "2018-09-17T21:00:00Z", "temp": 16.0, "dewp": 9.0, "wspd": 2, "wdir": 0, "cover": "CAVOK", "visib": 6.21, "fltcat": "VFR", "altim": 1013.0, "rawOb": "LFPN 172100Z AUTO VRB02KT CAVOK 16/09 Q1013 NOSIG"}, "geometry": {"type": "Point", "coordinates": [2.105, 48.752]}}, {"type": "Feature", "properties": {"id": "LFRH", "site": "Lorient/Bihoue Arpt", "prior": "3", "obsTime": "2018-09-17T21:00:00Z", "temp": 19.0, "dewp": 18.0, "wspd": 10, "wdir": 230, "ceil": 13, "cover": "OVC", "visib": 6.21, "fltcat": "MVFR", "altim": 1011.0, "rawOb": "LFRH 172100Z AUTO 23010KT 9999 FEW009 BKN013 OVC018 19/18 Q1011 BECMG BKN008 BKN014"}, "geometry": {"type": "Point", "coordinates": [-3.44, 47.76]}}, {"type": "Feature", "properties": {"id": "LFRK", "site": "Caen/Carpiquet Arpt", "prior": "3", "obsTime": "2018-09-17T21:00:00Z", "temp": 19.0, "dewp": 11.0, "wspd": 3, "wdir": 150, "cover": "CAVOK", "visib": 6.21, "fltcat": "VFR", "altim": 1010.0, "rawOb": "LFRK 172100Z AUTO 15003KT CAVOK 19/11 Q1010"}, "geometry": {"type": "Point", "coordinates": [-0.454, 49.175]}}, {"type": "Feature", "properties": {"id": "LFLN", "site": "Saint Yan Arpt", "prior": "4", "obsTime": "2018-09-17T21:00:00Z", "temp": 19.0, "dewp": 11.0, "wspd": 3, "wdir": 140, "cover": "CAVOK", "visib": 6.21, "fltcat": "VFR", "altim": 1015.0, "rawOb": "LFLN 172100Z AUTO 14003KT CAVOK 19/11 Q1015 NOSIG"}, "geometry": {"type": "Point", "coordinates": [4.015, 46.413]}}, {"type": "Feature", "properties": {"id": "LFPM", "site": "Melun/Villaroche Arp", "prior": "6", "obsTime": "2018-09-17T21:00:00Z", "temp": 18.0, "dewp": 7.0, "wspd": 5, "wdir": 110, "cover": "CAVOK", "visib": 6.21, "fltcat": "VFR", "altim": 1013.0, "rawOb": "LFPM 172100Z AUTO 11005KT CAVOK 18/07 Q1013"}, "geometry": {"type": "Point", "coordinates": [2.67, 48.605]}}, {"type": "Feature", "properties": {"id": "DAUL", "site": "Laghouat/LMekrareg A", "prior": "3", "obsTime": "2018-09-17T21:00:00Z", "temp": 20.0, "dewp": 18.0, "wspd": 8, "wdir": 100, "ceil": 33, "cover": "BKN", "visib": 6.21, "fltcat": "VFR", "altim": 1023.0, "wx": "TS", "rawOb": "DAUL 172100Z 10008KT 9999 TS FEW030CB BKN033 20/18 Q1023"}, "geometry": {"type": "Point", "coordinates": [2.929, 33.763]}}, {"type": "Feature", "properties": {"id": "LQTZ", "site": "Tuzla Intl", "prior": "4", "obsTime": "2018-09-17T21:00:00Z", "temp": 13.0, "dewp": 13.0, "wspd": 0, "wdir": 0, "cover": "CAVOK", "visib": 6.21, "fltcat": "VFR", "altim": 1022.0, "rawOb": "LQTZ 172100Z 00000KT CAVOK 13/13 Q1022"}, "geometry": {"type": "Point", "coordinates": [18.725, 44.459]}}, {"type": "Feature", "properties": {"id": "LFAT", "site": "Le Touquet Arpt", "prior": "3", "obsTime": "2018-09-17T21:00:00Z", "temp": 16.0, "dewp": 11.0, "wspd": 8, "wdir": 120, "cover": "CAVOK", "visib": 6.21, "fltcat": "VFR", "altim": 1011.0, "rawOb": "LFAT 172100Z AUTO 12008KT CAVOK 16/11 Q1011"}, "geometry": {"type": "Point", "coordinates": [1.624, 50.518]}}, {"type": "Feature", "properties": {"id": "UKLI", "site": "Ivano-Frankivsk Arpt", "prior": "3", "obsTime": "2018-09-17T21:00:00Z", "temp": 10.0, "dewp": 10.0, "wspd": 0, "wdir": 0, "cover": "CLR", "visib": 1.68, "fltcat": "IFR", "altim": 1024.0, "wx": "BR", "rawOb": "UKLI 172100Z 00000MPS 2700 BR NSC 10/10 Q1024 R10/090070 NOSIG"}, "geometry": {"type": "Point", "coordinates": [24.698, 48.888]}}, {"type": "Feature", "properties": {"id": "DAOL", "site": "Oran/Tafaraoui Arpt", "prior": "6", "obsTime": "2018-09-17T21:00:00Z", "temp": 27.0, "dewp": 20.0, "wspd": 18, "wdir": 190, "cover": "SCT", "visib": 6.21, "fltcat": "VFR", "altim": 1015.0, "rawOb": "DAOL 172100Z 19018KT 9999 SCT026 SCT100 27/20 Q1015"}, "geometry": {"type": "Point", "coordinates": [-0.532, 35.542]}}, {"type": "Feature", "properties": {"id": "EPZG", "site": "Zielona Gora Arpt", "prior": "4", "obsTime": "2018-09-17T21:00:00Z", "temp": 12.0, "dewp": 11.0, "wspd": 0, "wdir": 0, "cover": "CAVOK", "visib": 6.21, "fltcat": "VFR", "altim": 1019.0, "rawOb": "EPZG 172100Z 00000KT CAVOK 12/11 Q1019"}, "geometry": {"type": "Point", "coordinates": [15.797, 52.14]}}, {"type": "Feature", "properties": {"id": "ULWC", "site": "Botovo/Cherepovets", "prior": "3", "obsTime": "2018-09-17T20:00:00Z", "temp": 10.0, "dewp": 8.0, "wspd": 10, "wdir": 200, "ceil": 15, "cover": "BKN", "visib": 4.35, "fltcat": "MVFR", "altim": 1008.0, "wx": "-SHRA", "rawOb": "ULWC 172000Z 20005MPS 7000 -SHRA BKN015CB 10/08 Q1008 R21/010060 NOSIG RMK QFE746/0995"}, "geometry": {"type": "Point", "coordinates": [38.019, 59.281]}}, {"type": "Feature", "properties": {"id": "LHDC", "site": "Debrecen Arpt", "prior": "4", "obsTime": "2018-09-17T20:45:00Z", "temp": 16.0, "dewp": 10.0, "wspd": 3, "wdir": 60, "cover": "CAVOK", "visib": 6.21, "fltcat": "VFR", "altim": 1023.0, "rawOb": "LHDC 172045Z 06003KT CAVOK 16/10 Q1023 NOSIG"}, "geometry": {"type": "Point", "coordinates": [21.615, 47.49]}}, {"type": "Feature", "properties": {"id": "OITM", "site": "Maragheh/Sahand Arpt", "prior": "4", "obsTime": "2018-09-17T21:00:00Z", "temp": 19.0, "dewp": -2.0, "wspd": 8, "wdir": 90, "cover": "CAVOK", "visib": 6.21, "fltcat": "VFR", "altim": 1016.0, "rawOb": "OITM 172100Z 09008KT CAVOK 19/M02 Q1016"}, "geometry": {"type": "Point", "coordinates": [46.13, 37.348]}}, {"type": "Feature", "properties": {"id": "LICR", "site": "Reggio Calabria Arpt", "prior": "4", "obsTime": "2018-09-17T20:50:00Z", "temp": 23.0, "dewp": 17.0, "wspd": 5, "wdir": 50, "cover": "CAVOK", "visib": 6.21, "fltcat": "VFR", "altim": 1019.0, "rawOb": "LICR 172050Z 05005KT CAVOK 23/17 Q1019"}, "geometry": {"type": "Point", "coordinates": [15.65, 38.073]}}, {"type": "Feature", "properties": {"id": "UKOH", "site": "Kherson Intl", "prior": "4", "obsTime": "2018-09-17T21:00:00Z", "temp": 13.0, "dewp": 7.0, "wspd": 4, "wdir": 350, "cover": "CAVOK", "visib": 6.21, "fltcat": "VFR", "altim": 1024.0, "rawOb": "UKOH 172100Z 35002MPS CAVOK 13/07 Q1024 R03/CLRD// NOSIG"}, "geometry": {"type": "Point", "coordinates": [32.506, 46.676]}}, {"type": "Feature", "properties": {"id": "URMM", "site": "Mineralyne Vody Arpt", "prior": "1", "obsTime": "2018-09-17T21:00:00Z", "temp": 16.0, "dewp": 5.0, "wspd": 16, "wdir": 280, "ceil": 46, "cover": "BKN", "visib": 6.21, "fltcat": "VFR", "altim": 1021.0, "rawOb": "URMM 172100Z 28008MPS 9999 BKN046 16/05 Q1021 R30/090070 NOSIG RMK QFE737/0983"}, "geometry": {"type": "Point", "coordinates": [43.082, 44.227]}}, {"type": "Feature", "properties": {"id": "LEIB", "site": "Ibiza Arpt", "prior": "3", "obsTime": "2018-09-17T21:00:00Z", "temp": 25.0, "dewp": 21.0, "wspd": 3, "wdir": 110, "cover": "FEW", "visib": 6.21, "fltcat": "VFR", "altim": 1016.0, "rawOb": "LEIB 172100Z 11003KT 080V140 9999 FEW013 25/21 Q1016 NOSIG"}, "geometry": {"type": "Point", "coordinates": [1.373, 38.873]}}, {"type": "Feature", "properties": {"id": "UUMO", "site": "Ostafyevo Intl", "prior": "6", "obsTime": "2018-09-17T20:30:00Z", "temp": 10.0, "dewp": 6.0, "wspd": 4, "wdir": 230, "cover": "CAVOK", "visib": 6.21, "fltcat": "VFR", "altim": 1016.0, "rawOb": "UUMO 172030Z 23002MPS CAVOK 10/06 Q1016 R26/090060 NOSIG RMK QFE747/0996"}, "geometry": {"type": "Point", "coordinates": [37.507, 55.507]}}, {"type": "Feature", "properties": {"id": "UKLN", "site": "Chernovsty Intl", "prior": "4", "obsTime": "2018-09-17T19:30:00Z", "temp": 15.0, "dewp": 12.0, "wspd": 0, "wdir": 0, "cover": "CLR", "visib": 4.97, "fltcat": "MVFR", "altim": 1024.0, "rawOb": "UKLN 171930Z 00000MPS 8000 NSC 15/12 Q1024 R15/09//70 NOSIG"}, "geometry": {"type": "Point", "coordinates": [25.977, 48.263]}}, {"type": "Feature", "properties": {"id": "DAAY", "site": "Mecheria Arpt", "prior": "2", "obsTime": "2018-09-17T20:00:00Z", "temp": 17.0, "dewp": 14.0, "wspd": 8, "wdir": 240, "cover": "SCT", "visib": 6.21, "fltcat": "VFR", "altim": 1025.0, "rawOb": "DAAY 172000Z 24008KT 9999 SCT026 SCT100 17/14 Q1025"}, "geometry": {"type": "Point", "coordinates": [-0.248, 33.533]}}, {"type": "Feature", "properties": {"id": "LDRI", "site": "Rijeka Arpt", "prior": "4", "obsTime": "2018-09-17T21:00:00Z", "temp": 21.0, "dewp": 16.0, "wspd": 3, "wdir": 320, "cover": "CAVOK", "visib": 6.21, "fltcat": "VFR", "altim": 1020.0, "rawOb": "LDRI 172100Z 32003KT CAVOK 21/16 Q1020"}, "geometry": {"type": "Point", "coordinates": [14.57, 45.218]}}, {"type": "Feature", "properties": {"id": "LFBU", "site": "Angouleme/Champniers", "prior": "5", "obsTime": "2018-09-17T21:00:00Z", "temp": 24.0, "dewp": 14.0, "wspd": 6, "wdir": 210, "cover": "CAVOK", "visib": 6.21, "fltcat": "VFR", "altim": 1014.0, "rawOb": "LFBU 172100Z AUTO 21006KT 140V280 CAVOK 24/14 Q1014 NOSIG"}, "geometry": {"type": "Point", "coordinates": [0.219, 45.729]}}, {"type": "Feature", "properties": {"id": "LFAQ", "site": "Albert/Picardie Arpt", "prior": "3", "obsTime": "2018-09-17T21:00:00Z", "temp": 18.0, "dewp": 8.0, "wspd": 6, "wdir": 150, "cover": "CAVOK", "visib": 6.21, "fltcat": "VFR", "altim": 1012.0, "rawOb": "LFAQ 172100Z AUTO 15006KT CAVOK 18/08 Q1012"}, "geometry": {"type": "Point", "coordinates": [2.695, 49.971]}}, {"type": "Feature", "properties": {"id": "LFGA", "site": "Colmar/Houssen Arpt", "prior": "4", "obsTime": "2018-09-17T21:00:00Z", "temp": 20.0, "dewp": 11.0, "wspd": 8, "wdir": 270, "cover": "CAVOK", "visib": 6.21, "fltcat": "VFR", "altim": 1017.0, "rawOb": "LFGA 172100Z AUTO 27008KT CAVOK 20/11 Q1017"}, "geometry": {"type": "Point", "coordinates": [7.359, 48.11]}}, {"type": "Feature", "properties": {"id": "LFJR", "site": "Anger/Loire Arpt", "prior": "4", "obsTime": "2018-09-17T21:00:00Z", "temp": 17.0, "dewp": 13.0, "wspd": 2, "wdir": 0, "cover": "CAVOK", "visib": 6.21, "fltcat": "VFR", "altim": 1012.0, "rawOb": "LFJR 172100Z AUTO VRB02KT CAVOK 17/13 Q1012"}, "geometry": {"type": "Point", "coordinates": [-0.312, 47.56]}}, {"type": "Feature", "properties": {"id": "LFPT", "site": "Pontoise-Cormeilles", "prior": "6", "obsTime": "2018-09-17T21:00:00Z", "temp": 16.0, "dewp": 8.0, "wspd": 3, "wdir": 130, "cover": "CAVOK", "visib": 6.21, "fltcat": "VFR", "altim": 1012.0, "rawOb": "LFPT 172100Z AUTO 13003KT CAVOK 16/08 Q1012"}, "geometry": {"type": "Point", "coordinates": [2.041, 49.097]}}, {"type": "Feature", "properties": {"id": "LPAZ", "site": "Santa Maria Isl Arpt", "prior": "0", "obsTime": "2018-09-17T21:00:00Z", "temp": 23.0, "dewp": 22.0, "wspd": 2, "wdir": 50, "cover": "SCT", "visib": 6.21, "fltcat": "VFR", "altim": 1016.0, "rawOb": "LPAZ 172100Z 05002KT 9999 FEW010 SCT016 23/22 Q1016"}, "geometry": {"type": "Point", "coordinates": [-25.17, 36.97]}}, {"type": "Feature", "properties": {"id": "OSKL", "site": "Kamishly Arpt", "prior": "2", "obsTime": "2018-09-17T21:00:00Z", "temp": 24.0, "dewp": 1.0, "wspd": 11, "wdir": 330, "visib": 4.35, "fltcat": "MVFR", "altim": 1009.0, "rawOb": "OSKL 172100Z 33011KT 7000 24/01 Q1009"}, "geometry": {"type": "Point", "coordinates": [41.198, 37.027]}}, {"type": "Feature", "properties": {"id": "URMN", "site": "Nalchik Arpt", "prior": "4", "obsTime": "2018-09-17T21:00:00Z", "temp": 16.0, "dewp": 10.0, "wspd": 4, "wdir": 350, "ceil": 30, "cover": "BKN", "visib": 6.21, "fltcat": "MVFR", "altim": 1020.0, "rawOb": "URMN 172100Z 35002MPS 9999 BKN030 OVC/// 16/10 Q1020 R24/////// NOSIG RMK QFE728"}, "geometry": {"type": "Point", "coordinates": [43.637, 43.513]}}, {"type": "Feature", "properties": {"id": "EDVK", "site": "Kassel/Calden Arpt", "prior": "3", "obsTime": "2018-09-17T20:50:00Z", "temp": 17.0, "dewp": 6.0, "wspd": 4, "wdir": 130, "cover": "CAVOK", "visib": 6.21, "fltcat": "VFR", "altim": 1017.0, "rawOb": "EDVK 172050Z 13004KT CAVOK 17/06 Q1017"}, "geometry": {"type": "Point", "coordinates": [9.378, 51.409]}}, {"type": "Feature", "properties": {"id": "ETNG", "site": "Geilenkirchen(NATO)", "prior": "5", "obsTime": "2018-09-17T20:50:00Z", "temp": 20.0, "dewp": 7.0, "wspd": 4, "wdir": 150, "cover": "CAVOK", "visib": 6.21, "fltcat": "VFR", "altim": 1015.0, "rawOb": "ETNG 172050Z 15004KT CAVOK 20/07 Q1015"}, "geometry": {"type": "Point", "coordinates": [6.042, 50.961]}}, {"type": "Feature", "properties": {"id": "LELC", "site": "San Javier Arpt", "prior": "4", "obsTime": "2018-09-17T21:00:00Z", "temp": 25.0, "dewp": 23.0, "wspd": 6, "wdir": 60, "ceil": 35, "cover": "BKN", "visib": 6.21, "fltcat": "VFR", "altim": 1016.0, "rawOb": "LELC 172100Z 06006KT 030V100 9999 BKN035 25/23 Q1016 NOSIG"}, "geometry": {"type": "Point", "coordinates": [-0.812, 37.779]}}, {"type": "Feature", "properties": {"id": "LICB", "site": "Comiso Arpt", "prior": "4", "obsTime": "2018-09-17T20:50:00Z", "temp": 21.0, "dewp": 19.0, "wspd": 3, "wdir": 70, "cover": "CAVOK", "visib": 6.21, "fltcat": "VFR", "altim": 1021.0, "rawOb": "LICB 172050Z 07003KT 050V120 CAVOK 21/19 Q1021"}, "geometry": {"type": "Point", "coordinates": [14.605, 36.994]}}, {"type": "Feature", "properties": {"id": "LICD", "site": "Lampedusa Isl Arpt", "prior": "3", "obsTime": "2018-09-17T19:50:00Z", "temp": 27.0, "dewp": 22.0, "wspd": 7, "wdir": 160, "cover": "CAVOK", "visib": 6.21, "fltcat": "VFR", "altim": 1020.0, "rawOb": "LICD 171950Z 16007KT CAVOK 27/22 Q1020"}, "geometry": {"type": "Point", "coordinates": [12.62, 35.498]}}, {"type": "Feature", "properties": {"id": "EPSY", "site": "Szczytno Intl", "prior": "3", "obsTime": "2018-09-17T21:00:00Z", "temp": 11.0, "dewp": 10.0, "wspd": 2, "wdir": 190, "cover": "CAVOK", "visib": 6.21, "fltcat": "VFR", "altim": 1020.0, "rawOb": "EPSY 172100Z 19002KT CAVOK 11/10 Q1020"}, "geometry": {"type": "Point", "coordinates": [20.938, 53.482]}}, {"type": "Feature", "properties": {"id": "LPHR", "site": "Horta Arpt", "prior": "3", "obsTime": "2018-09-17T21:00:00Z", "temp": 22.0, "dewp": 17.0, "wspd": 9, "wdir": 320, "cover": "FEW", "visib": 6.21, "fltcat": "VFR", "altim": 1017.0, "rawOb": "LPHR 172100Z 32009KT 9999 FEW020 22/17 Q1017"}, "geometry": {"type": "Point", "coordinates": [-28.716, 38.52]}}, {"type": "Feature", "properties": {"id": "LEVD", "site": "Valladolid Arpt", "prior": "3", "obsTime": "2018-09-17T19:30:00Z", "temp": 23.0, "dewp": 11.0, "wspd": 1, "wdir": 0, "cover": "CAVOK", "visib": 6.21, "fltcat": "VFR", "altim": 1017.0, "rawOb": "LEVD 171930Z VRB01KT CAVOK 23/11 Q1017"}, "geometry": {"type": "Point", "coordinates": [-4.851, 41.708]}}, {"type": "Feature", "properties": {"id": "LEVS", "site": "Madrid/Vientos Arpt", "prior": "6", "obsTime": "2018-09-17T20:30:00Z", "temp": 21.0, "dewp": 16.0, "wspd": 4, "wdir": 230, "cover": "SCT", "visib": 4.97, "fltcat": "MVFR", "altim": 1018.0, "rawOb": "LEVS 172030Z 23004KT 190V250 8000 FEW035CB SCT050 21/16 Q1018"}, "geometry": {"type": "Point", "coordinates": [-3.785, 40.37]}}, {"type": "Feature", "properties": {"id": "GMMC", "site": "Casablanca/Anfa Arpt", "prior": "6", "obsTime": "2018-09-17T20:00:00Z", "temp": 23.0, "dewp": 21.0, "wspd": 8, "wdir": 280, "ceil": 16, "cover": "BKN", "visib": 6.21, "fltcat": "MVFR", "altim": 1014.0, "rawOb": "GMMC 172000Z 28008KT 9999 BKN016 23/21 Q1014"}, "geometry": {"type": "Point", "coordinates": [-7.661, 33.556]}}, {"type": "Feature", "properties": {"id": "LPCS", "site": "Cascais Arpt", "prior": "6", "obsTime": "2018-09-17T20:00:00Z", "temp": 20.0, "dewp": 12.0, "wspd": 16, "wdir": 10, "cover": "FEW", "visib": 6.21, "fltcat": "VFR", "altim": 1014.0, "rawOb": "LPCS 172000Z 01016KT 9999 FEW012 20/12 Q1014"}, "geometry": {"type": "Point", "coordinates": [-9.355, 38.725]}}, {"type": "Feature", "properties": {"id": "LFRT", "site": "Saint Brieuc/Armor A", "prior": "4", "obsTime": "2018-09-17T21:00:00Z", "temp": 18.0, "dewp": 15.0, "wspd": 9, "wdir": 200, "cover": "FEW", "visib": 6.21, "fltcat": "VFR", "altim": 1009.0, "rawOb": "LFRT 172100Z AUTO 20009KT 150V270 9999 FEW020 18/15 Q1009"}, "geometry": {"type": "Point", "coordinates": [-2.854, 48.539]}}, {"type": "Feature", "properties": {"id": "EDVE", "site": "Braunschweig Arpt", "prior": "4", "obsTime": "2018-09-17T19:50:00Z", "temp": 16.0, "dewp": 9.0, "wspd": 4, "wdir": 100, "cover": "CAVOK", "visib": 6.21, "fltcat": "VFR", "altim": 1017.0, "rawOb": "EDVE 171950Z 10004KT CAVOK 16/09 Q1017"}, "geometry": {"type": "Point", "coordinates": [10.553, 52.319]}}, {"type": "Feature", "properties": {"id": "LBPG", "site": "Graf Ignatievo(AB)", "prior": "6", "obsTime": "2018-09-17T21:00:00Z", "temp": 19.0, "dewp": 11.0, "wspd": 10, "wdir": 90, "cover": "SCT", "visib": 6.21, "fltcat": "VFR", "altim": 1023.0, "rawOb": "LBPG 172100Z 09010KT 9999 SCT100 19/11 Q1023"}, "geometry": {"type": "Point", "coordinates": [24.714, 42.29]}}, {"type": "Feature", "properties": {"id": "URRP", "site": "Platov Intl", "prior": "3", "obsTime": "2018-09-17T21:00:00Z", "temp": 10.0, "dewp": 3.0, "wspd": 6, "wdir": 330, "cover": "CAVOK", "visib": 6.21, "fltcat": "VFR", "altim": 1020.0, "rawOb": "URRP 172100Z 33003MPS CAVOK 10/03 Q1020 R05/CLRD70 NOSIG RMK QFE760/1014"}, "geometry": {"type": "Point", "coordinates": [39.925, 47.494]}}, {"type": "Feature", "properties": {"id": "EIWF", "site": "Waterford Arpt", "prior": "3", "obsTime": "2018-09-17T19:30:00Z", "temp": 16.0, "dewp": 15.0, "wspd": 18, "wdir": 170, "ceil": 2, "cover": "BKN", "visib": 2.98, "fltcat": "LIFR", "altim": 999.0, "wx": "BR", "rawOb": "EIWF 171930Z 17018KT 4800 BR BKN002 16/15 Q0999 REDZ"}, "geometry": {"type": "Point", "coordinates": [-7.087, 52.187]}}, {"type": "Feature", "properties": {"id": "LBIA", "site": "Bezmer(AB)", "prior": "4", "obsTime": "2018-09-17T21:00:00Z", "temp": 17.0, "dewp": 12.0, "wspd": 6, "wdir": 30, "cover": "SKC", "visib": 6.21, "fltcat": "VFR", "altim": 1024.0, "rawOb": "LBIA 172100Z 03006KT 9999 SKC 17/12 Q1024"}, "geometry": {"type": "Point", "coordinates": [26.352, 42.455]}}, {"type": "Feature", "properties": {"id": "LBPL", "site": "Dola Mitropoliya(AB)", "prior": "3", "obsTime": "2018-09-17T21:00:00Z", "temp": 20.0, "dewp": 13.0, "wspd": 2, "wdir": 100, "cover": "SCT", "visib": 6.21, "fltcat": "VFR", "altim": 1022.0, "rawOb": "LBPL 172100Z 10002KT 9999 FEW058 SCT200 20/13 Q1022"}, "geometry": {"type": "Point", "coordinates": [24.503, 43.451]}}, {"type": "Feature", "properties": {"id": "EIKY", "site": "Kerry Arpt", "prior": "4", "obsTime": "2018-09-17T20:00:00Z", "temp": 17.0, "dewp": 16.0, "wspd": 5, "wdir": 80, "ceil": 12, "cover": "OVC", "visib": 3.11, "fltcat": "MVFR", "altim": 994.0, "wx": "RA", "rawOb": "EIKY 172000Z 08005KT 5000 RA BKN012 BKN016 OVC024 17/16 Q0994"}, "geometry": {"type": "Point", "coordinates": [-9.524, 52.181]}}, {"type": "Feature", "properties": {"id": "LFRU", "site": "Morlaix/Ploujean Arp", "prior": "5", "obsTime": "2018-09-17T20:00:00Z", "temp": 19.0, "dewp": 16.0, "wspd": 12, "wgst": 23, "wdir": 210, "ceil": 20, "cover": "BKN", "visib": 6.21, "fltcat": "MVFR", "altim": 1009.0, "rawOb": "LFRU 172000Z AUTO 21012G23KT 160V240 9999 BKN020 19/16 Q1009"}, "geometry": {"type": "Point", "coordinates": [-3.816, 48.603]}}, {"type": "Feature", "properties": {"id": "EDAC", "site": "Altenburg Arpt", "prior": "5", "obsTime": "2018-09-17T20:50:00Z", "temp": 15.0, "dewp": 12.0, "wspd": 2, "wdir": 130, "cover": "CLR", "visib": 6.21, "fltcat": "VFR", "altim": 1018.0, "rawOb": "EDAC 172050Z AUTO 13002KT 9999 // NCD 15/12 Q1018"}, "geometry": {"type": "Point", "coordinates": [12.507, 50.982]}}, {"type": "Feature", "properties": {"id": "LEDA", "site": "Lleida-Alguaire Arpt", "prior": "5", "obsTime": "2018-09-17T21:00:00Z", "temp": 20.0, "dewp": 16.0, "wspd": 7, "wdir": 40, "cover": "CAVOK", "visib": 6.21, "fltcat": "VFR", "altim": 1018.0, "rawOb": "LEDA 172100Z AUTO 04007KT CAVOK 20/16 Q1018"}, "geometry": {"type": "Point", "coordinates": [0.537, 41.727]}}, {"type": "Feature", "properties": {"id": "ENTC", "site": "Tromso Arpt", "prior": "2", "obsTime": "2018-09-17T20:50:00Z", "temp": 4.0, "dewp": 3.0, "wspd": 4, "wdir": 90, "cover": "CAVOK", "visib": 6.21, "fltcat": "VFR", "altim": 998.0, "rawOb": "ENTC 172050Z 09004KT 040V110 CAVOK 04/03 Q0998 RMK WIND 2600FT 24003KT"}, "geometry": {"type": "Point", "coordinates": [18.917, 69.681]}}, {"type": "Feature", "properties": {"id": "ENSL", "site": "Sleipner A Plat(OIL)", "prior": "3", "obsTime": "2018-09-17T20:50:00Z", "temp": 14.0, "dewp": 13.0, "wspd": 31, "wdir": 190, "cover": "CLR", "altim": 1002.0, "wx": "-RA FG", "rawOb": "ENSL 172050Z AUTO 19031KT 0400NDV -RA FG NCD 14/13 Q1002 W11/S4"}, "geometry": {"type": "Point", "coordinates": [1.91, 58.37]}}, {"type": "Feature", "properties": {"id": "ENGC", "site": "Gullfax(OIL)", "prior": "3", "obsTime": "2018-09-17T20:50:00Z", "temp": 12.0, "dewp": 11.0, "wspd": 27, "wdir": 190, "ceil": 55, "cover": "OVC", "visib": 3.73, "fltcat": "MVFR", "altim": 1001.0, "wx": "-RA", "rawOb": "ENGC 172050Z 19027KT 6000 -RA FEW008 SCT020 OVC055 12/11 Q1001 W11/S4"}, "geometry": {"type": "Point", "coordinates": [2.03, 61.03]}}, {"type": "Feature", "properties": {"id": "ENDR", "site": "Draugen(OIL)", "prior": "3", "obsTime": "2018-09-17T20:50:00Z", "temp": 12.0, "dewp": 8.0, "wspd": 24, "wdir": 220, "altim": 1002.0, "rawOb": "ENDR 172050Z AUTO 22024KT 12/08 Q1002"}, "geometry": {"type": "Point", "coordinates": [7.8, 64.35]}}, {"type": "Feature", "properties": {"id": "EGCK", "site": "Caernarfon Arpt", "prior": "3", "obsTime": "2018-09-17T20:50:00Z", "temp": 17.0, "dewp": 15.0, "wspd": 14, "wdir": 180, "ceil": 22, "cover": "OVC", "visib": 6.21, "fltcat": "MVFR", "altim": 1003.0, "rawOb": "EGCK 172050Z AUTO 18014KT 9999 OVC022/// 17/15 Q1003"}, "geometry": {"type": "Point", "coordinates": [-4.34, 53.104]}}, {"type": "Feature", "properties": {"id": "ENNE", "site": "Norne FPSO(OIL)", "prior": "2", "obsTime": "2018-09-17T20:50:00Z", "temp": 11.0, "dewp": 8.0, "wspd": 27, "wdir": 250, "cover": "FEW", "altim": 998.0, "wx": "-SHRA", "rawOb": "ENNE 172050Z AUTO 25027KT 9999NDV -SHRA FEW019/// 11/08 Q0998 W///S6"}, "geometry": {"type": "Point", "coordinates": [8.08, 66.03]}}, {"type": "Feature", "properties": {"id": "LGMT", "site": "Mitilini Arpt", "prior": "4", "obsTime": "2018-09-17T19:50:00Z", "temp": 25.0, "dewp": 16.0, "wspd": 9, "wdir": 360, "cover": "CAVOK", "visib": 6.21, "fltcat": "VFR", "altim": 1018.0, "rawOb": "LGMT 171950Z 36009KT CAVOK 25/16 Q1018"}, "geometry": {"type": "Point", "coordinates": [26.598, 39.058]}}, {"type": "Feature", "properties": {"id": "LGKO", "site": "Kos Arpt", "prior": "4", "obsTime": "2018-09-17T20:50:00Z", "temp": 25.0, "dewp": 16.0, "wspd": 16, "wdir": 360, "cover": "CAVOK", "visib": 6.21, "fltcat": "VFR", "altim": 1012.0, "rawOb": "LGKO 172050Z 36016KT 330V040 CAVOK 25/16 Q1012"}, "geometry": {"type": "Point", "coordinates": [27.091, 36.794]}}, {"type": "Feature", "properties": {"id": "LGIR", "site": "Iraklion Intl", "prior": "2", "obsTime": "2018-09-17T20:50:00Z", "temp": 25.0, "dewp": 21.0, "wspd": 16, "wdir": 300, "cover": "FEW", "visib": 6.21, "fltcat": "VFR", "altim": 1015.0, "rawOb": "LGIR 172050Z 30016KT 9999 FEW020 25/21 Q1015 NOSIG"}, "geometry": {"type": "Point", "coordinates": [25.18, 35.34]}}, {"type": "Feature", "properties": {"id": "ENHM", "site": "Heimdal(OIL)", "prior": "3", "obsTime": "2018-09-17T20:50:00Z", "temp": 13.0, "dewp": 12.0, "wspd": 22, "wdir": 170, "ceil": 23, "cover": "BKN", "fltcat": "MVFR", "altim": 1002.0, "wx": "-RA", "rawOb": "ENHM 172050Z AUTO 17022KT 9999NDV -RA FEW009/// SCT016/// BKN023/// 13/12 Q1002 W13/S4"}, "geometry": {"type": "Point", "coordinates": [2.23, 59.57]}}, {"type": "Feature", "properties": {"id": "LCEN", "site": "Ercan Arpt", "prior": "4", "obsTime": "2018-09-17T20:50:00Z", "temp": 25.0, "dewp": 20.0, "wspd": 9, "wdir": 290, "cover": "CAVOK", "visib": 6.21, "fltcat": "VFR", "altim": 1009.0, "rawOb": "LCEN 172050Z 29009KT CAVOK 25/20 Q1009 NOSIG RMK RWY11 30007KT"}, "geometry": {"type": "Point", "coordinates": [33.501, 35.155]}}, {"type": "Feature", "properties": {"id": "LGEL", "site": "Elefsis(AB)", "prior": "6", "obsTime": "2018-09-17T20:50:00Z", "temp": 23.0, "dewp": 15.0, "wspd": 8, "wdir": 320, "cover": "CAVOK", "visib": 6.21, "fltcat": "VFR", "altim": 1019.0, "rawOb": "LGEL 172050Z 32008KT CAVOK 23/15 Q1019"}, "geometry": {"type": "Point", "coordinates": [23.556, 38.068]}}, {"type": "Feature", "properties": {"id": "LIRA", "site": "Ciampino Arpt", "prior": "6", "obsTime": "2018-09-17T20:50:00Z", "temp": 22.0, "dewp": 21.0, "wspd": 2, "wdir": 130, "cover": "SCT", "visib": 6.21, "fltcat": "VFR", "altim": 1020.0, "rawOb": "LIRA 172050Z 13002KT 9999 SCT040 22/21 Q1020"}, "geometry": {"type": "Point", "coordinates": [12.594, 41.8]}}, {"type": "Feature", "properties": {"id": "LCRA", "site": "Akrotiri (RAF)", "prior": "4", "obsTime": "2018-09-17T20:50:00Z", "temp": 26.0, "dewp": 10.0, "wspd": 5, "wdir": 300, "cover": "CAVOK", "visib": 6.21, "fltcat": "VFR", "altim": 1009.0, "rawOb": "LCRA 172050Z 30005KT CAVOK 26/10 Q1009 NOSIG"}, "geometry": {"type": "Point", "coordinates": [32.987, 34.591]}}, {"type": "Feature", "properties": {"id": "LOXZ", "site": "Zeltweg(AB)", "prior": "4", "obsTime": "2018-09-17T20:50:00Z", "temp": 14.0, "dewp": 12.0, "wspd": 2, "wdir": 290, "cover": "FEW", "visib": 9.32, "fltcat": "VFR", "altim": 1023.0, "rawOb": "LOXZ 172050Z 29002KT 15KM FEW040CU 14/12 Q1023 NOSIG"}, "geometry": {"type": "Point", "coordinates": [14.744, 47.202]}}, {"type": "Feature", "properties": {"id": "EGDY", "site": "Yeovilton (NAVY)", "prior": "4", "obsTime": "2018-09-17T20:50:00Z", "temp": 15.0, "dewp": 11.0, "wspd": 6, "wdir": 140, "cover": "CAVOK", "visib": 6.21, "fltcat": "VFR", "altim": 1007.0, "rawOb": "EGDY 172050Z 14006KT CAVOK 15/11 Q1007 BLU BECMG 9999 SCT020 WHT"}, "geometry": {"type": "Point", "coordinates": [-2.638, 51.009]}}, {"type": "Feature", "properties": {"id": "ETNW", "site": "Wunstorf (GER-AFB)", "prior": "6", "obsTime": "2018-09-17T20:20:00Z", "temp": 16.0, "dewp": 10.0, "wspd": 2, "wdir": 130, "ceil": 300, "cover": "BKN", "visib": 6.21, "fltcat": "VFR", "altim": 1016.0, "rawOb": "ETNW 172020Z 13002KT 9999 BKN300 16/10 Q1016 BLU+"}, "geometry": {"type": "Point", "coordinates": [9.428, 52.458]}}, {"type": "Feature", "properties": {"id": "ETNT", "site": "Wittmundhaven Arpt", "prior": "4", "obsTime": "2018-09-17T20:20:00Z", "temp": 15.0, "dewp": 14.0, "wspd": 3, "wdir": 100, "ceil": 300, "cover": "BKN", "visib": 6.21, "fltcat": "VFR", "altim": 1015.0, "wx": "MIFG", "rawOb": "ETNT 172020Z 10003KT 9999 R26/0300N MIFG BKN300 15/14 Q1015 BLU+"}, "geometry": {"type": "Point", "coordinates": [7.667, 53.548]}}, {"type": "Feature", "properties": {"id": "EGXT", "site": "Wittering(RAF)", "prior": "4", "obsTime": "2018-09-17T20:50:00Z", "temp": 18.0, "dewp": 10.0, "wspd": 9, "wdir": 170, "cover": "CLR", "visib": 6.21, "fltcat": "VFR", "altim": 1007.0, "rawOb": "EGXT 172050Z AUTO 17009KT 9999 NCD 18/10 Q1007"}, "geometry": {"type": "Point", "coordinates": [-0.473, 52.613]}}, {"type": "Feature", "properties": {"id": "LOWW", "site": "Wien Intl", "prior": "1", "obsTime": "2018-09-17T20:50:00Z", "temp": 18.0, "dewp": 14.0, "wspd": 6, "wdir": 140, "cover": "CAVOK", "visib": 6.21, "fltcat": "VFR", "altim": 1021.0, "rawOb": "LOWW 172050Z 14006KT CAVOK 18/14 Q1021 NOSIG"}, "geometry": {"type": "Point", "coordinates": [16.568, 48.114]}}, {"type": "Feature", "properties": {"id": "EGPC", "site": "Wick Arpt", "prior": "3", "obsTime": "2018-09-17T20:50:00Z", "temp": 13.0, "dewp": 12.0, "wspd": 16, "wdir": 170, "cover": "SCT", "visib": 6.21, "fltcat": "VFR", "altim": 993.0, "wx": "-RA", "rawOb": "EGPC 172050Z 17016KT 9999 -RA SCT036 13/12 Q0993"}, "geometry": {"type": "Point", "coordinates": [-3.093, 58.458]}}, {"type": "Feature", "properties": {"id": "EDLV", "site": "Weeze Arpt", "prior": "6", "obsTime": "2018-09-17T20:50:00Z", "temp": 16.0, "dewp": 8.0, "wspd": 0, "wdir": 0, "cover": "CAVOK", "visib": 6.21, "fltcat": "VFR", "altim": 1015.0, "rawOb": "EDLV 172050Z 00000KT CAVOK 16/08 Q1015"}, "geometry": {"type": "Point", "coordinates": [6.143, 51.603]}}, {"type": "Feature", "properties": {"id": "EGUW", "site": "Wattisham(RAF)", "prior": "4", "obsTime": "2018-09-17T20:50:00Z", "temp": 17.0, "dewp": 10.0, "wspd": 7, "wdir": 160, "cover": "CAVOK", "visib": 6.21, "fltcat": "VFR", "altim": 1009.0, "rawOb": "EGUW 172050Z 16007KT CAVOK 17/10 Q1009 BLU NOSIG"}, "geometry": {"type": "Point", "coordinates": [0.955, 52.127]}}, {"type": "Feature", "properties": {"id": "EGXW", "site": "Waddington(RAF)", "prior": "4", "obsTime": "2018-09-17T20:50:00Z", "temp": 18.0, "dewp": 8.0, "wspd": 12, "wdir": 180, "cover": "CAVOK", "visib": 6.21, "fltcat": "VFR", "altim": 1007.0, "rawOb": "EGXW 172050Z 18012KT CAVOK 18/08 Q1007 BLU NOSIG"}, "geometry": {"type": "Point", "coordinates": [-0.523, 53.168]}}, {"type": "Feature", "properties": {"id": "EHFS", "site": "Vlissingen/ZE", "prior": "5", "obsTime": "2018-09-17T20:55:00Z", "temp": 19.0, "dewp": 15.0, "wspd": 11, "wdir": 130, "cover": "CLR", "visib": 6.21, "fltcat": "VFR", "altim": 1012.0, "rawOb": "EHFS 172055Z AUTO 13011KT 9999 NCD 19/15 Q1012 W///H///"}, "geometry": {"type": "Point", "coordinates": [3.596, 51.441]}}, {"type": "Feature", "properties": {"id": "ESSV", "site": "Visby Arpt", "prior": "3", "obsTime": "2018-09-17T20:50:00Z", "temp": 15.0, "dewp": 11.0, "wspd": 8, "wdir": 260, "cover": "CLR", "visib": 6.21, "fltcat": "VFR", "altim": 1015.0, "rawOb": "ESSV 172050Z AUTO 26008KT 9999 NCD 15/11 Q1015"}, "geometry": {"type": "Point", "coordinates": [18.346, 57.663]}}, {"type": "Feature", "properties": {"id": "ESNV", "site": "Vilhelmina Arpt", "prior": "4", "obsTime": "2018-09-17T20:50:00Z", "temp": 3.0, "dewp": 0.0, "wspd": 2, "wdir": 0, "cover": "CLR", "visib": 6.21, "fltcat": "VFR", "altim": 1005.0, "rawOb": "ESNV 172050Z AUTO VRB02KT 9999 NCD 03/M00 Q1005"}, "geometry": {"type": "Point", "coordinates": [16.833, 64.579]}}, {"type": "Feature", "properties": {"id": "ENAL", "site": "Vigra/Alesund Arpt", "prior": "4", "obsTime": "2018-09-17T20:50:00Z", "temp": 12.0, "dewp": 9.0, "wspd": 7, "wdir": 210, "ceil": 39, "cover": "OVC", "visib": 6.21, "fltcat": "VFR", "altim": 1004.0, "wx": "-RA", "rawOb": "ENAL 172050Z AUTO 21007KT 9999 -RA BKN039/// OVC055/// 12/09 Q1004 REDZ"}, "geometry": {"type": "Point", "coordinates": [6.113, 62.561]}}, {"type": "Feature", "properties": {"id": "ESPE", "site": "Vidsel(AB)", "prior": "5", "obsTime": "2018-09-17T20:50:00Z", "temp": 7.0, "dewp": 4.0, "wspd": 3, "wdir": 290, "cover": "CLR", "visib": 6.21, "fltcat": "VFR", "altim": 1001.0, "rawOb": "ESPE 172050Z AUTO 29003KT 260V320 9999 NCD 07/04 Q1001"}, "geometry": {"type": "Point", "coordinates": [20.153, 65.875]}}, {"type": "Feature", "properties": {"id": "LIPX", "site": "Verona Arpt", "prior": "3", "obsTime": "2018-09-17T20:50:00Z", "temp": 21.0, "dewp": 18.0, "wspd": 5, "wdir": 330, "cover": "FEW", "visib": 6.21, "fltcat": "VFR", "altim": 1020.0, "rawOb": "LIPX 172050Z 33005KT 9999 FEW090 21/18 Q1020"}, "geometry": {"type": "Point", "coordinates": [10.888, 45.395]}}, {"type": "Feature", "properties": {"id": "EVVA", "site": "Ventpils Arpt", "prior": "4", "obsTime": "2018-09-17T20:50:00Z", "temp": 16.0, "dewp": 9.0, "wspd": 9, "wdir": 290, "cover": "CAVOK", "visib": 6.21, "fltcat": "VFR", "altim": 1015.0, "rawOb": "EVVA 172050Z AUTO 29009KT CAVOK 16/09 Q1015"}, "geometry": {"type": "Point", "coordinates": [21.545, 57.359]}}, {"type": "Feature", "properties": {"id": "LIPZ", "site": "Venezia/Polo Arpt", "prior": "1", "obsTime": "2018-09-17T20:50:00Z", "temp": 23.0, "dewp": 20.0, "wspd": 3, "wdir": 290, "cover": "CAVOK", "visib": 6.21, "fltcat": "VFR", "altim": 1020.0, "rawOb": "LIPZ 172050Z 29003KT 270V350 CAVOK 23/20 Q1020 NOSIG"}, "geometry": {"type": "Point", "coordinates": [12.351, 45.504]}}, {"type": "Feature", "properties": {"id": "ESMX", "site": "Vaxjo Arpt", "prior": "4", "obsTime": "2018-09-17T20:50:00Z", "temp": 13.0, "dewp": 9.0, "wspd": 4, "wdir": 200, "ceil": 32, "cover": "OVC", "visib": 6.21, "fltcat": "VFR", "altim": 1016.0, "rawOb": "ESMX 172050Z AUTO 20004KT 9999 BKN032/// OVC040/// 13/09 Q1016"}, "geometry": {"type": "Point", "coordinates": [14.727, 56.927]}}, {"type": "Feature", "properties": {"id": "ENSS", "site": "Vardoe Arpt", "prior": "4", "obsTime": "2018-09-17T19:50:00Z", "temp": 7.0, "dewp": 6.0, "wspd": 7, "wdir": 280, "cover": "SCT", "visib": 6.21, "fltcat": "VFR", "altim": 994.0, "rawOb": "ENSS 171950Z 28007KT 9999 FEW015 SCT050 07/06 Q0994 RMK WIND 500FT 30012KT"}, "geometry": {"type": "Point", "coordinates": [31.045, 70.356]}}, {"type": "Feature", "properties": {"id": "LTCI", "site": "Van/Melen Arpt", "prior": "1", "obsTime": "2018-09-17T20:50:00Z", "temp": 13.0, "dewp": 3.0, "wspd": 5, "wdir": 80, "cover": "CAVOK", "visib": 6.21, "fltcat": "VFR", "altim": 1019.0, "rawOb": "LTCI 172050Z 08005KT CAVOK 13/03 Q1019 NOSIG"}, "geometry": {"type": "Point", "coordinates": [43.333, 38.47]}}, {"type": "Feature", "properties": {"id": "LEBT", "site": "Valencia/Betera", "prior": "6", "obsTime": "2018-09-17T21:00:00Z", "temp": 22.0, "dewp": 21.0, "wspd": 3, "wdir": 10, "visib": 6.21, "altim": 1017.0, "rawOb": "LEBT 172100Z AUTO 01003KT 320V070 9999 ////// 22/21 Q1017"}, "geometry": {"type": "Point", "coordinates": [-0.45, 39.58]}}, {"type": "Feature", "properties": {"id": "ENVD", "site": "Vadso Arpt", "prior": "5", "obsTime": "2018-09-17T20:50:00Z", "temp": 8.0, "dewp": 6.0, "wspd": 11, "wdir": 290, "ceil": 48, "cover": "BKN", "visib": 6.21, "fltcat": "VFR", "altim": 994.0, "rawOb": "ENVD 172050Z 29011KT 9999 SCT025 BKN048 08/06 Q0994"}, "geometry": {"type": "Point", "coordinates": [29.844, 70.065]}}, {"type": "Feature", "properties": {"id": "EFVA", "site": "Vaasa Arpt", "prior": "2", "obsTime": "2018-09-17T20:50:00Z", "temp": 11.0, "dewp": 7.0, "wspd": 8, "wdir": 280, "cover": "CAVOK", "visib": 6.21, "fltcat": "VFR", "altim": 1005.0, "rawOb": "EFVA 172050Z AUTO 28008KT 260V320 CAVOK 11/07 Q1005"}, "geometry": {"type": "Point", "coordinates": [21.762, 63.05]}}, {"type": "Feature", "properties": {"id": "EFUT", "site": "Utti Arpt", "prior": "5", "obsTime": "2018-09-17T20:50:00Z", "temp": 11.0, "dewp": 9.0, "wspd": 11, "wdir": 300, "ceil": 12, "cover": "BKN", "visib": 6.21, "fltcat": "MVFR", "altim": 1005.0, "rawOb": "EFUT 172050Z AUTO 30011KT 240V350 9999 BKN012 11/09 Q1005"}, "geometry": {"type": "Point", "coordinates": [26.938, 60.896]}}, {"type": "Feature", "properties": {"id": "LEBR", "site": "Bardenas(WX)", "prior": "4", "obsTime": "2018-09-17T21:00:00Z", "temp": 24.0, "dewp": 16.0, "wspd": 9, "wdir": 100, "cover": "CLR", "visib": 6.21, "fltcat": "VFR", "altim": 1017.0, "rawOb": "LEBR 172100Z AUTO 10009KT 9999 NSC 24/16 Q1017"}, "geometry": {"type": "Point", "coordinates": [-1.43, 42.2]}}, {"type": "Feature", "properties": {"id": "EHHW", "site": "Buitengaats", "prior": "4", "obsTime": "2018-09-17T20:55:00Z", "temp": 19.0, "dewp": 13.0, "wspd": 12, "wdir": 200, "cover": "CLR", "altim": 1013.0, "rawOb": "EHHW 172055Z AUTO 20012KT //// // NSC 19/13 Q1013 RE// W///H///"}, "geometry": {"type": "Point", "coordinates": [6.04, 54.04]}}, {"type": "Feature", "properties": {"id": "ESNU", "site": "Umea Arpt", "prior": "3", "obsTime": "2018-09-17T20:50:00Z", "temp": 6.0, "dewp": 5.0, "wspd": 2, "wdir": 0, "cover": "CAVOK", "visib": 6.21, "fltcat": "VFR", "altim": 1005.0, "rawOb": "ESNU 172050Z VRB02KT CAVOK 06/05 Q1005"}, "geometry": {"type": "Point", "coordinates": [20.284, 63.791]}}, {"type": "Feature", "properties": {"id": "ENLA", "site": "Ula Platform(OIL)", "prior": "4", "obsTime": "2018-09-17T20:50:00Z", "temp": 15.0, "dewp": 15.0, "wspd": 31, "wdir": 180, "ceil": 36, "cover": "BKN", "altim": 1005.0, "rawOb": "ENLA 172050Z AUTO 18031KT 8000NDV BKN036/// BKN056/// BKN066/// 15/15 Q1005 W///S3"}, "geometry": {"type": "Point", "coordinates": [2.845, 57.11]}}, {"type": "Feature", "properties": {"id": "EFTU", "site": "Turku Arpt", "prior": "3", "obsTime": "2018-09-17T20:50:00Z", "temp": 10.0, "dewp": 8.0, "wspd": 5, "wdir": 260, "cover": "FEW", "visib": 6.21, "fltcat": "VFR", "altim": 1010.0, "rawOb": "EFTU 172050Z AUTO 26005KT 9999 FEW028/// 10/08 Q1010"}, "geometry": {"type": "Point", "coordinates": [22.266, 60.514]}}, {"type": "Feature", "properties": {"id": "ENVA", "site": "Trondheim Arpt", "prior": "2", "obsTime": "2018-09-17T20:50:00Z", "temp": 9.0, "dewp": 8.0, "wspd": 6, "wdir": 100, "ceil": 65, "cover": "BKN", "visib": 6.21, "fltcat": "VFR", "altim": 1006.0, "rawOb": "ENVA 172050Z 10006KT 9999 FEW042 BKN065 09/08 Q1006 RMK WIND 670FT 16006KT"}, "geometry": {"type": "Point", "coordinates": [10.916, 63.457]}}, {"type": "Feature", "properties": {"id": "ESGT", "site": "Trollhattan Arpt", "prior": "5", "obsTime": "2018-09-17T20:50:00Z", "temp": 12.0, "dewp": 11.0, "wspd": 6, "wdir": 160, "ceil": 130, "cover": "OVC", "visib": 6.21, "fltcat": "VFR", "altim": 1014.0, "rawOb": "ESGT 172050Z AUTO 16006KT 9999 FEW049/// BKN130/// OVC190/// 12/11 Q1014"}, "geometry": {"type": "Point", "coordinates": [12.346, 58.317]}}, {"type": "Feature", "properties": {"id": "ENQC", "site": "Troll-C(OIL)", "prior": "6", "obsTime": "2018-09-17T20:50:00Z", "temp": 13.0, "dewp": 12.0, "wspd": 21, "wdir": 160, "cover": "FEW", "altim": 1003.0, "wx": "-RA", "rawOb": "ENQC 172050Z AUTO 16021KT 4200NDV -RA FEW007/// 13/12 Q1003 W///S4"}, "geometry": {"type": "Point", "coordinates": [3.61, 60.89]}}, {"type": "Feature", "properties": {"id": "ENQA", "site": "Troll-A(OIL)", "prior": "5", "obsTime": "2018-09-17T20:50:00Z", "temp": 13.0, "dewp": 11.0, "wspd": 26, "wdir": 170, "ceil": 62, "cover": "OVC", "altim": 1004.0, "wx": "-SHRA", "rawOb": "ENQA 172050Z AUTO 17026KT 9999NDV -SHRA FEW031/// OVC062/// 13/11 Q1004 W10/S4"}, "geometry": {"type": "Point", "coordinates": [3.73, 60.65]}}, {"type": "Feature", "properties": {"id": "LIPH", "site": "Treviso Arpt", "prior": "6", "obsTime": "2018-09-17T20:50:00Z", "temp": 21.0, "dewp": 19.0, "wspd": 1, "wdir": 220, "cover": "CAVOK", "visib": 6.21, "fltcat": "VFR", "altim": 1020.0, "rawOb": "LIPH 172050Z 22001KT CAVOK 21/19 Q1020"}, "geometry": {"type": "Point", "coordinates": [12.193, 45.648]}}, {"type": "Feature", "properties": {"id": "LTCG", "site": "Trabzon Arpt", "prior": "1", "obsTime": "2018-09-17T20:50:00Z", "temp": 21.0, "dewp": 16.0, "wspd": 9, "wdir": 230, "cover": "SCT", "visib": 6.21, "fltcat": "VFR", "altim": 1020.0, "rawOb": "LTCG 172050Z 23009KT 9999 SCT035 SCT100 21/16 Q1020 NOSIG RMK RWY29 17004KT"}, "geometry": {"type": "Point", "coordinates": [39.788, 40.996]}}, {"type": "Feature", "properties": {"id": "ESST", "site": "Torsby Arpt", "prior": "4", "obsTime": "2018-09-17T20:50:00Z", "temp": 12.0, "dewp": 9.0, "wspd": 4, "wdir": 150, "ceil": 74, "cover": "BKN", "visib": 6.21, "fltcat": "VFR", "altim": 1011.0, "wx": "-DZ", "rawOb": "ESST 172050Z AUTO 15004KT 120V200 9999 -DZ BKN074/// 12/09 Q1011"}, "geometry": {"type": "Point", "coordinates": [12.991, 60.158]}}, {"type": "Feature", "properties": {"id": "ENTO", "site": "Torp Arpt", "prior": "5", "obsTime": "2018-09-17T20:50:00Z", "temp": 14.0, "dewp": 11.0, "wspd": 11, "wdir": 210, "ceil": 130, "cover": "BKN", "visib": 6.21, "fltcat": "VFR", "altim": 1011.0, "rawOb": "ENTO 172050Z AUTO 21011KT 9999 BKN130/// 14/11 Q1011"}, "geometry": {"type": "Point", "coordinates": [10.259, 59.187]}}, {"type": "Feature", "properties": {"id": "LIMF", "site": "Torino/Caselle Arpt", "prior": "3", "obsTime": "2018-09-17T20:50:00Z", "temp": 20.0, "dewp": 17.0, "wspd": 6, "wdir": 300, "ceil": 130, "cover": "BKN", "visib": 6.21, "fltcat": "VFR", "altim": 1021.0, "rawOb": "LIMF 172050Z 30006KT 9999 BKN130 20/17 Q1021"}, "geometry": {"type": "Point", "coordinates": [7.65, 45.2]}}, {"type": "Feature", "properties": {"id": "LTBQ", "site": "Topel (TUR-AFB)", "prior": "4", "obsTime": "2018-09-17T20:50:00Z", "temp": 19.0, "dewp": 16.0, "wspd": 3, "wdir": 60, "cover": "SCT", "visib": 6.21, "fltcat": "VFR", "altim": 1022.0, "rawOb": "LTBQ 172050Z 06003KT 010V130 9999 SCT040 19/16 Q1022 NOSIG"}, "geometry": {"type": "Point", "coordinates": [30.083, 40.735]}}, {"type": "Feature", "properties": {"id": "EGXZ", "site": "Topcliffe(RAF)", "prior": "5", "obsTime": "2018-09-17T20:50:00Z", "temp": 17.0, "dewp": 15.0, "wspd": 8, "wdir": 170, "cover": "CLR", "visib": 6.21, "fltcat": "VFR", "altim": 1005.0, "rawOb": "EGXZ 172050Z AUTO 17008KT 9999 NCD 17/15 Q1005"}, "geometry": {"type": "Point", "coordinates": [-1.382, 54.206]}}, {"type": "Feature", "properties": {"id": "EGPU", "site": "Tiree Island Arpt", "prior": "3", "obsTime": "2018-09-17T20:50:00Z", "temp": 15.0, "dewp": 15.0, "wspd": 24, "wdir": 180, "ceil": 6, "cover": "BKN", "visib": 3.11, "fltcat": "IFR", "altim": 993.0, "wx": "BR", "rawOb": "EGPU 172050Z AUTO 18024KT 160V220 5000 BR BKN006/// 15/15 Q0993 RERA"}, "geometry": {"type": "Point", "coordinates": [-6.872, 56.5]}}, {"type": "Feature", "properties": {"id": "LATI", "site": "Tirana Intl", "prior": "4", "obsTime": "2018-09-17T21:20:00Z", "temp": 17.0, "dewp": 14.0, "wspd": 5, "wdir": 180, "cover": "CAVOK", "visib": 6.21, "fltcat": "VFR", "altim": 1019.0, "rawOb": "LATI 172120Z 18005KT CAVOK 17/14 Q1019 NOSIG"}, "geometry": {"type": "Point", "coordinates": [19.72, 41.414]}}, {"type": "Feature", "properties": {"id": "LGTS", "site": "Thessaloniki Intl", "prior": "1", "obsTime": "2018-09-17T20:50:00Z", "temp": 20.0, "dewp": 14.0, "wspd": 5, "wdir": 100, "cover": "FEW", "visib": 6.21, "fltcat": "VFR", "altim": 1021.0, "rawOb": "LGTS 172050Z 10005KT 9999 FEW025 20/14 Q1021 NOSIG"}, "geometry": {"type": "Point", "coordinates": [22.971, 40.52]}}, {"type": "Feature", "properties": {"id": "LETL", "site": "Teruel Arpt", "prior": "3", "obsTime": "2018-09-17T21:00:00Z", "temp": 14.0, "dewp": 13.0, "wspd": 2, "wdir": 140, "ceil": 0, "cover": "OVX", "visib": 2.42, "fltcat": "LIFR", "altim": 1023.0, "wx": "+RA", "rawOb": "LETL 172100Z AUTO 14002KT 3900 +RA VV/// 14/13 Q1023 RETS"}, "geometry": {"type": "Point", "coordinates": [-1.217, 40.412]}}, {"type": "Feature", "properties": {"id": "EFTP", "site": "Tampere/Pirkkala Arp", "prior": "4", "obsTime": "2018-09-17T20:50:00Z", "temp": 10.0, "dewp": 9.0, "wspd": 8, "wdir": 260, "cover": "CAVOK", "visib": 6.21, "fltcat": "VFR", "altim": 1008.0, "rawOb": "EFTP 172050Z AUTO 26008KT CAVOK 10/09 Q1008"}, "geometry": {"type": "Point", "coordinates": [23.614, 61.417]}}, {"type": "Feature", "properties": {"id": "LGSO", "site": "Syros Island Arpt", "prior": "6", "obsTime": "2018-09-17T20:50:00Z", "temp": 24.0, "dewp": 18.0, "wspd": 14, "wdir": 350, "altim": 1016.0, "rawOb": "LGSO 172050Z AUTO 35014KT //// // ////// 24/18 Q1016 RE//"}, "geometry": {"type": "Point", "coordinates": [24.95, 37.422]}}, {"type": "Feature", "properties": {"id": "ENSH", "site": "Svolvaer/Helle Arpt", "prior": "5", "obsTime": "2018-09-17T19:50:00Z", "temp": 8.0, "dewp": 7.0, "wspd": 3, "wdir": 340, "ceil": 45, "cover": "BKN", "visib": 6.21, "fltcat": "VFR", "altim": 999.0, "wx": "-SHRA", "rawOb": "ENSH 171950Z 34003KT 9999 -SHRA FEW011 BKN045 08/07 Q0999 RMK WIND 150FT VRB02KT"}, "geometry": {"type": "Point", "coordinates": [14.669, 68.243]}}, {"type": "Feature", "properties": {"id": "ESND", "site": "Sveg Arpt", "prior": "3", "obsTime": "2018-09-17T20:50:00Z", "temp": 9.0, "dewp": 4.0, "wspd": 7, "wdir": 240, "cover": "CLR", "visib": 6.21, "fltcat": "VFR", "altim": 1008.0, "rawOb": "ESND 172050Z AUTO 24007KT 9999 NCD 09/04 Q1008"}, "geometry": {"type": "Point", "coordinates": [14.423, 62.048]}}, {"type": "Feature", "properties": {"id": "ESNN", "site": "Sundsvall/Harnosand", "prior": "3", "obsTime": "2018-09-17T20:50:00Z", "temp": 6.0, "dewp": 5.0, "wspd": 3, "wdir": 310, "cover": "CAVOK", "visib": 6.21, "fltcat": "VFR", "altim": 1008.0, "rawOb": "ESNN 172050Z 31003KT CAVOK 06/05 Q1008"}, "geometry": {"type": "Point", "coordinates": [17.445, 62.526]}}, {"type": "Feature", "properties": {"id": "EGPB", "site": "Sumburgh Arpt", "prior": "3", "obsTime": "2018-09-17T20:50:00Z", "temp": 12.0, "dewp": 11.0, "wspd": 13, "wdir": 140, "ceil": 5, "cover": "OVC", "visib": 2.92, "fltcat": "IFR", "altim": 998.0, "wx": "-DZ", "rawOb": "EGPB 172050Z AUTO 14013KT 4700 -DZ BKN005/// BKN014/// OVC024/// 12/11 Q0998 RERA"}, "geometry": {"type": "Point", "coordinates": [-1.294, 59.877]}}, {"type": "Feature", "properties": {"id": "EGPO", "site": "Stornoway Arpt", "prior": "2", "obsTime": "2018-09-17T20:50:00Z", "temp": 13.0, "dewp": 13.0, "wspd": 9, "wdir": 60, "ceil": 4, "cover": "OVC", "visib": 0.99, "fltcat": "LIFR", "altim": 991.0, "wx": "+RA", "rawOb": "EGPO 172050Z AUTO 06009KT 020V080 1600 +RA BKN004/// OVC016/// 13/13 Q0991"}, "geometry": {"type": "Point", "coordinates": [-6.331, 58.215]}}, {"type": "Feature", "properties": {"id": "ENSK", "site": "Storkmarknes Arpt", "prior": "4", "obsTime": "2018-09-17T19:50:00Z", "temp": 8.0, "dewp": 6.0, "wspd": 3, "wdir": 350, "ceil": 34, "cover": "BKN", "visib": 6.21, "fltcat": "VFR", "altim": 998.0, "wx": "-SHRA", "rawOb": "ENSK 171950Z 35003KT 9999 -SHRA FEW025 BKN034 08/06 Q0998"}, "geometry": {"type": "Point", "coordinates": [15.021, 68.581]}}, {"type": "Feature", "properties": {"id": "ESOW", "site": "Stockholm/Vasteras A", "prior": "4", "obsTime": "2018-09-17T20:50:00Z", "temp": 12.0, "dewp": 7.0, "wspd": 7, "wdir": 230, "cover": "CLR", "visib": 6.21, "fltcat": "VFR", "altim": 1013.0, "rawOb": "ESOW 172050Z AUTO 23007KT 200V260 9999 NCD 12/07 Q1013"}, "geometry": {"type": "Point", "coordinates": [16.634, 59.59]}}, {"type": "Feature", "properties": {"id": "ESSB", "site": "Stockholm/Bromma Arp", "prior": "4", "obsTime": "2018-09-17T20:50:00Z", "temp": 12.0, "dewp": 8.0, "wspd": 4, "wdir": 240, "cover": "CLR", "visib": 6.21, "fltcat": "VFR", "altim": 1013.0, "rawOb": "ESSB 172050Z AUTO 24004KT 9999 NCD 12/08 Q1013"}, "geometry": {"type": "Point", "coordinates": [17.945, 59.353]}}, {"type": "Feature", "properties": {"id": "ENZV", "site": "Stavanger/Sola Arpt", "prior": "4", "obsTime": "2018-09-17T20:50:00Z", "temp": 14.0, "dewp": 11.0, "wspd": 13, "wdir": 150, "ceil": 40, "cover": "BKN", "visib": 6.21, "fltcat": "VFR", "altim": 1008.0, "wx": "-SHRA", "rawOb": "ENZV 172050Z 15013KT 9999 -SHRA FEW006 SCT018 BKN040 14/11 Q1008"}, "geometry": {"type": "Point", "coordinates": [5.636, 58.878]}}, {"type": "Feature", "properties": {"id": "EGDX", "site": "St Athan(RAF)", "prior": "6", "obsTime": "2018-09-17T20:50:00Z", "temp": 17.0, "dewp": 14.0, "wspd": 6, "wdir": 130, "ceil": 23, "cover": "BKN", "visib": 6.21, "fltcat": "MVFR", "altim": 1006.0, "rawOb": "EGDX 172050Z AUTO 13006KT 9999 BKN023/// 17/14 Q1006"}, "geometry": {"type": "Point", "coordinates": [-3.436, 51.404]}}, {"type": "Feature", "properties": {"id": "ENFB", "site": "Statfjord B(OIL)", "prior": "6", "obsTime": "2018-09-17T20:50:00Z", "temp": 12.0, "dewp": 12.0, "wspd": 31, "wdir": 170, "ceil": 43, "cover": "BKN", "altim": 1001.0, "wx": "-RA", "rawOb": "ENFB 172050Z AUTO 17031KT 8000NDV -RA FEW009/// BKN043/// 12/12 Q1001 W///S4"}, "geometry": {"type": "Point", "coordinates": [1.83, 61.2]}}, {"type": "Feature", "properties": {"id": "ENSF", "site": "Statfjord A(OIL)", "prior": "6", "obsTime": "2018-09-17T20:50:00Z", "wspd": 30, "wdir": 170, "ceil": 52, "cover": "BKN", "rawOb": "ENSF 172050Z AUTO 17030KT //// SCT009/// BKN052/// BKN061/// ///// Q//// W///S4"}, "geometry": {"type": "Point", "coordinates": [1.85, 61.25]}}, {"type": "Feature", "properties": {"id": "EGOM", "site": "Spadeadam", "prior": "3", "obsTime": "2018-09-17T20:50:00Z", "temp": 16.0, "dewp": 13.0, "wspd": 13, "wdir": 220, "ceil": 39, "cover": "BKN", "visib": 6.21, "fltcat": "VFR", "altim": 1003.0, "rawOb": "EGOM 172050Z AUTO 22013KT 9999 FEW028/// BKN039/// 16/13 Q1003"}, "geometry": {"type": "Point", "coordinates": [-2.55, 55.05]}}, {"type": "Feature", "properties": {"id": "EGMC", "site": "Southend Arpt", "prior": "4", "obsTime": "2018-09-17T20:50:00Z", "temp": 16.0, "dewp": 10.0, "wspd": 6, "wdir": 140, "cover": "CAVOK", "visib": 6.21, "fltcat": "VFR", "altim": 1009.0, "rawOb": "EGMC 172050Z 14006KT CAVOK 16/10 Q1009"}, "geometry": {"type": "Point", "coordinates": [0.698, 51.573]}}, {"type": "Feature", "properties": {"id": "EGHI", "site": "Southampton Intl", "prior": "4", "obsTime": "2018-09-17T20:50:00Z", "temp": 14.0, "dewp": 11.0, "wspd": 1, "wdir": 0, "cover": "CAVOK", "visib": 6.21, "fltcat": "VFR", "altim": 1008.0, "rawOb": "EGHI 172050Z VRB01KT CAVOK 14/11 Q1008"}, "geometry": {"type": "Point", "coordinates": [-1.357, 50.95]}}, {"type": "Feature", "properties": {"id": "LGSA", "site": "Souda Bay/Chania Int", "prior": "3", "obsTime": "2018-09-17T20:50:00Z", "temp": 22.0, "dewp": 19.0, "wspd": 0, "wdir": 0, "cover": "FEW", "visib": 6.21, "fltcat": "VFR", "altim": 1017.0, "rawOb": "LGSA 172050Z 00000KT 9999 FEW020 22/19 Q1017"}, "geometry": {"type": "Point", "coordinates": [24.152, 35.531]}}, {"type": "Feature", "properties": {"id": "ENQR", "site": "Snorre B(OIL)", "prior": "6", "obsTime": "2018-09-17T20:50:00Z", "temp": 12.0, "dewp": 11.0, "wspd": 29, "wdir": 170, "ceil": 30, "cover": "BKN", "fltcat": "MVFR", "altim": 1001.0, "rawOb": "ENQR 172050Z AUTO 17029KT 6000NDV FEW006/// SCT009/// BKN030/// 12/11 Q1001 W///S5"}, "geometry": {"type": "Point", "coordinates": [2.22, 61.35]}}, {"type": "Feature", "properties": {"id": "ENSE", "site": "Snorre A(OIL)", "prior": "5", "obsTime": "2018-09-17T20:50:00Z", "temp": 12.0, "dewp": 11.0, "wspd": 28, "wdir": 180, "ceil": 51, "cover": "OVC", "altim": 1001.0, "wx": "-RA", "rawOb": "ENSE 172050Z AUTO 18028KT 9999NDV -RA FEW016/// BKN051/// OVC066/// 12/11 Q1001 W///S5"}, "geometry": {"type": "Point", "coordinates": [2.15, 61.45]}}, {"type": "Feature", "properties": {"id": "ESGR", "site": "Skovde Arpt", "prior": "4", "obsTime": "2018-09-17T20:50:00Z", "temp": 12.0, "dewp": 8.0, "wspd": 3, "wdir": 190, "cover": "CAVOK", "visib": 6.21, "fltcat": "VFR", "altim": 1014.0, "rawOb": "ESGR 172050Z 19003KT CAVOK 12/08 Q1014"}, "geometry": {"type": "Point", "coordinates": [13.972, 58.454]}}, {"type": "Feature", "properties": {"id": "ESNS", "site": "Skelleftea Arpt", "prior": "4", "obsTime": "2018-09-17T20:50:00Z", "temp": 8.0, "dewp": 5.0, "wspd": 6, "wdir": 240, "cover": "CLR", "visib": 6.21, "fltcat": "VFR", "altim": 1003.0, "rawOb": "ESNS 172050Z AUTO 24006KT 9999 NCD 08/05 Q1003"}, "geometry": {"type": "Point", "coordinates": [21.081, 64.624]}}, {"type": "Feature", "properties": {"id": "ESKN", "site": "Skavasta Arpt", "prior": "3", "obsTime": "2018-09-17T20:50:00Z", "temp": 12.0, "dewp": 8.0, "wspd": 8, "wdir": 280, "cover": "CAVOK", "visib": 6.21, "fltcat": "VFR", "altim": 1014.0, "rawOb": "ESKN 172050Z 28008KT CAVOK 12/08 Q1014"}, "geometry": {"type": "Point", "coordinates": [16.912, 58.788]}}, {"type": "Feature", "properties": {"id": "LTAR", "site": "Sivas Arpt", "prior": "3", "obsTime": "2018-09-17T20:50:00Z", "temp": 9.0, "dewp": 8.0, "wspd": 7, "wdir": 350, "cover": "FEW", "visib": 6.21, "fltcat": "VFR", "altim": 1023.0, "rawOb": "LTAR 172050Z 35007KT 9999 FEW040 09/08 Q1023"}, "geometry": {"type": "Point", "coordinates": [36.903, 39.812]}}, {"type": "Feature", "properties": {"id": "LSMS", "site": "Sion Arpt", "prior": "3", "obsTime": "2018-09-17T20:50:00Z", "temp": 22.0, "dewp": 13.0, "wspd": 1, "wdir": 0, "cover": "CAVOK", "visib": 6.21, "fltcat": "VFR", "altim": 1019.0, "rawOb": "LSMS 172050Z AUTO VRB01KT CAVOK 22/13 Q1019"}, "geometry": {"type": "Point", "coordinates": [7.326, 46.219]}}, {"type": "Feature", "properties": {"id": "LSGS", "site": "Sion Arpt", "prior": "7", "obsTime": "2018-09-17T20:50:00Z", "temp": 22.0, "dewp": 13.0, "wspd": 1, "wdir": 0, "cover": "CAVOK", "visib": 6.21, "fltcat": "VFR", "altim": 1019.0, "rawOb": "LSGS 172050Z AUTO VRB01KT CAVOK 22/13 Q1019"}, "geometry": {"type": "Point", "coordinates": [7.328, 46.219]}}, {"type": "Feature", "properties": {"id": "EYSA", "site": "Siauliai Intl", "prior": "4", "obsTime": "2018-09-17T21:20:00Z", "temp": 14.0, "dewp": 14.0, "wspd": 7, "wdir": 250, "cover": "CAVOK", "visib": 6.21, "fltcat": "VFR", "altim": 1017.0, "rawOb": "EYSA 172120Z 25007KT CAVOK 14/14 Q1017 BLU NOSIG"}, "geometry": {"type": "Point", "coordinates": [23.392, 55.895]}}, {"type": "Feature", "properties": {"id": "EGOS", "site": "Shawbury(RAF)", "prior": "4", "obsTime": "2018-09-17T20:50:00Z", "temp": 17.0, "dewp": 13.0, "wspd": 13, "wdir": 170, "cover": "CLR", "visib": 6.21, "fltcat": "VFR", "altim": 1005.0, "rawOb": "EGOS 172050Z AUTO 17013KT 9999 NCD 17/13 Q1005"}, "geometry": {"type": "Point", "coordinates": [-2.668, 52.797]}}, {"type": "Feature", "properties": {"id": "LEEC", "site": "Sevilla/El Copero", "prior": "6", "obsTime": "2018-09-17T21:00:00Z", "temp": 26.0, "dewp": 17.0, "wspd": 3, "wdir": 270, "cover": "CAVOK", "visib": 6.21, "fltcat": "VFR", "altim": 1014.0, "rawOb": "LEEC 172100Z 27003KT CAVOK 26/17 Q1014"}, "geometry": {"type": "Point", "coordinates": [-5.999, 37.313]}}, {"type": "Feature", "properties": {"id": "EFSI", "site": "Seinajoki/Ilmajoki A", "prior": "5", "obsTime": "2018-09-17T20:50:00Z", "temp": 8.0, "dewp": 7.0, "wspd": 5, "wdir": 270, "cover": "CAVOK", "visib": 6.21, "fltcat": "VFR", "altim": 1006.0, "rawOb": "EFSI 172050Z AUTO 27005KT 230V300 CAVOK 08/07 Q1006"}, "geometry": {"type": "Point", "coordinates": [22.835, 62.691]}}, {"type": "Feature", "properties": {"id": "ETNS", "site": "Schleswig-Jagel(GER-", "prior": "6", "obsTime": "2018-09-17T20:20:00Z", "temp": 13.0, "dewp": 12.0, "wspd": 2, "wdir": 70, "visib": 4.97, "fltcat": "MVFR", "altim": 1016.0, "rawOb": "ETNS 172020Z AUTO 07002KT 8000 // ////// 13/12 Q1016 ///"}, "geometry": {"type": "Point", "coordinates": [9.516, 54.459]}}, {"type": "Feature", "properties": {"id": "EGPM", "site": "Scatsta Arpt", "prior": "5", "obsTime": "2018-09-17T20:50:00Z", "temp": 12.0, "dewp": 10.0, "wspd": 13, "wdir": 150, "cover": "SCT", "visib": 6.21, "fltcat": "VFR", "altim": 998.0, "wx": "-RA", "rawOb": "EGPM 172050Z AUTO 15013KT 9999 -RA FEW023/// SCT031/// 12/10 Q0998"}, "geometry": {"type": "Point", "coordinates": [-1.294, 60.434]}}, {"type": "Feature", "properties": {"id": "EGXP", "site": "Scampton(MIL)", "prior": "6", "obsTime": "2018-09-17T20:50:00Z", "temp": 19.0, "dewp": 8.0, "wspd": 9, "wdir": 180, "cover": "CLR", "visib": 6.21, "fltcat": "VFR", "altim": 1007.0, "rawOb": "EGXP 172050Z AUTO 18009KT 9999 // NCD 19/08 Q1007"}, "geometry": {"type": "Point", "coordinates": [-0.553, 53.306]}}, {"type": "Feature", "properties": {"id": "EFSA", "site": "Savonlinna Arpt", "prior": "5", "obsTime": "2018-09-17T20:50:00Z", "temp": 11.0, "dewp": 10.0, "wspd": 9, "wdir": 280, "ceil": 9, "cover": "OVC", "visib": 6.21, "fltcat": "IFR", "altim": 1001.0, "wx": "-SHRA", "rawOb": "EFSA 172050Z AUTO 28009KT 250V310 9999 -SHRA BKN009 OVC032 11/10 Q1001"}, "geometry": {"type": "Point", "coordinates": [28.941, 61.944]}}, {"type": "Feature", "properties": {"id": "ESIB", "site": "Satenas Arpt", "prior": "4", "obsTime": "2018-09-17T20:50:00Z", "temp": 12.0, "dewp": 12.0, "wspd": 7, "wdir": 190, "ceil": 140, "cover": "BKN", "visib": 6.21, "fltcat": "VFR", "altim": 1013.0, "rawOb": "ESIB 172050Z AUTO 19007KT 9999 BKN140/// 12/12 Q1013"}, "geometry": {"type": "Point", "coordinates": [12.711, 58.43]}}, {"type": "Feature", "properties": {"id": "LGSR", "site": "Santorini Isl Aprt", "prior": "4", "obsTime": "2018-09-17T20:50:00Z", "temp": 25.0, "dewp": 17.0, "wspd": 12, "wdir": 320, "cover": "CAVOK", "visib": 6.21, "fltcat": "VFR", "altim": 1015.0, "rawOb": "LGSR 172050Z 32012KT CAVOK 25/17 Q1015"}, "geometry": {"type": "Point", "coordinates": [25.478, 36.4]}}, {"type": "Feature", "properties": {"id": "LTFH", "site": "Samsun-Carsamba Arpt", "prior": "2", "obsTime": "2018-09-17T20:50:00Z", "temp": 19.0, "dewp": 15.0, "wspd": 2, "wdir": 0, "ceil": 100, "cover": "BKN", "visib": 6.21, "fltcat": "VFR", "altim": 1021.0, "rawOb": "LTFH 172050Z VRB02KT 9999 SCT033 BKN100 19/15 Q1021 NOSIG"}, "geometry": {"type": "Point", "coordinates": [36.563, 41.257]}}, {"type": "Feature", "properties": {"id": "LSZS", "site": "Samedan Arpt", "prior": "3", "obsTime": "2018-09-17T20:50:00Z", "temp": 10.0, "dewp": 8.0, "wspd": 2, "wdir": 0, "cover": "CAVOK", "visib": 6.21, "fltcat": "VFR", "altim": 1026.0, "rawOb": "LSZS 172050Z AUTO VRB02KT CAVOK 10/08 Q1026"}, "geometry": {"type": "Point", "coordinates": [9.883, 46.534]}}, {"type": "Feature", "properties": {"id": "LOWS", "site": "Salzburg/Mozart Arpt", "prior": "3", "obsTime": "2018-09-17T20:50:00Z", "temp": 17.0, "dewp": 15.0, "wspd": 4, "wdir": 150, "cover": "CAVOK", "visib": 6.21, "fltcat": "VFR", "altim": 1020.0, "rawOb": "LOWS 172050Z 15004KT CAVOK 17/15 Q1020 NOSIG"}, "geometry": {"type": "Point", "coordinates": [13.003, 47.794]}}, {"type": "Feature", "properties": {"id": "LESA", "site": "Salamanca Arpt", "prior": "4", "obsTime": "2018-09-17T21:00:00Z", "temp": 21.0, "dewp": 13.0, "wspd": 4, "wdir": 340, "cover": "CAVOK", "visib": 6.21, "fltcat": "VFR", "altim": 1017.0, "rawOb": "LESA 172100Z AUTO 34004KT CAVOK 21/13 Q1017"}, "geometry": {"type": "Point", "coordinates": [-5.503, 40.952]}}, {"type": "Feature", "properties": {"id": "EFRO", "site": "Rovaniemi Arpt", "prior": "3", "obsTime": "2018-09-17T20:50:00Z", "temp": 6.0, "dewp": 5.0, "wspd": 6, "wdir": 210, "cover": "CAVOK", "visib": 6.21, "fltcat": "VFR", "altim": 998.0, "rawOb": "EFRO 172050Z AUTO 21006KT CAVOK 06/05 Q0998"}, "geometry": {"type": "Point", "coordinates": [25.831, 66.566]}}, {"type": "Feature", "properties": {"id": "ENRM", "site": "Rorvik Arpt", "prior": "3", "obsTime": "2018-09-17T19:50:00Z", "temp": 11.0, "dewp": 9.0, "wspd": 15, "wdir": 220, "cover": "SCT", "visib": 6.21, "fltcat": "VFR", "altim": 1004.0, "wx": "VCSH", "rawOb": "ENRM 171950Z 22015KT 9999 VCSH FEW017 FEW022TCU SCT029 11/09 Q1004"}, "geometry": {"type": "Point", "coordinates": [11.143, 64.837]}}, {"type": "Feature", "properties": {"id": "ENRO", "site": "Roros Arpt", "prior": "4", "obsTime": "2018-09-17T20:50:00Z", "temp": 8.0, "dewp": 3.0, "wspd": 5, "wdir": 220, "ceil": 140, "cover": "BKN", "altim": 1006.0, "rawOb": "ENRO 172050Z AUTO 22005KT 180V250 9999NDV BKN140/// 08/03 Q1006"}, "geometry": {"type": "Point", "coordinates": [11.346, 62.578]}}, {"type": "Feature", "properties": {"id": "ESDF", "site": "Ronneby Arpt", "prior": "3", "obsTime": "2018-09-17T20:50:00Z", "temp": 15.0, "dewp": 14.0, "wspd": 0, "wdir": 0, "ceil": 32, "cover": "BKN", "visib": 6.21, "fltcat": "VFR", "altim": 1017.0, "rawOb": "ESDF 172050Z 00000KT 9999 SCT025 BKN032 15/14 Q1017"}, "geometry": {"type": "Point", "coordinates": [15.265, 56.265]}}, {"type": "Feature", "properties": {"id": "LIPQ", "site": "Ronchi dei Legionari", "prior": "4", "obsTime": "2018-09-17T20:50:00Z", "temp": 18.0, "dewp": 17.0, "wspd": 2, "wdir": 40, "cover": "CAVOK", "visib": 6.21, "fltcat": "VFR", "altim": 1020.0, "rawOb": "LIPQ 172050Z 04002KT CAVOK 18/17 Q1020"}, "geometry": {"type": "Point", "coordinates": [13.477, 45.827]}}, {"type": "Feature", "properties": {"id": "LIRF", "site": "Rome/Fiumicino", "prior": "0", "obsTime": "2018-09-17T20:50:00Z", "temp": 23.0, "dewp": 21.0, "wspd": 3, "wdir": 50, "cover": "SCT", "visib": 6.21, "fltcat": "VFR", "altim": 1020.0, "rawOb": "LIRF 172050Z 05003KT 9999 SCT020 23/21 Q1020 NOSIG"}, "geometry": {"type": "Point", "coordinates": [12.24, 41.801]}}, {"type": "Feature", "properties": {"id": "LIPR", "site": "Rimini/Miramare Arpt", "prior": "5", "obsTime": "2018-09-17T20:50:00Z", "temp": 20.0, "dewp": 19.0, "wspd": 1, "wdir": 150, "cover": "CAVOK", "visib": 6.21, "fltcat": "VFR", "altim": 1019.0, "rawOb": "LIPR 172050Z 15001KT CAVOK 20/19 Q1019"}, "geometry": {"type": "Point", "coordinates": [12.614, 44.019]}}, {"type": "Feature", "properties": {"id": "LGRP", "site": "Rhodes/Diagoras Arpt", "prior": "1", "obsTime": "2018-09-17T20:50:00Z", "temp": 27.0, "dewp": 17.0, "wspd": 3, "wdir": 0, "cover": "CAVOK", "visib": 6.21, "fltcat": "VFR", "altim": 1011.0, "rawOb": "LGRP 172050Z VRB03KT CAVOK 27/17 Q1011 NOSIG"}, "geometry": {"type": "Point", "coordinates": [28.088, 36.406]}}, {"type": "Feature", "properties": {"id": "LSZR", "site": "Rheineck/Altenrhein", "prior": "5", "obsTime": "2018-09-17T20:50:00Z", "temp": 16.0, "dewp": 14.0, "wspd": 1, "wdir": 0, "cover": "CAVOK", "visib": 6.21, "fltcat": "VFR", "altim": 1019.0, "rawOb": "LSZR 172050Z AUTO VRB01KT CAVOK 16/14 Q1019"}, "geometry": {"type": "Point", "coordinates": [9.559, 47.486]}}, {"type": "Feature", "properties": {"id": "ULOO", "site": "Pskov Arpt", "prior": "2", "obsTime": "2018-09-17T21:00:00Z", "temp": 13.0, "dewp": 11.0, "wspd": 6, "wdir": 240, "visib": 5.59, "altim": 1011.0, "rawOb": "ULOO 172100Z AUTO 24003MPS 9000 // ///021/// 13/11 Q1011 RMK QFE754"}, "geometry": {"type": "Point", "coordinates": [28.393, 57.784]}}, {"type": "Feature", "properties": {"id": "LGPZ", "site": "Preveza/Aktion Arpt", "prior": "4", "obsTime": "2018-09-17T20:50:00Z", "temp": 21.0, "dewp": 18.0, "wspd": 0, "wdir": 0, "cover": "FEW", "visib": 6.21, "fltcat": "VFR", "altim": 1019.0, "rawOb": "LGPZ 172050Z 00000KT 9999 FEW030 21/18 Q1019"}, "geometry": {"type": "Point", "coordinates": [20.766, 38.926]}}, {"type": "Feature", "properties": {"id": "EFPO", "site": "Pori Arpt", "prior": "4", "obsTime": "2018-09-17T20:50:00Z", "temp": 10.0, "dewp": 7.0, "wspd": 5, "wdir": 250, "cover": "CAVOK", "visib": 6.21, "fltcat": "VFR", "altim": 1008.0, "rawOb": "EFPO 172050Z AUTO 25005KT CAVOK 10/07 Q1008"}, "geometry": {"type": "Point", "coordinates": [21.798, 61.462]}}, {"type": "Feature", "properties": {"id": "LIRP", "site": "Pisa/Galilei Arpt", "prior": "4", "obsTime": "2018-09-17T20:45:00Z", "temp": 22.0, "dewp": 20.0, "wspd": 4, "wdir": 130, "cover": "FEW", "visib": 6.21, "fltcat": "VFR", "altim": 1019.0, "rawOb": "LIRP 172045Z 13004KT 9999 FEW040 22/20 Q1019 NOSIG"}, "geometry": {"type": "Point", "coordinates": [10.392, 43.686]}}, {"type": "Feature", "properties": {"id": "EGOP", "site": "Pembry Arpt", "prior": "3", "obsTime": "2018-09-17T20:50:00Z", "temp": 18.0, "dewp": 15.0, "wspd": 17, "wdir": 150, "ceil": 27, "cover": "OVC", "visib": 6.21, "fltcat": "MVFR", "altim": 1004.0, "rawOb": "EGOP 172050Z AUTO 15017KT 9999 // OVC027/// 18/15 Q1004"}, "geometry": {"type": "Point", "coordinates": [-4.314, 51.709]}}, {"type": "Feature", "properties": {"id": "LSMP", "site": "Payerne Arpt(MIL)", "prior": "5", "obsTime": "2018-09-17T20:50:00Z", "temp": 16.0, "dewp": 13.0, "wspd": 3, "wdir": 210, "cover": "CLR", "altim": 1018.0, "rawOb": "LSMP 172050Z AUTO 21003KT 180V260 9999NDV NCD 16/13 Q1018 RMK"}, "geometry": {"type": "Point", "coordinates": [6.916, 46.844]}}, {"type": "Feature", "properties": {"id": "LGPA", "site": "Paros/Kratikos Arpt", "prior": "5", "obsTime": "2018-09-17T20:50:00Z", "temp": 25.0, "dewp": 15.0, "wspd": 14, "wdir": 20, "altim": 1015.0, "rawOb": "LGPA 172050Z AUTO 02014KT //// // ////// 25/15 Q1015 RE//"}, "geometry": {"type": "Point", "coordinates": [25.128, 37.01]}}, {"type": "Feature", "properties": {"id": "LICJ", "site": "Palermo Arpt", "prior": "2", "obsTime": "2018-09-17T20:50:00Z", "temp": 24.0, "dewp": 19.0, "wspd": 1, "wdir": 0, "cover": "CAVOK", "visib": 6.21, "fltcat": "VFR", "altim": 1019.0, "rawOb": "LICJ 172050Z VRB01KT CAVOK 24/19 Q1019"}, "geometry": {"type": "Point", "coordinates": [13.103, 38.18]}}, {"type": "Feature", "properties": {"id": "ESUP", "site": "Pajala Arpt", "prior": "4", "obsTime": "2018-09-17T20:50:00Z", "temp": 6.0, "dewp": 4.0, "wspd": 4, "wdir": 210, "ceil": 49, "cover": "BKN", "visib": 6.21, "fltcat": "VFR", "altim": 998.0, "rawOb": "ESUP 172050Z AUTO 21004KT 9999 BKN049/// 06/04 Q0998"}, "geometry": {"type": "Point", "coordinates": [23.069, 67.246]}}, {"type": "Feature", "properties": {"id": "EGTK", "site": "Oxford Arpt", "prior": "6", "obsTime": "2018-09-17T20:50:00Z", "temp": 17.0, "dewp": 11.0, "wspd": 7, "wdir": 150, "cover": "CAVOK", "visib": 6.21, "fltcat": "VFR", "altim": 1007.0, "rawOb": "EGTK 172050Z 15007KT CAVOK 17/11 Q1007"}, "geometry": {"type": "Point", "coordinates": [-1.32, 51.837]}}, {"type": "Feature", "properties": {"id": "ESNZ", "site": "Ostersund/Froesoe Ar", "prior": "3", "obsTime": "2018-09-17T20:50:00Z", "temp": 7.0, "dewp": 5.0, "wspd": 6, "wdir": 160, "cover": "CAVOK", "visib": 6.21, "fltcat": "VFR", "altim": 1006.0, "rawOb": "ESNZ 172050Z 16006KT CAVOK 07/05 Q1006"}, "geometry": {"type": "Point", "coordinates": [14.501, 63.194]}}, {"type": "Feature", "properties": {"id": "ENGM", "site": "Oslo/Gardermoen Arpt", "prior": "1", "obsTime": "2018-09-17T20:50:00Z", "temp": 11.0, "dewp": 9.0, "wspd": 4, "wdir": 210, "ceil": 76, "cover": "BKN", "visib": 6.21, "fltcat": "VFR", "altim": 1010.0, "wx": "-RA", "rawOb": "ENGM 172050Z 21004KT 9999 -RA FEW015 BKN076 11/09 Q1010 NOSIG"}, "geometry": {"type": "Point", "coordinates": [11.099, 60.197]}}, {"type": "Feature", "properties": {"id": "ENOA", "site": "Oseberg(OIL)", "prior": "4", "obsTime": "2018-09-17T20:50:00Z", "temp": 13.0, "dewp": 12.0, "wspd": 29, "wdir": 170, "ceil": 10, "cover": "BKN", "visib": 5.59, "fltcat": "MVFR", "altim": 1003.0, "wx": "-RA", "rawOb": "ENOA 172050Z 17029KT 9000 -RA BKN010 13/12 Q1003 W///S4"}, "geometry": {"type": "Point", "coordinates": [2.83, 60.49]}}, {"type": "Feature", "properties": {"id": "ENOV", "site": "Orsta-Volda Arpt", "prior": "5", "obsTime": "2018-09-17T20:50:00Z", "temp": 10.0, "dewp": 9.0, "wspd": 2, "wdir": 0, "ceil": 63, "cover": "BKN", "visib": 6.21, "fltcat": "VFR", "altim": 1005.0, "wx": "-RA", "rawOb": "ENOV 172050Z VRB02KT 9999 -RA FEW009 SCT046 BKN063 10/09 Q1005 RMK WIND 2175FT 15018KT"}, "geometry": {"type": "Point", "coordinates": [6.072, 62.179]}}, {"type": "Feature", "properties": {"id": "ESNO", "site": "Ornskoldsvik Arpt", "prior": "4", "obsTime": "2018-09-17T20:50:00Z", "temp": 7.0, "dewp": 3.0, "wspd": 4, "wdir": 270, "cover": "CLR", "visib": 6.21, "fltcat": "VFR", "altim": 1006.0, "rawOb": "ESNO 172050Z AUTO 27004KT 9999 NCD 07/03 Q1006"}, "geometry": {"type": "Point", "coordinates": [18.989, 63.409]}}, {"type": "Feature", "properties": {"id": "ENOL", "site": "Orland Main Arpt", "prior": "4", "obsTime": "2018-09-17T20:50:00Z", "temp": 9.0, "dewp": 8.0, "wspd": 6, "wdir": 180, "ceil": 40, "cover": "BKN", "visib": 6.21, "fltcat": "VFR", "altim": 1005.0, "rawOb": "ENOL 172050Z 18006KT 9999 FEW015 BKN040 09/08 Q1005 NOSIG"}, "geometry": {"type": "Point", "coordinates": [9.603, 63.7]}}, {"type": "Feature", "properties": {"id": "ESOE", "site": "Orebro Arpt", "prior": "4", "obsTime": "2018-09-17T20:50:00Z", "temp": 12.0, "dewp": 10.0, "wspd": 4, "wdir": 190, "cover": "CAVOK", "visib": 6.21, "fltcat": "VFR", "altim": 1013.0, "rawOb": "ESOE 172050Z 19004KT CAVOK 12/10 Q1013"}, "geometry": {"type": "Point", "coordinates": [15.038, 59.223]}}, {"type": "Feature", "properties": {"id": "LIEO", "site": "Olbia/Costa Smeralda", "prior": "3", "obsTime": "2018-09-17T20:50:00Z", "temp": 22.0, "dewp": 20.0, "wspd": 1, "wdir": 0, "cover": "SCT", "visib": 6.21, "fltcat": "VFR", "altim": 1019.0, "rawOb": "LIEO 172050Z VRB01KT 9999 SCT030 22/20 Q1019"}, "geometry": {"type": "Point", "coordinates": [9.52, 40.9]}}, {"type": "Feature", "properties": {"id": "EGVO", "site": "Odiham(RAF)", "prior": "5", "obsTime": "2018-09-17T20:50:00Z", "temp": 17.0, "dewp": 10.0, "wspd": 10, "wdir": 150, "cover": "CAVOK", "visib": 6.21, "fltcat": "VFR", "altim": 1008.0, "rawOb": "EGVO 172050Z 15010KT CAVOK 17/10 Q1008 BLU NOSIG"}, "geometry": {"type": "Point", "coordinates": [-0.95, 51.235]}}, {"type": "Feature", "properties": {"id": "ETSN", "site": "Nueburg/Donau Arpt", "prior": "6", "obsTime": "2018-09-17T20:20:00Z", "temp": 16.0, "dewp": 13.0, "wspd": 3, "wdir": 330, "cover": "FEW", "visib": 6.21, "fltcat": "VFR", "altim": 1019.0, "rawOb": "ETSN 172020Z 33003KT 9999 FEW300 16/13 Q1019 BLU+"}, "geometry": {"type": "Point", "coordinates": [11.21, 48.709]}}, {"type": "Feature", "properties": {"id": "EGNX", "site": "Nottingham/E Midland", "prior": "4", "obsTime": "2018-09-17T20:50:00Z", "temp": 18.0, "dewp": 9.0, "wspd": 9, "wdir": 170, "cover": "CAVOK", "visib": 6.21, "fltcat": "VFR", "altim": 1007.0, "rawOb": "EGNX 172050Z 17009KT CAVOK 18/09 Q1007"}, "geometry": {"type": "Point", "coordinates": [-1.328, 52.831]}}, {"type": "Feature", "properties": {"id": "EGSH", "site": "Norwich Intl", "prior": "3", "obsTime": "2018-09-17T20:50:00Z", "temp": 18.0, "dewp": 9.0, "wspd": 6, "wdir": 180, "cover": "CLR", "visib": 6.21, "fltcat": "VFR", "altim": 1010.0, "rawOb": "EGSH 172050Z AUTO 18006KT 9999 NCD 18/09 Q1010"}, "geometry": {"type": "Point", "coordinates": [1.284, 52.676]}}, {"type": "Feature", "properties": {"id": "EGWU", "site": "Northolt(RAF)", "prior": "6", "obsTime": "2018-09-17T20:50:00Z", "temp": 17.0, "dewp": 9.0, "wspd": 5, "wdir": 150, "cover": "CAVOK", "visib": 6.21, "fltcat": "VFR", "altim": 1008.0, "rawOb": "EGWU 172050Z 15005KT CAVOK 17/09 Q1008 NOSIG"}, "geometry": {"type": "Point", "coordinates": [-0.419, 51.553]}}, {"type": "Feature", "properties": {"id": "ESSP", "site": "Norrkoping Arpt", "prior": "5", "obsTime": "2018-09-17T20:50:00Z", "temp": 13.0, "dewp": 9.0, "wspd": 4, "wdir": 250, "cover": "CAVOK", "visib": 6.21, "fltcat": "VFR", "altim": 1014.0, "rawOb": "ESSP 172050Z 25004KT CAVOK 13/09 Q1014"}, "geometry": {"type": "Point", "coordinates": [16.239, 58.586]}}, {"type": "Feature", "properties": {"id": "ETMN", "site": "Nordholz Arpt", "prior": "4", "obsTime": "2018-09-17T20:20:00Z", "temp": 15.0, "dewp": 13.0, "wspd": 2, "wdir": 100, "ceil": 380, "cover": "BKN", "visib": 6.21, "fltcat": "VFR", "altim": 1016.0, "rawOb": "ETMN 172020Z 10002KT 9999 BKN380 15/13 Q1016 BLU+"}, "geometry": {"type": "Point", "coordinates": [8.657, 53.765]}}, {"type": "Feature", "properties": {"id": "ETNN", "site": "Noervenich (GER-AFB)", "prior": "5", "obsTime": "2018-09-17T20:20:00Z", "temp": 18.0, "dewp": 5.0, "wspd": 4, "wdir": 150, "ceil": 360, "cover": "BKN", "visib": 6.21, "fltcat": "VFR", "altim": 1015.0, "rawOb": "ETNN 172020Z 15004KT 9999 BKN360 18/05 Q1015 BLU+"}, "geometry": {"type": "Point", "coordinates": [6.659, 50.829]}}, {"type": "Feature", "properties": {"id": "ETHN", "site": "Niederstetten Arpt", "prior": "5", "obsTime": "2018-09-17T20:20:00Z", "temp": 16.0, "dewp": 8.0, "wspd": 6, "wdir": 80, "ceil": 340, "cover": "BKN", "visib": 6.21, "fltcat": "VFR", "altim": 1019.0, "rawOb": "ETHN 172020Z 08006KT 9999 BKN340 16/08 Q1019 BLU+"}, "geometry": {"type": "Point", "coordinates": [9.958, 49.392]}}, {"type": "Feature", "properties": {"id": "EGHQ", "site": "Newquay/Cornwall Arp", "prior": "5", "obsTime": "2018-09-17T19:50:00Z", "temp": 17.0, "dewp": 15.0, "wspd": 22, "wgst": 33, "wdir": 170, "ceil": 7, "cover": "BKN", "visib": 6.21, "fltcat": "IFR", "altim": 1004.0, "rawOb": "EGHQ 171950Z 17022G33KT 9999 BKN007 17/15 Q1004"}, "geometry": {"type": "Point", "coordinates": [-5.001, 50.443]}}, {"type": "Feature", "properties": {"id": "EGNT", "site": "Newcastle Intl", "prior": "5", "obsTime": "2018-09-17T20:50:00Z", "temp": 19.0, "dewp": 14.0, "wspd": 11, "wdir": 190, "cover": "SCT", "visib": 6.21, "fltcat": "VFR", "altim": 1003.0, "rawOb": "EGNT 172050Z 19011KT 9999 FEW025 SCT040 19/14 Q1003"}, "geometry": {"type": "Point", "coordinates": [-1.691, 55.037]}}, {"type": "Feature", "properties": {"id": "LTAZ", "site": "Nevsehir Arpt", "prior": "4", "obsTime": "2018-09-17T20:50:00Z", "temp": 17.0, "dewp": 10.0, "wspd": 15, "wdir": 30, "cover": "CAVOK", "visib": 6.21, "fltcat": "VFR", "altim": 1019.0, "rawOb": "LTAZ 172050Z 03015KT CAVOK 17/10 Q1019 RMK RWY29 05015KT"}, "geometry": {"type": "Point", "coordinates": [34.534, 38.772]}}, {"type": "Feature", "properties": {"id": "LGBL", "site": "Nea Anchialos Arpt", "prior": "3", "obsTime": "2018-09-17T20:50:00Z", "temp": 18.0, "dewp": 14.0, "wspd": 4, "wdir": 270, "cover": "CAVOK", "visib": 6.21, "fltcat": "VFR", "altim": 1020.0, "rawOb": "LGBL 172050Z 27004KT CAVOK 18/14 Q1020"}, "geometry": {"type": "Point", "coordinates": [22.784, 39.219]}}, {"type": "Feature", "properties": {"id": "ENNM", "site": "Namsos Arpt", "prior": "4", "obsTime": "2018-09-17T19:50:00Z", "temp": 10.0, "dewp": 8.0, "wspd": 5, "wdir": 270, "ceil": 43, "cover": "BKN", "visib": 6.21, "fltcat": "VFR", "altim": 1005.0, "wx": "-SHRA", "rawOb": "ENNM 171950Z 27005KT 220V320 9999 -SHRA FEW023 SCT035 BKN043 10/08 Q1005"}, "geometry": {"type": "Point", "coordinates": [11.577, 64.472]}}, {"type": "Feature", "properties": {"id": "LGMK", "site": "Mykonos Arpt", "prior": "3", "obsTime": "2018-09-17T20:50:00Z", "temp": 23.0, "dewp": 17.0, "wspd": 22, "wdir": 360, "cover": "CAVOK", "visib": 6.21, "fltcat": "VFR", "altim": 1015.0, "rawOb": "LGMK 172050Z 36022KT CAVOK 23/17 Q1015"}, "geometry": {"type": "Point", "coordinates": [25.348, 37.435]}}, {"type": "Feature", "properties": {"id": "ENRY", "site": "Moss/Rygge Arpt", "prior": "5", "obsTime": "2018-09-17T20:50:00Z", "temp": 14.0, "dewp": 11.0, "wspd": 8, "wdir": 150, "cover": "SCT", "altim": 1011.0, "rawOb": "ENRY 172050Z AUTO 15008KT 130V190 9999NDV FEW096/// SCT150/// 14/11 Q1011"}, "geometry": {"type": "Point", "coordinates": [10.787, 59.378]}}, {"type": "Feature", "properties": {"id": "ESKM", "site": "More-Siljan Arpt", "prior": "4", "obsTime": "2018-09-17T20:50:00Z", "temp": 9.0, "dewp": 5.0, "wspd": 2, "wdir": 0, "cover": "FEW", "visib": 6.21, "fltcat": "VFR", "altim": 1010.0, "rawOb": "ESKM 172050Z AUTO VRB02KT 9999 FEW100/// 09/05 Q1010"}, "geometry": {"type": "Point", "coordinates": [14.511, 60.957]}}, {"type": "Feature", "properties": {"id": "ENML", "site": "Molde/Aro Arpt", "prior": "5", "obsTime": "2018-09-17T20:50:00Z", "temp": 10.0, "dewp": 8.0, "wspd": 6, "wdir": 30, "ceil": 60, "cover": "BKN", "visib": 6.21, "fltcat": "VFR", "altim": 1005.0, "rawOb": "ENML 172050Z 03006KT 9999 FEW040 BKN060 10/08 Q1005"}, "geometry": {"type": "Point", "coordinates": [7.271, 62.746]}}, {"type": "Feature", "properties": {"id": "ENRA", "site": "Moirana Arpt", "prior": "4", "obsTime": "2018-09-17T20:50:00Z", "temp": 7.0, "dewp": 6.0, "wspd": 3, "wdir": 80, "ceil": 25, "cover": "BKN", "visib": 6.21, "fltcat": "MVFR", "altim": 1002.0, "wx": "-SHRA", "rawOb": "ENRA 172050Z 08003KT 9999 -SHRA SCT015 BKN025 07/06 Q1002"}, "geometry": {"type": "Point", "coordinates": [14.302, 66.364]}}, {"type": "Feature", "properties": {"id": "LTFE", "site": "Milas-Bodrun Arpt", "prior": "4", "obsTime": "2018-09-17T20:50:00Z", "temp": 27.0, "dewp": 9.0, "wspd": 6, "wdir": 130, "cover": "CAVOK", "visib": 6.21, "fltcat": "VFR", "altim": 1012.0, "rawOb": "LTFE 172050Z 13006KT 100V160 CAVOK 27/09 Q1012 NOSIG RMK RWY10 11008KT 080V140"}, "geometry": {"type": "Point", "coordinates": [27.667, 37.251]}}, {"type": "Feature", "properties": {"id": "LIMC", "site": "Milano/Malpensa Arpt", "prior": "2", "obsTime": "2018-09-17T20:50:00Z", "temp": 21.0, "dewp": 17.0, "wspd": 3, "wdir": 100, "cover": "SCT", "visib": 6.21, "fltcat": "VFR", "altim": 1020.0, "rawOb": "LIMC 172050Z 10003KT 9999 SCT050 21/17 Q1020 NOSIG"}, "geometry": {"type": "Point", "coordinates": [8.728, 45.631]}}, {"type": "Feature", "properties": {"id": "LIML", "site": "Milano/Linate Arpt", "prior": "4", "obsTime": "2018-09-17T20:50:00Z", "temp": 22.0, "dewp": 18.0, "wspd": 3, "wdir": 60, "cover": "CAVOK", "visib": 6.21, "fltcat": "VFR", "altim": 1020.0, "rawOb": "LIML 172050Z 06003KT CAVOK 22/18 Q1020 NOSIG"}, "geometry": {"type": "Point", "coordinates": [9.276, 45.45]}}, {"type": "Feature", "properties": {"id": "EFMI", "site": "Mikkeli Arpt", "prior": "5", "obsTime": "2018-09-17T20:50:00Z", "temp": 10.0, "dewp": 8.0, "wspd": 11, "wdir": 290, "ceil": 15, "cover": "BKN", "visib": 6.21, "fltcat": "MVFR", "altim": 1004.0, "rawOb": "EFMI 172050Z AUTO 29011KT 250V340 9999 BKN015 BKN119 10/08 Q1004"}, "geometry": {"type": "Point", "coordinates": [27.204, 61.686]}}, {"type": "Feature", "properties": {"id": "EGVP", "site": "Middle Wallop", "prior": "6", "obsTime": "2018-09-17T20:50:00Z", "temp": 16.0, "dewp": 11.0, "wspd": 6, "wdir": 140, "cover": "CAVOK", "visib": 6.21, "fltcat": "VFR", "altim": 1007.0, "rawOb": "EGVP 172050Z 14006KT CAVOK 16/11 Q1007 BLU NOSIG"}, "geometry": {"type": "Point", "coordinates": [-1.569, 51.146]}}, {"type": "Feature", "properties": {"id": "ETWM", "site": "Meppen(MIL)", "prior": "4", "obsTime": "2018-09-17T20:20:00Z", "temp": 12.0, "dewp": 9.0, "wspd": 0, "wdir": 0, "visib": 6.21, "altim": 1015.0, "rawOb": "ETWM 172020Z AUTO 00000KT 9999 // ////// 12/09 Q1015 ///"}, "geometry": {"type": "Point", "coordinates": [7.326, 52.723]}}, {"type": "Feature", "properties": {"id": "EDJA", "site": "Memmingerberg Arpt", "prior": "4", "obsTime": "2018-09-17T20:20:00Z", "temp": 16.0, "dewp": 14.0, "wspd": 4, "wdir": 110, "cover": "CAVOK", "visib": 6.21, "fltcat": "VFR", "altim": 1020.0, "rawOb": "EDJA 172020Z 11004KT CAVOK 16/14 Q1020"}, "geometry": {"type": "Point", "coordinates": [10.236, 47.987]}}, {"type": "Feature", "properties": {"id": "LSMM", "site": "Meiringen Arpt", "prior": "5", "obsTime": "2018-09-17T20:50:00Z", "temp": 14.0, "dewp": 13.0, "wspd": 3, "wdir": 110, "cover": "CLR", "altim": 1020.0, "rawOb": "LSMM 172050Z AUTO 11003KT 9999NDV NCD 14/13 Q1020 RMK"}, "geometry": {"type": "Point", "coordinates": [8.109, 46.742]}}, {"type": "Feature", "properties": {"id": "EFMA", "site": "Mariehamn Arpt", "prior": "4", "obsTime": "2018-09-17T20:50:00Z", "temp": 8.0, "dewp": 7.0, "wspd": 0, "wdir": 0, "cover": "CAVOK", "visib": 6.21, "fltcat": "VFR", "altim": 1011.0, "rawOb": "EFMA 172050Z AUTO 00000KT CAVOK 08/07 Q1011"}, "geometry": {"type": "Point", "coordinates": [19.899, 60.123]}}, {"type": "Feature", "properties": {"id": "EGYM", "site": "Marham(RAF)", "prior": "4", "obsTime": "2018-09-17T20:50:00Z", "temp": 18.0, "dewp": 9.0, "wspd": 8, "wdir": 150, "cover": "CAVOK", "visib": 6.21, "fltcat": "VFR", "altim": 1009.0, "rawOb": "EGYM 172050Z 15008KT CAVOK 18/09 Q1009 BLU"}, "geometry": {"type": "Point", "coordinates": [0.551, 52.648]}}, {"type": "Feature", "properties": {"id": "EDFM", "site": "Mannheim City Arpt", "prior": "4", "obsTime": "2018-09-17T19:50:00Z", "temp": 18.0, "dewp": 9.0, "wspd": 0, "wdir": 0, "cover": "CAVOK", "visib": 6.21, "fltcat": "VFR", "altim": 1017.0, "rawOb": "EDFM 171950Z 00000KT CAVOK 18/09 Q1017"}, "geometry": {"type": "Point", "coordinates": [8.514, 49.473]}}, {"type": "Feature", "properties": {"id": "EGCC", "site": "Manchester Intl", "prior": "2", "obsTime": "2018-09-17T20:50:00Z", "temp": 17.0, "dewp": 13.0, "wspd": 4, "wdir": 190, "cover": "CLR", "visib": 6.21, "fltcat": "VFR", "altim": 1005.0, "rawOb": "EGCC 172050Z AUTO 19004KT 150V220 9999 NCD 17/13 Q1005 NOSIG"}, "geometry": {"type": "Point", "coordinates": [-2.272, 53.356]}}, {"type": "Feature", "properties": {"id": "ESMS", "site": "Malmo/Sturup Arpt", "prior": "5", "obsTime": "2018-09-17T20:50:00Z", "temp": 14.0, "dewp": 13.0, "wspd": 4, "wdir": 190, "cover": "CAVOK", "visib": 6.21, "fltcat": "VFR", "altim": 1017.0, "rawOb": "ESMS 172050Z 19004KT CAVOK 14/13 Q1017"}, "geometry": {"type": "Point", "coordinates": [13.376, 55.536]}}, {"type": "Feature", "properties": {"id": "LTAT", "site": "Malatya Arpt", "prior": "2", "obsTime": "2018-09-17T20:50:00Z", "temp": 17.0, "dewp": 6.0, "wspd": 3, "wdir": 160, "cover": "CAVOK", "visib": 6.21, "fltcat": "VFR", "altim": 1016.0, "rawOb": "LTAT 172050Z 16003KT 140V230 CAVOK 17/06 Q1016 NOSIG RMK RWY03 00000KT"}, "geometry": {"type": "Point", "coordinates": [38.091, 38.436]}}, {"type": "Feature", "properties": {"id": "EGMD", "site": "Lydd Arpt", "prior": "4", "obsTime": "2018-09-17T20:50:00Z", "temp": 18.0, "dewp": 15.0, "wspd": 8, "wdir": 130, "cover": "CLR", "visib": 6.21, "fltcat": "VFR", "altim": 1010.0, "rawOb": "EGMD 172050Z AUTO 13008KT 9999 NCD 18/15 Q1010"}, "geometry": {"type": "Point", "coordinates": [0.938, 50.955]}}, {"type": "Feature", "properties": {"id": "ESNL", "site": "Lycksele Arpt", "prior": "3", "obsTime": "2018-09-17T20:50:00Z", "temp": 6.0, "dewp": 2.0, "wspd": 6, "wdir": 240, "cover": "CLR", "visib": 6.21, "fltcat": "VFR", "altim": 1004.0, "rawOb": "ESNL 172050Z AUTO 24006KT 9999 NCD 06/02 Q1004"}, "geometry": {"type": "Point", "coordinates": [18.713, 64.55]}}, {"type": "Feature", "properties": {"id": "EGGW", "site": "Luton Arpt", "prior": "5", "obsTime": "2018-09-17T20:50:00Z", "temp": 17.0, "dewp": 9.0, "wspd": 5, "wdir": 140, "cover": "CLR", "visib": 6.21, "fltcat": "VFR", "altim": 1009.0, "rawOb": "EGGW 172050Z AUTO 14005KT 9999 NCD 17/09 Q1009"}, "geometry": {"type": "Point", "coordinates": [-0.369, 51.874]}}, {"type": "Feature", "properties": {"id": "ESPA", "site": "Lulea Arpt", "prior": "2", "obsTime": "2018-09-17T20:50:00Z", "temp": 8.0, "dewp": 6.0, "wspd": 6, "wdir": 270, "cover": "CAVOK", "visib": 6.21, "fltcat": "VFR", "altim": 1001.0, "rawOb": "ESPA 172050Z 27006KT CAVOK 08/06 Q1001"}, "geometry": {"type": "Point", "coordinates": [22.118, 65.546]}}, {"type": "Feature", "properties": {"id": "EGQS", "site": "Lossiemouth(RAF)", "prior": "6", "obsTime": "2018-09-17T20:50:00Z", "temp": 15.0, "dewp": 13.0, "wspd": 3, "wdir": 200, "ceil": 50, "cover": "BKN", "visib": 6.21, "fltcat": "VFR", "altim": 995.0, "wx": "-RA", "rawOb": "EGQS 172050Z 20003KT 9999 -RA BKN050 BKN110 15/13 Q0995 RERA BLU"}, "geometry": {"type": "Point", "coordinates": [-3.336, 57.707]}}, {"type": "Feature", "properties": {"id": "EGSS", "site": "London/Stansted Arpt", "prior": "3", "obsTime": "2018-09-17T20:50:00Z", "temp": 18.0, "dewp": 9.0, "wspd": 8, "wdir": 150, "cover": "CLR", "visib": 6.21, "fltcat": "VFR", "altim": 1009.0, "rawOb": "EGSS 172050Z AUTO 15008KT 9999 NCD 18/09 Q1009"}, "geometry": {"type": "Point", "coordinates": [0.233, 51.884]}}, {"type": "Feature", "properties": {"id": "EGLL", "site": "London/Heathrow Intl", "prior": "0", "obsTime": "2018-09-17T20:50:00Z", "temp": 19.0, "dewp": 9.0, "wspd": 5, "wdir": 150, "cover": "CLR", "visib": 6.21, "fltcat": "VFR", "altim": 1009.0, "rawOb": "EGLL 172050Z AUTO 15005KT 110V190 9999 NCD 19/09 Q1009 NOSIG"}, "geometry": {"type": "Point", "coordinates": [-0.458, 51.471]}}, {"type": "Feature", "properties": {"id": "EGKK", "site": "London/Gatwick Arpt", "prior": "5", "obsTime": "2018-09-17T20:50:00Z", "temp": 19.0, "dewp": 10.0, "wspd": 7, "wdir": 130, "cover": "CAVOK", "visib": 6.21, "fltcat": "VFR", "altim": 1009.0, "rawOb": "EGKK 172050Z 13007KT CAVOK 19/10 Q1009"}, "geometry": {"type": "Point", "coordinates": [-0.185, 51.149]}}, {"type": "Feature", "properties": {"id": "EGLC", "site": "London City Air", "prior": "6", "obsTime": "2018-09-17T20:50:00Z", "temp": 19.0, "dewp": 9.0, "wspd": 5, "wdir": 120, "cover": "CLR", "visib": 6.21, "fltcat": "VFR", "altim": 1009.0, "rawOb": "EGLC 172050Z AUTO 12005KT 100V170 9999 NCD 19/09 Q1009"}, "geometry": {"type": "Point", "coordinates": [0.055, 51.505]}}, {"type": "Feature", "properties": {"id": "EGKB", "site": "London/Biggin Hill A", "prior": "5", "obsTime": "2018-09-17T20:50:00Z", "temp": 19.0, "dewp": 9.0, "wspd": 9, "wdir": 130, "cover": "CAVOK", "visib": 6.21, "fltcat": "VFR", "altim": 1009.0, "rawOb": "EGKB 172050Z 13009KT 110V170 CAVOK 19/09 Q1009"}, "geometry": {"type": "Point", "coordinates": [0.031, 51.33]}}, {"type": "Feature", "properties": {"id": "LELO", "site": "Logrono Arpt", "prior": "5", "obsTime": "2018-09-17T21:00:00Z", "temp": 19.0, "dewp": 17.0, "wspd": 0, "wdir": 0, "cover": "FEW", "visib": 6.21, "fltcat": "VFR", "altim": 1017.0, "rawOb": "LELO 172100Z 00000KT 9999 FEW040 19/17 Q1017"}, "geometry": {"type": "Point", "coordinates": [-2.317, 42.459]}}, {"type": "Feature", "properties": {"id": "LSZL", "site": "Locarno Arpt", "prior": "6", "obsTime": "2018-09-17T20:50:00Z", "temp": 19.0, "dewp": 17.0, "wspd": 3, "wdir": 60, "ceil": 120, "cover": "BKN", "altim": 1021.0, "rawOb": "LSZL 172050Z AUTO 06003KT 010V090 9999NDV FEW055 SCT066 BKN120 19/17 Q1021 RMK"}, "geometry": {"type": "Point", "coordinates": [8.878, 46.165]}}, {"type": "Feature", "properties": {"id": "ESTL", "site": "Llungbyhed Arpt", "prior": "5", "obsTime": "2018-09-17T20:50:00Z", "temp": 16.0, "dewp": 15.0, "wspd": 5, "wdir": 190, "cover": "CLR", "visib": 6.21, "fltcat": "VFR", "altim": 1016.0, "rawOb": "ESTL 172050Z AUTO 19005KT 9999 NCD 16/15 Q1016"}, "geometry": {"type": "Point", "coordinates": [13.212, 56.081]}}, {"type": "Feature", "properties": {"id": "EGGP", "site": "Liverpool/Lennon Arp", "prior": "5", "obsTime": "2018-09-17T20:50:00Z", "temp": 17.0, "dewp": 13.0, "wspd": 7, "wdir": 140, "cover": "FEW", "visib": 6.21, "fltcat": "VFR", "altim": 1004.0, "rawOb": "EGGP 172050Z 14007KT 110V170 9999 FEW032 17/13 Q1004"}, "geometry": {"type": "Point", "coordinates": [-2.85, 53.333]}}, {"type": "Feature", "properties": {"id": "LOWL", "site": "Linz Arpt", "prior": "3", "obsTime": "2018-09-17T20:50:00Z", "temp": 18.0, "dewp": 14.0, "wspd": 1, "wdir": 0, "cover": "CLR", "visib": 6.21, "fltcat": "VFR", "altim": 1019.0, "rawOb": "LOWL 172050Z AUTO VRB01KT 9999 NSC 18/14 Q1019 NOSIG"}, "geometry": {"type": "Point", "coordinates": [14.188, 48.233]}}, {"type": "Feature", "properties": {"id": "EGXU", "site": "Linton-On-Ouse(RAF)", "prior": "6", "obsTime": "2018-09-17T20:50:00Z", "temp": 18.0, "dewp": 15.0, "wspd": 10, "wdir": 170, "cover": "CLR", "visib": 6.21, "fltcat": "VFR", "altim": 1005.0, "rawOb": "EGXU 172050Z AUTO 17010KT 9999 // NCD 18/15 Q1005"}, "geometry": {"type": "Point", "coordinates": [-1.253, 54.049]}}, {"type": "Feature", "properties": {"id": "ESCF", "site": "Linkoping/Malmen", "prior": "6", "obsTime": "2018-09-17T20:50:00Z", "temp": 12.0, "dewp": 8.0, "wspd": 6, "wdir": 200, "ceil": 100, "cover": "OVC", "visib": 6.21, "fltcat": "VFR", "altim": 1014.0, "rawOb": "ESCF 172050Z AUTO 20006KT 9999 BKN100/// OVC160/// 12/08 Q1014"}, "geometry": {"type": "Point", "coordinates": [15.526, 58.402]}}, {"type": "Feature", "properties": {"id": "ESSL", "site": "Linkoping City Arpt", "prior": "4", "obsTime": "2018-09-17T20:50:00Z", "temp": 13.0, "dewp": 9.0, "wspd": 3, "wdir": 230, "ceil": 150, "cover": "OVC", "visib": 6.21, "fltcat": "VFR", "altim": 1014.0, "rawOb": "ESSL 172050Z AUTO 23003KT 190V270 9999 FEW100/// OVC150/// 13/09 Q1014"}, "geometry": {"type": "Point", "coordinates": [15.678, 58.407]}}, {"type": "Feature", "properties": {"id": "LGLM", "site": "Limnos Island Arpt", "prior": "4", "obsTime": "2018-09-17T20:50:00Z", "temp": 22.0, "dewp": 13.0, "wspd": 10, "wdir": 50, "cover": "FEW", "visib": 6.21, "fltcat": "VFR", "altim": 1020.0, "rawOb": "LGLM 172050Z 05010KT 9999 FEW018 22/13 Q1020"}, "geometry": {"type": "Point", "coordinates": [25.24, 39.92]}}, {"type": "Feature", "properties": {"id": "EGQL", "site": "Leuchars(RAF)", "prior": "3", "obsTime": "2018-09-17T20:50:00Z", "temp": 17.0, "dewp": 13.0, "wspd": 9, "wdir": 210, "ceil": 220, "cover": "BKN", "visib": 6.21, "fltcat": "VFR", "altim": 999.0, "rawOb": "EGQL 172050Z 21009KT 9999 FEW035 BKN220 17/13 Q0999 BLU"}, "geometry": {"type": "Point", "coordinates": [-2.861, 56.375]}}, {"type": "Feature", "properties": {"id": "LSGC", "site": "Les Eplatures Arpt", "prior": "4", "obsTime": "2018-09-17T20:50:00Z", "temp": 13.0, "dewp": 10.0, "wspd": 0, "wdir": 0, "cover": "CAVOK", "visib": 6.21, "fltcat": "VFR", "altim": 1021.0, "rawOb": "LSGC 172050Z AUTO 00000KT CAVOK 13/10 Q1021"}, "geometry": {"type": "Point", "coordinates": [6.794, 47.084]}}, {"type": "Feature", "properties": {"id": "LELN", "site": "Leon Arpt", "prior": "4", "obsTime": "2018-09-17T21:00:00Z", "temp": 21.0, "dewp": 10.0, "wspd": 3, "wdir": 270, "cover": "CAVOK", "visib": 6.21, "fltcat": "VFR", "altim": 1017.0, "rawOb": "LELN 172100Z AUTO 27003KT 230V290 CAVOK 21/10 Q1017"}, "geometry": {"type": "Point", "coordinates": [-5.649, 42.589]}}, {"type": "Feature", "properties": {"id": "ENLK", "site": "Leknes Arpt", "prior": "4", "obsTime": "2018-09-17T19:50:00Z", "temp": 7.0, "dewp": 6.0, "wspd": 2, "wdir": 0, "ceil": 50, "cover": "BKN", "visib": 6.21, "fltcat": "VFR", "altim": 998.0, "rawOb": "ENLK 171950Z VRB02KT 9999 FEW020 SCT030 BKN050 07/06 Q0998"}, "geometry": {"type": "Point", "coordinates": [13.61, 68.153]}}, {"type": "Feature", "properties": {"id": "EGXE", "site": "Leeming(RAF)", "prior": "6", "obsTime": "2018-09-17T20:50:00Z", "temp": 17.0, "dewp": 14.0, "wspd": 5, "wdir": 140, "cover": "CLR", "visib": 6.21, "fltcat": "VFR", "altim": 1005.0, "rawOb": "EGXE 172050Z AUTO 14005KT 9999 NCD 17/14 Q1005"}, "geometry": {"type": "Point", "coordinates": [-1.539, 54.297]}}, {"type": "Feature", "properties": {"id": "EGNM", "site": "Leeds Bradford Intl", "prior": "4", "obsTime": "2018-09-17T20:50:00Z", "temp": 17.0, "dewp": 14.0, "wspd": 7, "wdir": 160, "cover": "CAVOK", "visib": 6.21, "fltcat": "VFR", "altim": 1005.0, "rawOb": "EGNM 172050Z 16007KT CAVOK 17/14 Q1005"}, "geometry": {"type": "Point", "coordinates": [-1.661, 53.866]}}, {"type": "Feature", "properties": {"id": "EGXV", "site": "Leconfield(RAF)", "prior": "4", "obsTime": "2018-09-17T20:50:00Z", "temp": 18.0, "dewp": 13.0, "wspd": 6, "wdir": 180, "cover": "CLR", "visib": 6.21, "fltcat": "VFR", "altim": 1006.0, "rawOb": "EGXV 172050Z AUTO 18006KT 9999 NCD 18/13 Q1006"}, "geometry": {"type": "Point", "coordinates": [-0.435, 53.876]}}, {"type": "Feature", "properties": {"id": "ETSL", "site": "Lechfeld (GER-AFB)", "prior": "5", "obsTime": "2018-09-17T20:20:00Z", "temp": 17.0, "dewp": 14.0, "wspd": 1, "wdir": 0, "cover": "FEW", "visib": 6.21, "fltcat": "VFR", "altim": 1020.0, "rawOb": "ETSL 172020Z VRB01KT 9999 FEW300 17/14 Q1020 BLU+"}, "geometry": {"type": "Point", "coordinates": [10.861, 48.185]}}, {"type": "Feature", "properties": {"id": "ETHL", "site": "Laupheim Arpt", "prior": "4", "obsTime": "2018-09-17T21:00:00Z", "temp": 16.0, "dewp": 11.0, "wspd": 0, "wdir": 0, "cover": "FEW", "visib": 6.21, "fltcat": "VFR", "altim": 1019.0, "rawOb": "ETHL 172100Z 00000KT 9999 FEW290 16/11 Q1019 BLU+FCST CANCEL"}, "geometry": {"type": "Point", "coordinates": [9.91, 48.218]}}, {"type": "Feature", "properties": {"id": "EFLP", "site": "Lappeenranta Arpt", "prior": "3", "obsTime": "2018-09-17T20:50:00Z", "temp": 12.0, "dewp": 11.0, "wspd": 10, "wdir": 280, "ceil": 8, "cover": "OVC", "visib": 6.21, "fltcat": "IFR", "altim": 1003.0, "wx": "-SHRA", "rawOb": "EFLP 172050Z AUTO 28010KT 220V320 9999 -SHRA OVC008 12/11 Q1003"}, "geometry": {"type": "Point", "coordinates": [28.146, 61.044]}}, {"type": "Feature", "properties": {"id": "ETNL", "site": "Laage Arpt", "prior": "4", "obsTime": "2018-09-17T20:20:00Z", "temp": 14.0, "dewp": 10.0, "wspd": 3, "wdir": 110, "ceil": 280, "cover": "BKN", "visib": 6.21, "fltcat": "VFR", "altim": 1017.0, "rawOb": "ETNL 172020Z 11003KT 9999 FEW260 BKN280 14/10 Q1017 BLU+FCST CANCEL"}, "geometry": {"type": "Point", "coordinates": [12.278, 53.918]}}, {"type": "Feature", "properties": {"id": "EHMG", "site": "L9-FF-1 Sea(OIL)", "prior": "4", "obsTime": "2018-09-17T20:55:00Z", "temp": 19.0, "dewp": 14.0, "wspd": 24, "wdir": 170, "cover": "CLR", "visib": 6.21, "fltcat": "VFR", "altim": 1013.0, "rawOb": "EHMG 172055Z AUTO 17024KT 9999 NCD 19/14 Q1013 W///H///"}, "geometry": {"type": "Point", "coordinates": [4.96, 53.61]}}, {"type": "Feature", "properties": {"id": "EFKS", "site": "Kuusamo Arpt", "prior": "2", "obsTime": "2018-09-17T20:50:00Z", "temp": 5.0, "dewp": 5.0, "wspd": 3, "wdir": 280, "cover": "CAVOK", "visib": 6.21, "fltcat": "VFR", "altim": 999.0, "rawOb": "EFKS 172050Z AUTO 28003KT CAVOK 05/05 Q0999"}, "geometry": {"type": "Point", "coordinates": [29.232, 65.99]}}, {"type": "Feature", "properties": {"id": "EEKE", "site": "Kuressaare Arpt", "prior": "3", "obsTime": "2018-09-17T20:50:00Z", "temp": 14.0, "dewp": 10.0, "wspd": 5, "wdir": 290, "cover": "FEW", "altim": 1013.0, "rawOb": "EEKE 172050Z AUTO 29005KT 220V340 9999NDV FEW042 14/10 Q1013"}, "geometry": {"type": "Point", "coordinates": [22.509, 58.229]}}, {"type": "Feature", "properties": {"id": "EFKK", "site": "Kruunupyy Arpt", "prior": "4", "obsTime": "2018-09-17T21:02:00Z", "temp": 6.0, "dewp": 6.0, "wspd": 4, "wdir": 200, "cover": "SKC", "visib": 6.21, "fltcat": "VFR", "altim": 1004.0, "wx": "MIFG", "rawOb": "EFKK 172102Z 20004KT 9999 MIFG SKC 06/06 Q1004"}, "geometry": {"type": "Point", "coordinates": [23.143, 63.719]}}, {"type": "Feature", "properties": {"id": "ENKB", "site": "Kristiansund Arpt", "prior": "3", "obsTime": "2018-09-17T20:50:00Z", "temp": 10.0, "dewp": 8.0, "wspd": 1, "wdir": 0, "ceil": 46, "cover": "BKN", "visib": 6.21, "fltcat": "VFR", "altim": 1005.0, "wx": "-SHRA", "rawOb": "ENKB 172050Z VRB01KT 9999 -SHRA SCT038 BKN046 10/08 Q1005 RMK WIND 745FT 16010KT"}, "geometry": {"type": "Point", "coordinates": [7.826, 63.112]}}, {"type": "Feature", "properties": {"id": "ESMK", "site": "Kristianstad Arpt", "prior": "4", "obsTime": "2018-09-17T20:50:00Z", "temp": 16.0, "dewp": 14.0, "wspd": 3, "wdir": 220, "cover": "CLR", "visib": 6.21, "fltcat": "VFR", "altim": 1016.0, "rawOb": "ESMK 172050Z AUTO 22003KT 9999 NCD 16/14 Q1016"}, "geometry": {"type": "Point", "coordinates": [14.085, 55.922]}}, {"type": "Feature", "properties": {"id": "ENCN", "site": "Kristiansand Arpt", "prior": "4", "obsTime": "2018-09-17T20:50:00Z", "temp": 12.0, "dewp": 12.0, "wspd": 4, "wdir": 50, "ceil": 18, "cover": "BKN", "visib": 6.21, "fltcat": "MVFR", "altim": 1011.0, "wx": "-DZ", "rawOb": "ENCN 172050Z 05004KT 9999 -DZ BKN018 12/12 Q1011"}, "geometry": {"type": "Point", "coordinates": [8.084, 58.203]}}, {"type": "Feature", "properties": {"id": "ESNK", "site": "Kramfors/Solleftea A", "prior": "5", "obsTime": "2018-09-17T20:50:00Z", "temp": 5.0, "dewp": 4.0, "wspd": 1, "wdir": 0, "cover": "FEW", "visib": 6.21, "fltcat": "VFR", "altim": 1007.0, "rawOb": "ESNK 172050Z AUTO VRB01KT 9999 FEW059/// 05/04 Q1007"}, "geometry": {"type": "Point", "coordinates": [17.768, 63.047]}}, {"type": "Feature", "properties": {"id": "LTAN", "site": "Konya Arpt", "prior": "3", "obsTime": "2018-09-17T20:50:00Z", "temp": 17.0, "dewp": 6.0, "wspd": 11, "wdir": 330, "cover": "CAVOK", "visib": 6.21, "fltcat": "VFR", "altim": 1020.0, "rawOb": "LTAN 172050Z 33011KT CAVOK 17/06 Q1020 NOSIG"}, "geometry": {"type": "Point", "coordinates": [32.562, 37.977]}}, {"type": "Feature", "properties": {"id": "LOWK", "site": "Klagenfurt Arpt", "prior": "3", "obsTime": "2018-09-17T20:50:00Z", "temp": 18.0, "dewp": 16.0, "wspd": 5, "wdir": 310, "cover": "CLR", "visib": 6.21, "fltcat": "VFR", "altim": 1022.0, "rawOb": "LOWK 172050Z AUTO 31005KT 9999 NSC 18/16 Q1022 NOSIG"}, "geometry": {"type": "Point", "coordinates": [14.336, 46.643]}}, {"type": "Feature", "properties": {"id": "EFKT", "site": "Kittila Arpt", "prior": "4", "obsTime": "2018-09-17T20:50:00Z", "temp": 7.0, "dewp": 3.0, "wspd": 1, "wdir": 0, "cover": "CAVOK", "visib": 6.21, "fltcat": "VFR", "altim": 997.0, "rawOb": "EFKT 172050Z AUTO VRB01KT CAVOK 07/03 Q0997"}, "geometry": {"type": "Point", "coordinates": [24.846, 67.7]}}, {"type": "Feature", "properties": {"id": "ESNQ", "site": "Kiruna Arpt", "prior": "3", "obsTime": "2018-09-17T20:50:00Z", "temp": 5.0, "dewp": 2.0, "wspd": 6, "wdir": 240, "cover": "CAVOK", "visib": 6.21, "fltcat": "VFR", "altim": 997.0, "rawOb": "ESNQ 172050Z 24006KT CAVOK 05/02 Q0997"}, "geometry": {"type": "Point", "coordinates": [20.337, 67.822]}}, {"type": "Feature", "properties": {"id": "EGPA", "site": "Kirkwall Arpt", "prior": "4", "obsTime": "2018-09-17T20:50:00Z", "temp": 13.0, "dewp": 12.0, "wspd": 16, "wdir": 160, "ceil": 4, "cover": "OVC", "visib": 2.49, "fltcat": "LIFR", "altim": 994.0, "wx": "-DZ", "rawOb": "EGPA 172050Z AUTO 16016KT 4000 -DZ BKN004/// OVC042/// 13/12 Q0994 RERA"}, "geometry": {"type": "Point", "coordinates": [-2.9, 58.958]}}, {"type": "Feature", "properties": {"id": "ENKR", "site": "Kirkenes/Hoeybuktmoe", "prior": "3", "obsTime": "2018-09-17T20:50:00Z", "temp": 7.0, "dewp": 5.0, "wspd": 10, "wdir": 270, "ceil": 49, "cover": "BKN", "visib": 6.21, "fltcat": "VFR", "altim": 995.0, "rawOb": "ENKR 172050Z 27010KT 9999 FEW018 SCT030 BKN049 07/05 Q0995 RMK WIND 731FT 27013KT"}, "geometry": {"type": "Point", "coordinates": [29.89, 69.725]}}, {"type": "Feature", "properties": {"id": "EGQK", "site": "Kinloss(RAF)", "prior": "4", "obsTime": "2018-09-17T20:50:00Z", "temp": 16.0, "dewp": 14.0, "wspd": 7, "wdir": 210, "ceil": 50, "cover": "BKN", "visib": 6.21, "fltcat": "VFR", "altim": 994.0, "wx": "RA", "rawOb": "EGQK 172050Z AUTO 21007KT 9999 RA BKN050/// BKN090/// 16/14 Q0994"}, "geometry": {"type": "Point", "coordinates": [-3.562, 57.649]}}, {"type": "Feature", "properties": {"id": "EFKE", "site": "Kemi/Tornio Arpt", "prior": "4", "obsTime": "2018-09-17T20:50:00Z", "temp": 9.0, "dewp": 7.0, "wspd": 4, "wdir": 270, "ceil": 32, "cover": "OVC", "visib": 6.21, "fltcat": "VFR", "altim": 1000.0, "wx": "-RA", "rawOb": "EFKE 172050Z AUTO 27004KT 240V310 9999 -RA OVC032 09/07 Q1000"}, "geometry": {"type": "Point", "coordinates": [24.582, 65.78]}}, {"type": "Feature", "properties": {"id": "LTAU", "site": "Kayseri/Erkilet Intl", "prior": "3", "obsTime": "2018-09-17T20:50:00Z", "temp": 15.0, "dewp": 8.0, "wspd": 6, "wdir": 70, "cover": "CAVOK", "visib": 6.21, "fltcat": "VFR", "altim": 1020.0, "rawOb": "LTAU 172050Z 07006KT CAVOK 15/08 Q1020 NOSIG RMK RWY07 05009KT"}, "geometry": {"type": "Point", "coordinates": [35.493, 38.77]}}, {"type": "Feature", "properties": {"id": "LGKV", "site": "Kavala Intl", "prior": "4", "obsTime": "2018-09-17T20:50:00Z", "temp": 22.0, "dewp": 18.0, "wspd": 4, "wdir": 70, "ceil": 80, "cover": "BKN", "visib": 6.21, "fltcat": "VFR", "altim": 1021.0, "rawOb": "LGKV 172050Z 07004KT 9999 FEW030 BKN080 22/18 Q1021"}, "geometry": {"type": "Point", "coordinates": [24.62, 40.916]}}, {"type": "Feature", "properties": {"id": "LTCF", "site": "Kars Arpt", "prior": "3", "obsTime": "2018-09-17T20:50:00Z", "temp": 9.0, "dewp": 6.0, "wspd": 5, "wdir": 50, "cover": "CAVOK", "visib": 6.21, "fltcat": "VFR", "altim": 1023.0, "rawOb": "LTCF 172050Z 05005KT 360V110 CAVOK 09/06 Q1023"}, "geometry": {"type": "Point", "coordinates": [43.115, 40.562]}}, {"type": "Feature", "properties": {"id": "LGKP", "site": "Karpathos Isl Arpt", "prior": "3", "obsTime": "2018-09-17T20:50:00Z", "temp": 25.0, "dewp": 21.0, "wspd": 19, "wdir": 280, "altim": 1012.0, "rawOb": "LGKP 172050Z AUTO 28019KT //// // ////// 25/21 Q1012 RE//"}, "geometry": {"type": "Point", "coordinates": [27.146, 35.421]}}, {"type": "Feature", "properties": {"id": "ESOK", "site": "Karlstad Arpt", "prior": "3", "obsTime": "2018-09-17T20:50:00Z", "temp": 12.0, "dewp": 9.0, "wspd": 4, "wdir": 200, "cover": "FEW", "visib": 6.21, "fltcat": "VFR", "altim": 1012.0, "rawOb": "ESOK 172050Z AUTO 20004KT 9999 R03/P1500N R21///// FEW084/// 12/09 Q1012"}, "geometry": {"type": "Point", "coordinates": [13.338, 59.445]}}, {"type": "Feature", "properties": {"id": "ESMQ", "site": "Kalmar Arpt", "prior": "4", "obsTime": "2018-09-17T20:50:00Z", "temp": 14.0, "dewp": 9.0, "wspd": 4, "wdir": 230, "cover": "FEW", "visib": 6.21, "fltcat": "VFR", "altim": 1016.0, "rawOb": "ESMQ 172050Z AUTO 23004KT 9999 FEW068/// 14/09 Q1016"}, "geometry": {"type": "Point", "coordinates": [16.288, 56.685]}}, {"type": "Feature", "properties": {"id": "LGKL", "site": "Kalamata Arpt", "prior": "4", "obsTime": "2018-09-17T20:50:00Z", "temp": 24.0, "dewp": 8.0, "wspd": 0, "wdir": 0, "cover": "FEW", "visib": 6.21, "fltcat": "VFR", "altim": 1017.0, "rawOb": "LGKL 172050Z 00000KT 9999 FEW035 24/08 Q1017"}, "geometry": {"type": "Point", "coordinates": [22.026, 37.069]}}, {"type": "Feature", "properties": {"id": "LTCN", "site": "Kahramanmaras Arpt", "prior": "4", "obsTime": "2018-09-17T20:50:00Z", "temp": 21.0, "dewp": 5.0, "wspd": 7, "wdir": 80, "cover": "CAVOK", "visib": 6.21, "fltcat": "VFR", "altim": 1012.0, "rawOb": "LTCN 172050Z 08007KT CAVOK 21/05 Q1012 NOSIG"}, "geometry": {"type": "Point", "coordinates": [36.955, 37.539]}}, {"type": "Feature", "properties": {"id": "EHKV", "site": "K14-FA-1C Sea(OIL)", "prior": "4", "obsTime": "2018-09-17T20:55:00Z", "temp": 19.0, "dewp": 15.0, "wspd": 23, "wdir": 170, "cover": "CLR", "visib": 6.21, "fltcat": "VFR", "altim": 1012.0, "rawOb": "EHKV 172055Z AUTO 17023KT 9999 NCD 19/15 Q1012 W///H///"}, "geometry": {"type": "Point", "coordinates": [3.63, 53.27]}}, {"type": "Feature", "properties": {"id": "EFJY", "site": "Jyvaskyla Arpt", "prior": "3", "obsTime": "2018-09-17T20:50:00Z", "temp": 9.0, "dewp": 8.0, "wspd": 9, "wdir": 290, "ceil": 35, "cover": "BKN", "visib": 6.21, "fltcat": "VFR", "altim": 1004.0, "rawOb": "EFJY 172050Z AUTO 29009KT 9999 SCT014 BKN035/// 09/08 Q1004"}, "geometry": {"type": "Point", "coordinates": [25.677, 62.4]}}, {"type": "Feature", "properties": {"id": "ESGJ", "site": "Jonkoping Arpt", "prior": "3", "obsTime": "2018-09-17T20:50:00Z", "temp": 11.0, "dewp": 9.0, "wspd": 4, "wdir": 160, "cover": "CAVOK", "visib": 6.21, "fltcat": "VFR", "altim": 1015.0, "rawOb": "ESGJ 172050Z 16004KT CAVOK 11/09 Q1015"}, "geometry": {"type": "Point", "coordinates": [14.066, 57.754]}}, {"type": "Feature", "properties": {"id": "EFJO", "site": "Joensuu Arpt", "prior": "4", "obsTime": "2018-09-17T20:50:00Z", "temp": 9.0, "dewp": 9.0, "wspd": 1, "wdir": 250, "ceil": 4, "cover": "OVC", "visib": 1.86, "fltcat": "LIFR", "altim": 1000.0, "wx": "RA BR", "rawOb": "EFJO 172050Z 25001KT 3000 RA BR OVC004 09/09 Q1000"}, "geometry": {"type": "Point", "coordinates": [29.619, 62.661]}}, {"type": "Feature", "properties": {"id": "LTBJ", "site": "Izmir/Menderes Arpt", "prior": "2", "obsTime": "2018-09-17T20:50:00Z", "temp": 25.0, "dewp": 12.0, "wspd": 15, "wdir": 350, "cover": "CAVOK", "visib": 6.21, "fltcat": "VFR", "altim": 1015.0, "rawOb": "LTBJ 172050Z 35015KT CAVOK 25/12 Q1015 NOSIG RMK RWY16 33016KT"}, "geometry": {"type": "Point", "coordinates": [27.157, 38.291]}}, {"type": "Feature", "properties": {"id": "EFIV", "site": "Ivalo Arpt", "prior": "3", "obsTime": "2018-09-17T20:50:00Z", "temp": 3.0, "dewp": 2.0, "wspd": 7, "wdir": 240, "cover": "CAVOK", "visib": 6.21, "fltcat": "VFR", "altim": 997.0, "rawOb": "EFIV 172050Z AUTO 24007KT CAVOK 03/02 Q0997"}, "geometry": {"type": "Point", "coordinates": [27.411, 68.609]}}, {"type": "Feature", "properties": {"id": "LTFJ", "site": "Istanbul/Sabiha Gokc", "prior": "6", "obsTime": "2018-09-17T20:50:00Z", "temp": 19.0, "dewp": 15.0, "wspd": 9, "wdir": 30, "cover": "CAVOK", "visib": 6.21, "fltcat": "VFR", "altim": 1022.0, "rawOb": "LTFJ 172050Z 03009KT CAVOK 19/15 Q1022 NOSIG RMK RWY24 01009KT"}, "geometry": {"type": "Point", "coordinates": [29.311, 40.9]}}, {"type": "Feature", "properties": {"id": "LTBA", "site": "Istanbul/Ataturk Int", "prior": "1", "obsTime": "2018-09-17T20:50:00Z", "temp": 22.0, "dewp": 14.0, "wspd": 9, "wdir": 50, "cover": "FEW", "visib": 6.21, "fltcat": "VFR", "altim": 1022.0, "rawOb": "LTBA 172050Z 05009KT 010V080 9999 FEW033 22/14 Q1022 NOSIG RMK RWY17L 06011KT RWY05 05008KT RWY23 07010KT"}, "geometry": {"type": "Point", "coordinates": [28.812, 40.969]}}, {"type": "Feature", "properties": {"id": "LTFC", "site": "Isparta/Demirel Arpt", "prior": "5", "obsTime": "2018-09-17T20:50:00Z", "temp": 19.0, "dewp": 7.0, "wspd": 7, "wdir": 10, "cover": "CAVOK", "visib": 6.21, "fltcat": "VFR", "altim": 1019.0, "rawOb": "LTFC 172050Z 01007KT 330V040 CAVOK 19/07 Q1019 RMK RWY23 31008KT"}, "geometry": {"type": "Point", "coordinates": [30.369, 37.856]}}, {"type": "Feature", "properties": {"id": "EGNS", "site": "Isle Of Man Arpt", "prior": "3", "obsTime": "2018-09-17T20:50:00Z", "temp": 16.0, "dewp": 14.0, "wspd": 15, "wdir": 180, "ceil": 32, "cover": "OVC", "visib": 6.21, "fltcat": "VFR", "altim": 1002.0, "rawOb": "EGNS 172050Z 18015KT 9999 FEW020 OVC032 16/14 Q1002"}, "geometry": {"type": "Point", "coordinates": [-4.627, 54.083]}}, {"type": "Feature", "properties": {"id": "EGPI", "site": "Islay Arpt", "prior": "4", "obsTime": "2018-09-17T20:50:00Z", "temp": 16.0, "dewp": 15.0, "wspd": 14, "wdir": 150, "ceil": 34, "cover": "BKN", "visib": 1.49, "fltcat": "IFR", "altim": 996.0, "wx": "RA", "rawOb": "EGPI 172050Z AUTO 15014KT 130V190 2400 RA FEW030/// BKN034/// 16/15 Q0996"}, "geometry": {"type": "Point", "coordinates": [-6.257, 55.683]}}, {"type": "Feature", "properties": {"id": "EGPE", "site": "Inverness Arpt", "prior": "6", "obsTime": "2018-09-17T20:50:00Z", "temp": 15.0, "dewp": 14.0, "wspd": 3, "wdir": 0, "cover": "SCT", "visib": 6.21, "fltcat": "VFR", "altim": 994.0, "wx": "SHRA", "rawOb": "EGPE 172050Z VRB03KT 9999 SHRA FEW012 SCT027 15/14 Q0994"}, "geometry": {"type": "Point", "coordinates": [-4.048, 57.542]}}, {"type": "Feature", "properties": {"id": "LOWI", "site": "Innsbruck Arpt", "prior": "3", "obsTime": "2018-09-17T20:50:00Z", "temp": 17.0, "dewp": 14.0, "wspd": 2, "wdir": 0, "cover": "FEW", "visib": 6.21, "fltcat": "VFR", "altim": 1021.0, "rawOb": "LOWI 172050Z AUTO VRB02KT 9999 FEW240 17/14 Q1021"}, "geometry": {"type": "Point", "coordinates": [11.345, 47.26]}}, {"type": "Feature", "properties": {"id": "ETSI", "site": "Ingolstadt-Manching", "prior": "5", "obsTime": "2018-09-17T20:20:00Z", "temp": 16.0, "dewp": 15.0, "wspd": 0, "wdir": 0, "visib": 4.97, "fltcat": "MVFR", "altim": 1019.0, "rawOb": "ETSI 172020Z AUTO 00000KT 8000 // ////// 16/15 Q1019 ///"}, "geometry": {"type": "Point", "coordinates": [11.534, 48.716]}}, {"type": "Feature", "properties": {"id": "EGNJ", "site": "Humberside Intl", "prior": "3", "obsTime": "2018-09-17T20:50:00Z", "temp": 19.0, "dewp": 11.0, "wspd": 14, "wdir": 180, "cover": "CLR", "visib": 6.21, "fltcat": "VFR", "altim": 1007.0, "rawOb": "EGNJ 172050Z AUTO 18014KT 9999 NCD 19/11 Q1007"}, "geometry": {"type": "Point", "coordinates": [-0.35, 53.577]}}, {"type": "Feature", "properties": {"id": "LEHC", "site": "Huesca/Pirineos Arpt", "prior": "4", "obsTime": "2018-09-17T21:00:00Z", "temp": 20.0, "dewp": 16.0, "wspd": 6, "wdir": 60, "cover": "CLR", "visib": 6.21, "fltcat": "VFR", "altim": 1019.0, "rawOb": "LEHC 172100Z AUTO 06006KT 030V090 9999 NCD 20/16 Q1019"}, "geometry": {"type": "Point", "coordinates": [-0.326, 42.083]}}, {"type": "Feature", "properties": {"id": "ETSH", "site": "Holzdorf Arpt", "prior": "4", "obsTime": "2018-09-17T20:20:00Z", "temp": 14.0, "dewp": 8.0, "wspd": 1, "wdir": 100, "ceil": 360, "cover": "BKN", "visib": 6.21, "fltcat": "VFR", "altim": 1018.0, "rawOb": "ETSH 172020Z 10001KT 9999 BKN360 14/08 Q1018 BLU+BLU+"}, "geometry": {"type": "Point", "coordinates": [13.168, 51.768]}}, {"type": "Feature", "properties": {"id": "ETNH", "site": "Hohn (GER-AFB)", "prior": "4", "obsTime": "2018-09-17T20:20:00Z", "temp": 13.0, "dewp": 12.0, "wspd": 1, "wdir": 90, "cover": "SCT", "visib": 6.21, "fltcat": "VFR", "altim": 1016.0, "rawOb": "ETNH 172020Z 09001KT 9999 FEW320 SCT360 13/12 Q1016 BLU+"}, "geometry": {"type": "Point", "coordinates": [9.539, 54.313]}}, {"type": "Feature", "properties": {"id": "ENHE", "site": "Heidrun(OIL)", "prior": "1", "obsTime": "2018-09-17T20:50:00Z", "temp": 11.0, "dewp": 7.0, "wspd": 28, "wdir": 240, "ceil": 21, "cover": "BKN", "visib": 6.21, "fltcat": "MVFR", "altim": 1000.0, "rawOb": "ENHE 172050Z 24028KT 9999 BKN021 11/07 Q1000 W///S5"}, "geometry": {"type": "Point", "coordinates": [2.33, 65.33]}}, {"type": "Feature", "properties": {"id": "EGNR", "site": "Hawarden Arpt", "prior": "6", "obsTime": "2018-09-17T19:50:00Z", "temp": 17.0, "dewp": 14.0, "wspd": 8, "wdir": 150, "cover": "FEW", "visib": 6.21, "fltcat": "VFR", "altim": 1005.0, "rawOb": "EGNR 171950Z 15008KT 9999 FEW035 17/14 Q1005"}, "geometry": {"type": "Point", "coordinates": [-2.978, 53.177]}}, {"type": "Feature", "properties": {"id": "ENHD", "site": "Haugesund Arpt", "prior": "3", "obsTime": "2018-09-17T20:50:00Z", "temp": 14.0, "dewp": 11.0, "wspd": 17, "wdir": 110, "ceil": 25, "cover": "BKN", "visib": 6.21, "fltcat": "MVFR", "altim": 1006.0, "rawOb": "ENHD 172050Z AUTO 11017KT 9999 SCT016/// BKN025/// BKN096/// 14/11 Q1006"}, "geometry": {"type": "Point", "coordinates": [5.213, 59.343]}}, {"type": "Feature", "properties": {"id": "LTDA", "site": "Hatay Arpt", "prior": "4", "obsTime": "2018-09-17T20:50:00Z", "temp": 26.0, "dewp": 20.0, "wspd": 9, "wdir": 250, "cover": "CAVOK", "visib": 6.21, "fltcat": "VFR", "altim": 1009.0, "rawOb": "LTDA 172050Z 25009KT CAVOK 26/20 Q1009 NOSIG"}, "geometry": {"type": "Point", "coordinates": [36.285, 36.361]}}, {"type": "Feature", "properties": {"id": "ENHK", "site": "Hasvik Arpt", "prior": "5", "obsTime": "2018-09-17T19:50:00Z", "temp": 8.0, "dewp": 6.0, "wspd": 11, "wdir": 310, "ceil": 27, "cover": "BKN", "visib": 6.21, "fltcat": "MVFR", "altim": 998.0, "wx": "-SHRA", "rawOb": "ENHK 171950Z 31011KT 9999 -SHRA FEW013 SCT020 BKN027 08/06 Q0998"}, "geometry": {"type": "Point", "coordinates": [22.146, 70.486]}}, {"type": "Feature", "properties": {"id": "ESUT", "site": "Hamavan Arpt", "prior": "3", "obsTime": "2018-09-17T20:50:00Z", "temp": 5.0, "dewp": 4.0, "wspd": 3, "wdir": 0, "ceil": 16, "cover": "OVC", "visib": 6.21, "fltcat": "MVFR", "altim": 1002.0, "wx": "-RA", "rawOb": "ESUT 172050Z AUTO VRB03KT 9999 -RA OVC016/// 05/04 Q1002 REDZ"}, "geometry": {"type": "Point", "coordinates": [15.082, 65.807]}}, {"type": "Feature", "properties": {"id": "ESMT", "site": "Halmstad Arpt", "prior": "3", "obsTime": "2018-09-17T20:50:00Z", "temp": 14.0, "dewp": 13.0, "wspd": 1, "wdir": 0, "ceil": 28, "cover": "BKN", "visib": 6.21, "fltcat": "MVFR", "altim": 1015.0, "rawOb": "ESMT 172050Z AUTO VRB01KT 9999 FEW019/// SCT021/// BKN028/// 14/13 Q1015"}, "geometry": {"type": "Point", "coordinates": [12.82, 56.69]}}, {"type": "Feature", "properties": {"id": "EFHA", "site": "Halli Arpt", "prior": "5", "obsTime": "2018-09-17T20:50:00Z", "temp": 9.0, "dewp": 8.0, "wspd": 11, "wdir": 270, "ceil": 36, "cover": "BKN", "visib": 6.21, "fltcat": "VFR", "altim": 1006.0, "rawOb": "EFHA 172050Z AUTO 27011KT 9999 BKN036 09/08 Q1006"}, "geometry": {"type": "Point", "coordinates": [24.79, 61.856]}}, {"type": "Feature", "properties": {"id": "LTCS", "site": "Gurney/Projesi Arpt", "prior": "3", "obsTime": "2018-09-17T20:50:00Z", "temp": 24.0, "dewp": 6.0, "wspd": 4, "wdir": 360, "cover": "CAVOK", "visib": 6.21, "fltcat": "VFR", "altim": 1014.0, "rawOb": "LTCS 172050Z 36004KT CAVOK 24/06 Q1014 RMK RWY22 08006KT"}, "geometry": {"type": "Point", "coordinates": [38.9, 37.45]}}, {"type": "Feature", "properties": {"id": "EGJB", "site": "Guernsey Arpt", "prior": "3", "obsTime": "2018-09-17T20:50:00Z", "temp": 18.0, "dewp": 15.0, "wspd": 12, "wdir": 210, "cover": "CAVOK", "visib": 6.21, "fltcat": "VFR", "altim": 1009.0, "rawOb": "EGJB 172050Z 21012KT CAVOK 18/15 Q1009"}, "geometry": {"type": "Point", "coordinates": [-2.6, 49.435]}}, {"type": "Feature", "properties": {"id": "LSZG", "site": "Grenchen Arpt", "prior": "5", "obsTime": "2018-09-17T20:50:00Z", "temp": 16.0, "dewp": 13.0, "wspd": 2, "wdir": 0, "cover": "CLR", "visib": 6.21, "fltcat": "VFR", "altim": 1019.0, "rawOb": "LSZG 172050Z AUTO VRB02KT 9999 NCD 16/13 Q1019"}, "geometry": {"type": "Point", "coordinates": [7.417, 47.181]}}, {"type": "Feature", "properties": {"id": "LOWG", "site": "Graz Arpt", "prior": "3", "obsTime": "2018-09-17T20:50:00Z", "temp": 18.0, "dewp": 16.0, "wspd": 2, "wdir": 260, "cover": "FEW", "visib": 6.21, "fltcat": "VFR", "altim": 1022.0, "rawOb": "LOWG 172050Z 26002KT 9999 FEW040 18/16 Q1022 NOSIG"}, "geometry": {"type": "Point", "coordinates": [15.438, 46.994]}}, {"type": "Feature", "properties": {"id": "ESGG", "site": "Goteborg/Landvetter", "prior": "3", "obsTime": "2018-09-17T20:50:00Z", "temp": 12.0, "dewp": 10.0, "wspd": 7, "wdir": 160, "cover": "FEW", "visib": 6.21, "fltcat": "VFR", "altim": 1014.0, "rawOb": "ESGG 172050Z 16007KT 9999 FEW030 12/10 Q1014"}, "geometry": {"type": "Point", "coordinates": [12.283, 57.666]}}, {"type": "Feature", "properties": {"id": "EHSC", "site": "Goeree Le Sea(OIL)", "prior": "5", "obsTime": "2018-09-17T20:55:00Z", "temp": 20.0, "dewp": 13.0, "wspd": 16, "wdir": 150, "visib": 6.21, "altim": 1012.0, "rawOb": "EHSC 172055Z AUTO 15016KT 9999 ///////// 20/13 Q1012 W19/H3"}, "geometry": {"type": "Point", "coordinates": [3.67, 51.93]}}, {"type": "Feature", "properties": {"id": "ETGG", "site": "Gluecksburg/Meierwik", "prior": "6", "obsTime": "2018-09-17T20:20:00Z", "temp": 15.0, "dewp": 14.0, "wspd": 5, "wdir": 190, "ceil": 300, "cover": "BKN", "visib": 5.59, "fltcat": "VFR", "altim": 1016.0, "rawOb": "ETGG 172020Z 19005KT 9000 BKN300 15/14 Q1016 BLU+"}, "geometry": {"type": "Point", "coordinates": [9.506, 54.827]}}, {"type": "Feature", "properties": {"id": "EGPF", "site": "Glasgow Arpt", "prior": "1", "obsTime": "2018-09-17T20:50:00Z", "temp": 17.0, "dewp": 14.0, "wspd": 12, "wgst": 22, "wdir": 160, "ceil": 20, "cover": "OVC", "visib": 6.21, "fltcat": "MVFR", "altim": 999.0, "rawOb": "EGPF 172050Z AUTO 16012G22KT 130V200 9999 BKN020/// OVC045/// //////TCU 17/14 Q0999"}, "geometry": {"type": "Point", "coordinates": [-4.433, 55.872]}}, {"type": "Feature", "properties": {"id": "LXGB", "site": "Gibraltar Arpt", "prior": "1", "obsTime": "2018-09-17T20:50:00Z", "temp": 23.0, "dewp": 22.0, "wspd": 6, "wdir": 70, "ceil": 9, "cover": "BKN", "visib": 4.97, "fltcat": "IFR", "altim": 1015.0, "rawOb": "LXGB 172050Z AUTO 07006KT 8000 // BKN009/// SCT014/// 23/22 Q1015"}, "geometry": {"type": "Point", "coordinates": [-5.35, 36.151]}}, {"type": "Feature", "properties": {"id": "LIMJ", "site": "Genoa/Colombo Arpt", "prior": "3", "obsTime": "2018-09-17T20:50:00Z", "temp": 23.0, "dewp": 19.0, "wspd": 3, "wdir": 10, "cover": "FEW", "visib": 6.21, "fltcat": "VFR", "altim": 1019.0, "rawOb": "LIMJ 172050Z 01003KT 330V030 9999 FEW030 23/19 Q1019"}, "geometry": {"type": "Point", "coordinates": [8.842, 44.412]}}, {"type": "Feature", "properties": {"id": "LTFG", "site": "Gazipasa Arpt", "prior": "3", "obsTime": "2018-09-17T20:50:00Z", "temp": 30.0, "dewp": 9.0, "wspd": 10, "wgst": 20, "wdir": 30, "cover": "CAVOK", "visib": 6.21, "fltcat": "VFR", "altim": 1009.0, "rawOb": "LTFG 172050Z 03010G20KT 360V080 CAVOK 30/09 Q1009"}, "geometry": {"type": "Point", "coordinates": [32.302, 36.299]}}, {"type": "Feature", "properties": {"id": "LTAJ", "site": "Gaziantep Arpt", "prior": "3", "obsTime": "2018-09-17T20:50:00Z", "temp": 21.0, "dewp": 6.0, "wspd": 3, "wdir": 310, "cover": "CAVOK", "visib": 6.21, "fltcat": "VFR", "altim": 1012.0, "rawOb": "LTAJ 172050Z 31003KT CAVOK 21/06 Q1012 NOSIG RMK RWY10 30002KT"}, "geometry": {"type": "Point", "coordinates": [37.474, 36.949]}}, {"type": "Feature", "properties": {"id": "ESNG", "site": "Gallivare Arpt", "prior": "4", "obsTime": "2018-09-17T20:50:00Z", "temp": 5.0, "dewp": 3.0, "wspd": 5, "wdir": 290, "ceil": 100, "cover": "BKN", "visib": 6.21, "fltcat": "VFR", "altim": 998.0, "rawOb": "ESNG 172050Z AUTO 29005KT 9999 SCT086/// BKN100/// 05/03 Q0998"}, "geometry": {"type": "Point", "coordinates": [20.813, 67.133]}}, {"type": "Feature", "properties": {"id": "ETHF", "site": "Fritzlar Arpt", "prior": "5", "obsTime": "2018-09-17T20:20:00Z", "temp": 13.0, "dewp": 8.0, "wspd": 2, "wdir": 290, "ceil": 320, "cover": "BKN", "visib": 6.21, "fltcat": "VFR", "altim": 1017.0, "rawOb": "ETHF 172020Z 29002KT 9999 BKN320 13/08 Q1017 BLU+"}, "geometry": {"type": "Point", "coordinates": [9.284, 51.119]}}, {"type": "Feature", "properties": {"id": "ENFL", "site": "Floro Arpt", "prior": "4", "obsTime": "2018-09-17T20:50:00Z", "temp": 11.0, "dewp": 10.0, "wspd": 11, "wdir": 100, "ceil": 22, "cover": "BKN", "visib": 2.8, "fltcat": "IFR", "altim": 1004.0, "wx": "SHRA", "rawOb": "ENFL 172050Z 10011KT 4500 SHRA FEW010 SCT016 BKN022 11/10 Q1004"}, "geometry": {"type": "Point", "coordinates": [5.021, 61.582]}}, {"type": "Feature", "properties": {"id": "LIRQ", "site": "Firenze/Peretola Arp", "prior": "3", "obsTime": "2018-09-17T20:50:00Z", "temp": 23.0, "dewp": 16.0, "wspd": 4, "wdir": 80, "cover": "CAVOK", "visib": 6.21, "fltcat": "VFR", "altim": 1020.0, "rawOb": "LIRQ 172050Z 08004KT CAVOK 23/16 Q1020"}, "geometry": {"type": "Point", "coordinates": [11.206, 43.81]}}, {"type": "Feature", "properties": {"id": "ETHS", "site": "Fassberg Arpt", "prior": "4", "obsTime": "2018-09-17T20:20:00Z", "temp": 12.0, "dewp": 7.0, "wspd": 3, "wdir": 90, "ceil": 380, "cover": "BKN", "visib": 6.21, "fltcat": "VFR", "altim": 1017.0, "rawOb": "ETHS 172020Z 09003KT 9999 SCT280 BKN380 12/07 Q1017 BLU+BLU+"}, "geometry": {"type": "Point", "coordinates": [10.184, 52.918]}}, {"type": "Feature", "properties": {"id": "EGLF", "site": "Farnborough Arpt", "prior": "6", "obsTime": "2018-09-17T20:20:00Z", "temp": 17.0, "dewp": 10.0, "wspd": 6, "wdir": 150, "cover": "CAVOK", "visib": 6.21, "fltcat": "VFR", "altim": 1008.0, "rawOb": "EGLF 172020Z 15006KT CAVOK 17/10 Q1008"}, "geometry": {"type": "Point", "coordinates": [-0.772, 51.277]}}, {"type": "Feature", "properties": {"id": "EGTE", "site": "Exeter Arpt", "prior": "4", "obsTime": "2018-09-17T20:20:00Z", "temp": 16.0, "dewp": 15.0, "wspd": 7, "wdir": 150, "cover": "SCT", "visib": 6.21, "fltcat": "VFR", "altim": 1006.0, "rawOb": "EGTE 172020Z 15007KT 9999 SCT018 16/15 Q1006"}, "geometry": {"type": "Point", "coordinates": [-3.418, 50.733]}}, {"type": "Feature", "properties": {"id": "ENEV", "site": "Evenes Arpt", "prior": "3", "obsTime": "2018-09-17T20:50:00Z", "temp": 7.0, "dewp": 6.0, "wspd": 3, "wdir": 190, "ceil": 11, "cover": "OVC", "visib": 6.21, "fltcat": "MVFR", "altim": 999.0, "rawOb": "ENEV 172050Z 19003KT 9999 BKN011 BKN032 OVC045 07/06 Q0999 RMK WIND 1400FT 24011KT"}, "geometry": {"type": "Point", "coordinates": [16.679, 68.488]}}, {"type": "Feature", "properties": {"id": "EHSA", "site": "Euro Platform(OIL)", "prior": "5", "obsTime": "2018-09-17T20:55:00Z", "temp": 21.0, "dewp": 14.0, "wspd": 16, "wdir": 140, "visib": 6.21, "altim": 1012.0, "rawOb": "EHSA 172055Z AUTO 14016KT 9999 ///////// 21/14 Q1012 W17/H4"}, "geometry": {"type": "Point", "coordinates": [3.28, 52.0]}}, {"type": "Feature", "properties": {"id": "LTBY", "site": "Eskisehir/Anadolu Un", "prior": "3", "obsTime": "2018-09-17T20:50:00Z", "temp": 14.0, "dewp": 11.0, "wspd": 7, "wdir": 260, "cover": "CAVOK", "visib": 6.21, "fltcat": "VFR", "altim": 1022.0, "rawOb": "LTBY 172050Z 26007KT CAVOK 14/11 Q1022"}, "geometry": {"type": "Point", "coordinates": [30.52, 39.81]}}, {"type": "Feature", "properties": {"id": "LTCE", "site": "Erzurum Arpt", "prior": "3", "obsTime": "2018-09-17T20:50:00Z", "temp": 11.0, "dewp": 7.0, "wspd": 10, "wdir": 70, "cover": "CAVOK", "visib": 6.21, "fltcat": "VFR", "altim": 1023.0, "rawOb": "LTCE 172050Z 07010KT CAVOK 11/07 Q1023 NOSIG RMK RWY08R 06010KT RWY26R 07010KT RWY08L 07009KT"}, "geometry": {"type": "Point", "coordinates": [41.172, 39.957]}}, {"type": "Feature", "properties": {"id": "LTCD", "site": "Erzincan Arpt", "prior": "3", "obsTime": "2018-09-17T20:50:00Z", "temp": 16.0, "dewp": 8.0, "wspd": 10, "wdir": 240, "cover": "CAVOK", "visib": 6.21, "fltcat": "VFR", "altim": 1020.0, "rawOb": "LTCD 172050Z 24010KT CAVOK 16/08 Q1020 NOSIG"}, "geometry": {"type": "Point", "coordinates": [39.526, 39.712]}}, {"type": "Feature", "properties": {"id": "EFET", "site": "Enontekio Arpt", "prior": "3", "obsTime": "2018-09-17T20:50:00Z", "temp": 1.0, "dewp": 0.0, "wspd": 0, "wdir": 0, "cover": "CAVOK", "visib": 6.21, "fltcat": "VFR", "altim": 997.0, "rawOb": "EFET 172050Z AUTO 00000KT CAVOK 01/00 Q0997"}, "geometry": {"type": "Point", "coordinates": [23.42, 68.36]}}, {"type": "Feature", "properties": {"id": "LSME", "site": "Emmen Arpt(MIL)", "prior": "3", "obsTime": "2018-09-17T20:50:00Z", "temp": 18.0, "dewp": 14.0, "wspd": 0, "wdir": 0, "cover": "CLR", "altim": 1019.0, "rawOb": "LSME 172050Z AUTO 00000KT 9999NDV NCD 18/14 Q1019 RMK"}, "geometry": {"type": "Point", "coordinates": [8.306, 47.093]}}, {"type": "Feature", "properties": {"id": "LTCA", "site": "Elazig Arpt", "prior": "4", "obsTime": "2018-09-17T20:50:00Z", "temp": 17.0, "dewp": 4.0, "wspd": 6, "wdir": 240, "cover": "CAVOK", "visib": 6.21, "fltcat": "VFR", "altim": 1015.0, "rawOb": "LTCA 172050Z 24006KT 210V270 CAVOK 17/04 Q1015 NOSIG"}, "geometry": {"type": "Point", "coordinates": [39.286, 38.599]}}, {"type": "Feature", "properties": {"id": "ENLE", "site": "Ekofisk Platform(OIL", "prior": "3", "obsTime": "2018-09-17T20:50:00Z", "temp": 16.0, "dewp": 15.0, "wspd": 29, "wdir": 170, "ceil": 65, "cover": "BKN", "visib": 6.21, "fltcat": "VFR", "altim": 1007.0, "rawOb": "ENLE 172050Z 17029KT 9999 FEW008 BKN065 16/15 Q1007 W15/S4"}, "geometry": {"type": "Point", "coordinates": [3.225, 56.544]}}, {"type": "Feature", "properties": {"id": "LTFD", "site": "Edremit/Kortez Arpt", "prior": "3", "obsTime": "2018-09-17T20:50:00Z", "temp": 21.0, "dewp": 15.0, "wspd": 14, "wdir": 90, "cover": "CAVOK", "visib": 6.21, "fltcat": "VFR", "altim": 1019.0, "rawOb": "LTFD 172050Z 09014KT CAVOK 21/15 Q1019"}, "geometry": {"type": "Point", "coordinates": [27.014, 39.555]}}, {"type": "Feature", "properties": {"id": "EGPH", "site": "Edinburgh Arpt", "prior": "4", "obsTime": "2018-09-17T20:50:00Z", "temp": 18.0, "dewp": 14.0, "wspd": 20, "wdir": 200, "cover": "FEW", "visib": 6.21, "fltcat": "VFR", "altim": 999.0, "rawOb": "EGPH 172050Z 20020KT 9999 FEW033 18/14 Q0999"}, "geometry": {"type": "Point", "coordinates": [-3.354, 55.95]}}, {"type": "Feature", "properties": {"id": "EGNV", "site": "Durham/Tees Valley I", "prior": "3", "obsTime": "2018-09-17T20:50:00Z", "temp": 17.0, "dewp": 13.0, "wspd": 11, "wdir": 200, "cover": "FEW", "visib": 6.21, "fltcat": "VFR", "altim": 1004.0, "rawOb": "EGNV 172050Z 20011KT 9999 FEW030 17/13 Q1004"}, "geometry": {"type": "Point", "coordinates": [-1.428, 54.509]}}, {"type": "Feature", "properties": {"id": "LSMD", "site": "Dubendorf Arpt(MIL)", "prior": "6", "obsTime": "2018-09-17T20:50:00Z", "rawOb": "LSMD 172050Z AUTO /////KT ////NDV // ////// ///// Q//// RMK MIS"}, "geometry": {"type": "Point", "coordinates": [8.65, 47.4]}}, {"type": "Feature", "properties": {"id": "EGXS", "site": "Donna Nook(RAF)", "prior": "5", "obsTime": "2018-09-17T20:50:00Z", "temp": 18.0, "dewp": 10.0, "wspd": 9, "wdir": 170, "cover": "CLR", "visib": 6.21, "fltcat": "VFR", "altim": 1007.0, "rawOb": "EGXS 172050Z AUTO 17009KT 9999 // NCD 18/10 Q1007"}, "geometry": {"type": "Point", "coordinates": [0.153, 53.475]}}, {"type": "Feature", "properties": {"id": "EGCN", "site": "Doncaster/Robin Hood", "prior": "4", "obsTime": "2018-09-17T20:50:00Z", "temp": 17.0, "dewp": 11.0, "wspd": 8, "wdir": 170, "cover": "CAVOK", "visib": 6.21, "fltcat": "VFR", "altim": 1007.0, "rawOb": "EGCN 172050Z 17008KT CAVOK 17/11 Q1007"}, "geometry": {"type": "Point", "coordinates": [-1.004, 53.476]}}, {"type": "Feature", "properties": {"id": "LTCC", "site": "Diyarbakir Arpt", "prior": "3", "obsTime": "2018-09-17T20:50:00Z", "temp": 23.0, "dewp": 3.0, "wspd": 6, "wdir": 320, "cover": "CAVOK", "visib": 6.21, "fltcat": "VFR", "altim": 1012.0, "rawOb": "LTCC 172050Z 32006KT CAVOK 23/03 Q1012 NOSIG RMK RWY16 33008KT"}, "geometry": {"type": "Point", "coordinates": [40.198, 37.893]}}, {"type": "Feature", "properties": {"id": "EGAE", "site": "Derry/City Arpt", "prior": "4", "obsTime": "2018-09-17T20:50:00Z", "temp": 17.0, "dewp": 16.0, "wspd": 14, "wdir": 190, "ceil": 49, "cover": "BKN", "visib": 5.59, "fltcat": "VFR", "altim": 995.0, "wx": "-RA", "rawOb": "EGAE 172050Z 19014KT 150V210 9000 -RA SCT032 BKN049 17/16 Q0995"}, "geometry": {"type": "Point", "coordinates": [-7.16, 55.042]}}, {"type": "Feature", "properties": {"id": "LTBS", "site": "Dalaman Arpt", "prior": "4", "obsTime": "2018-09-17T20:50:00Z", "temp": 21.0, "dewp": 14.0, "wspd": 7, "wdir": 30, "cover": "CAVOK", "visib": 6.21, "fltcat": "VFR", "altim": 1012.0, "rawOb": "LTBS 172050Z 03007KT CAVOK 21/14 Q1012 NOSIG RMK RWY19 33006KT"}, "geometry": {"type": "Point", "coordinates": [28.792, 36.713]}}, {"type": "Feature", "properties": {"id": "EGDR", "site": "Culdrose (NAVY)", "prior": "7", "obsTime": "2018-09-17T20:50:00Z", "temp": 17.0, "dewp": 16.0, "wspd": 17, "wgst": 32, "wdir": 170, "ceil": 12, "cover": "BKN", "visib": 4.35, "fltcat": "MVFR", "altim": 1003.0, "wx": "-RA", "rawOb": "EGDR 172050Z 17017G32KT 7000 -RA FEW004 SCT006 BKN012 17/16 Q1003 YLO1 BECMG 2000 RABR SCT004 OVC007 YLO2"}, "geometry": {"type": "Point", "coordinates": [-5.254, 50.086]}}, {"type": "Feature", "properties": {"id": "EGYD", "site": "Cranwell(RAF)", "prior": "6", "obsTime": "2018-09-17T20:50:00Z", "temp": 17.0, "dewp": 8.0, "wspd": 12, "wdir": 160, "cover": "CLR", "visib": 6.21, "fltcat": "VFR", "altim": 1007.0, "rawOb": "EGYD 172050Z AUTO 16012KT 9999 // NCD 17/08 Q1007"}, "geometry": {"type": "Point", "coordinates": [-0.49, 53.03]}}, {"type": "Feature", "properties": {"id": "LTBU", "site": "Corlu Arpt", "prior": "4", "obsTime": "2018-09-17T20:50:00Z", "temp": 17.0, "dewp": 15.0, "wspd": 7, "wdir": 360, "cover": "FEW", "visib": 6.21, "fltcat": "VFR", "altim": 1022.0, "rawOb": "LTBU 172050Z 36007KT 9999 FEW027 17/15 Q1022 RMK RWY23 03009KT"}, "geometry": {"type": "Point", "coordinates": [27.92, 41.14]}}, {"type": "Feature", "properties": {"id": "LGKR", "site": "Corfu/Kapodistinas A", "prior": "1", "obsTime": "2018-09-17T20:50:00Z", "temp": 24.0, "dewp": 18.0, "wspd": 4, "wdir": 290, "cover": "FEW", "visib": 6.21, "fltcat": "VFR", "altim": 1018.0, "rawOb": "LGKR 172050Z 29004KT 9999 FEW030 24/18 Q1018 NOSIG"}, "geometry": {"type": "Point", "coordinates": [19.911, 39.604]}}, {"type": "Feature", "properties": {"id": "LEBA", "site": "Cordoba Arpt", "prior": "4", "obsTime": "2018-09-17T21:00:00Z", "temp": 21.0, "dewp": 17.0, "wspd": 9, "wdir": 80, "visib": 6.21, "altim": 1015.0, "wx": "VCTS", "rawOb": "LEBA 172100Z AUTO 08009KT 9999 VCTS ///CB 21/17 Q1015"}, "geometry": {"type": "Point", "coordinates": [-4.847, 37.844]}}, {"type": "Feature", "properties": {"id": "EGXC", "site": "Coningsby(RAF)", "prior": "5", "obsTime": "2018-09-17T20:50:00Z", "temp": 17.0, "dewp": 10.0, "wspd": 7, "wdir": 170, "cover": "CAVOK", "visib": 6.21, "fltcat": "VFR", "altim": 1007.0, "rawOb": "EGXC 172050Z 17007KT CAVOK 17/10 Q1007 BLU"}, "geometry": {"type": "Point", "coordinates": [-0.167, 53.093]}}, {"type": "Feature", "properties": {"id": "LEAO", "site": "Ciudad Real", "prior": "3", "obsTime": "2018-09-17T21:00:00Z", "temp": 18.0, "dewp": 16.0, "wspd": 3, "wdir": 140, "cover": "CAVOK", "visib": 6.21, "fltcat": "VFR", "altim": 1018.0, "rawOb": "LEAO 172100Z 14003KT CAVOK 18/16 Q1018"}, "geometry": {"type": "Point", "coordinates": [-3.741, 38.953]}}, {"type": "Feature", "properties": {"id": "LGHI", "site": "Chios Isl Arpt", "prior": "4", "obsTime": "2018-09-17T19:50:00Z", "temp": 24.0, "dewp": 14.0, "wspd": 16, "wdir": 360, "cover": "CAVOK", "visib": 6.21, "fltcat": "VFR", "altim": 1014.0, "rawOb": "LGHI 171950Z 36016KT CAVOK 24/14 Q1014"}, "geometry": {"type": "Point", "coordinates": [26.141, 38.344]}}, {"type": "Feature", "properties": {"id": "LGKF", "site": "Cephalonia Arpt", "prior": "4", "obsTime": "2018-09-17T19:50:00Z", "temp": 23.0, "dewp": 16.0, "wspd": 4, "wdir": 350, "cover": "CAVOK", "visib": 6.21, "fltcat": "VFR", "altim": 1018.0, "rawOb": "LGKF 171950Z 35004KT CAVOK 23/16 Q1018"}, "geometry": {"type": "Point", "coordinates": [20.5, 38.12]}}, {"type": "Feature", "properties": {"id": "ETHC", "site": "Celle Arpt", "prior": "6", "obsTime": "2018-09-17T20:20:00Z", "temp": 15.0, "dewp": 10.0, "wspd": 0, "wdir": 0, "visib": 5.59, "altim": 1017.0, "rawOb": "ETHC 172020Z AUTO 00000KT 9000 // ////// 15/10 Q1017 ///"}, "geometry": {"type": "Point", "coordinates": [10.028, 52.593]}}, {"type": "Feature", "properties": {"id": "LICC", "site": "Catania/Fontanarossa", "prior": "3", "obsTime": "2018-09-17T20:50:00Z", "temp": 23.0, "dewp": 21.0, "wspd": 1, "wdir": 0, "cover": "CAVOK", "visib": 6.21, "fltcat": "VFR", "altim": 1020.0, "rawOb": "LICC 172050Z VRB01KT CAVOK 23/21 Q1020"}, "geometry": {"type": "Point", "coordinates": [15.067, 37.467]}}, {"type": "Feature", "properties": {"id": "EGFF", "site": "Cardiff Intl", "prior": "4", "obsTime": "2018-09-17T20:50:00Z", "temp": 17.0, "dewp": 14.0, "wspd": 7, "wdir": 150, "ceil": 23, "cover": "BKN", "visib": 6.21, "fltcat": "MVFR", "altim": 1006.0, "rawOb": "EGFF 172050Z AUTO 15007KT 9999 BKN023 17/14 Q1006"}, "geometry": {"type": "Point", "coordinates": [-3.344, 51.397]}}, {"type": "Feature", "properties": {"id": "LTAY", "site": "Cardak Arpt", "prior": "3", "obsTime": "2018-09-17T20:50:00Z", "temp": 21.0, "dewp": 9.0, "wspd": 18, "wdir": 50, "cover": "CAVOK", "visib": 6.21, "fltcat": "VFR", "altim": 1018.0, "rawOb": "LTAY 172050Z 05018KT CAVOK 21/09 Q1018"}, "geometry": {"type": "Point", "coordinates": [29.701, 37.786]}}, {"type": "Feature", "properties": {"id": "LTBH", "site": "Canakkale Arpt", "prior": "4", "obsTime": "2018-09-17T20:50:00Z", "temp": 20.0, "dewp": 15.0, "wspd": 11, "wdir": 50, "cover": "CAVOK", "visib": 6.21, "fltcat": "VFR", "altim": 1020.0, "rawOb": "LTBH 172050Z 05011KT CAVOK 20/15 Q1020"}, "geometry": {"type": "Point", "coordinates": [26.427, 40.138]}}, {"type": "Feature", "properties": {"id": "LECH", "site": "Calamocha", "prior": "4", "obsTime": "2018-09-17T21:00:00Z", "temp": 21.0, "dewp": 20.0, "wspd": 5, "wdir": 340, "ceil": 9, "cover": "OVC", "visib": 4.97, "fltcat": "IFR", "altim": 1018.0, "wx": "+TSRA", "rawOb": "LECH 172100Z AUTO 34005KT 8000 +TSRA SCT004 BKN009 OVC034 ///CB 21/20 Q1018"}, "geometry": {"type": "Point", "coordinates": [-1.3, 40.93]}}, {"type": "Feature", "properties": {"id": "LIEE", "site": "Cagliari/Elmas Arpt", "prior": "2", "obsTime": "2018-09-17T20:50:00Z", "temp": 25.0, "dewp": 22.0, "wspd": 7, "wdir": 160, "cover": "CAVOK", "visib": 6.21, "fltcat": "VFR", "altim": 1018.0, "rawOb": "LIEE 172050Z 16007KT CAVOK 25/22 Q1018"}, "geometry": {"type": "Point", "coordinates": [9.056, 39.25]}}, {"type": "Feature", "properties": {"id": "LTBR", "site": "Bursa/Yenisehir Arpt", "prior": "4", "obsTime": "2018-09-17T20:50:00Z", "temp": 15.0, "dewp": 13.0, "wspd": 3, "wdir": 160, "cover": "CAVOK", "visib": 6.21, "fltcat": "VFR", "altim": 1021.0, "rawOb": "LTBR 172050Z 16003KT 060V190 CAVOK 15/13 Q1021 NOSIG RMK RWY07 19004KT"}, "geometry": {"type": "Point", "coordinates": [29.561, 40.255]}}, {"type": "Feature", "properties": {"id": "LEBG", "site": "Burgos Arpt", "prior": "4", "obsTime": "2018-09-17T21:00:00Z", "temp": 18.0, "dewp": 13.0, "wspd": 6, "wdir": 90, "cover": "CAVOK", "visib": 6.21, "fltcat": "VFR", "altim": 1018.0, "rawOb": "LEBG 172100Z AUTO 09006KT CAVOK 18/13 Q1018"}, "geometry": {"type": "Point", "coordinates": [-3.63, 42.37]}}, {"type": "Feature", "properties": {"id": "LSZC", "site": "Buochs Arpt", "prior": "6", "obsTime": "2018-09-17T20:50:00Z", "temp": 17.0, "dewp": 14.0, "wspd": 5, "wdir": 240, "cover": "CAVOK", "visib": 6.21, "fltcat": "VFR", "altim": 1019.0, "rawOb": "LSZC 172050Z AUTO 24005KT 200V270 CAVOK 17/14 Q1019"}, "geometry": {"type": "Point", "coordinates": [8.397, 46.975]}}, {"type": "Feature", "properties": {"id": "ETSB", "site": "Buechel Arpt", "prior": "5", "obsTime": "2018-09-17T20:20:00Z", "temp": 19.0, "dewp": 6.0, "wspd": 4, "wdir": 130, "visib": 6.21, "altim": 1018.0, "rawOb": "ETSB 172020Z AUTO 13004KT 9999 // ////// 19/06 Q1018 ///"}, "geometry": {"type": "Point", "coordinates": [7.063, 50.174]}}, {"type": "Feature", "properties": {"id": "ETHB", "site": "Buckeburg(RAF)", "prior": "5", "obsTime": "2018-09-17T20:20:00Z", "temp": 16.0, "dewp": 8.0, "wspd": 2, "wdir": 150, "ceil": 300, "cover": "BKN", "visib": 6.21, "fltcat": "VFR", "altim": 1016.0, "rawOb": "ETHB 172020Z 15002KT 9999 BKN300 16/08 Q1016 BLU+BLU+"}, "geometry": {"type": "Point", "coordinates": [9.088, 52.282]}}, {"type": "Feature", "properties": {"id": "ENBN", "site": "Bronnoysund/Bronnoy", "prior": "4", "obsTime": "2018-09-17T20:50:00Z", "temp": 11.0, "dewp": 8.0, "wspd": 17, "wdir": 210, "ceil": 25, "cover": "BKN", "fltcat": "MVFR", "altim": 1003.0, "rawOb": "ENBN 172050Z AUTO 21017KT 9999NDV BKN025/// BKN056/// 11/08 Q1003"}, "geometry": {"type": "Point", "coordinates": [12.216, 65.461]}}, {"type": "Feature", "properties": {"id": "EGVN", "site": "Brize Norton(RAF)", "prior": "5", "obsTime": "2018-09-17T20:50:00Z", "temp": 16.0, "dewp": 10.0, "wspd": 4, "wdir": 170, "cover": "CAVOK", "visib": 6.21, "fltcat": "VFR", "altim": 1007.0, "rawOb": "EGVN 172050Z 17004KT CAVOK 16/10 Q1007 BLU NOSIG"}, "geometry": {"type": "Point", "coordinates": [-1.58, 51.75]}}, {"type": "Feature", "properties": {"id": "EGGD", "site": "Bristol Intl", "prior": "3", "obsTime": "2018-09-17T20:50:00Z", "temp": 15.0, "dewp": 12.0, "wspd": 3, "wdir": 0, "cover": "CLR", "visib": 6.21, "fltcat": "VFR", "altim": 1007.0, "rawOb": "EGGD 172050Z AUTO VRB03KT 9999 NCD 15/12 Q1007"}, "geometry": {"type": "Point", "coordinates": [-2.718, 51.383]}}, {"type": "Feature", "properties": {"id": "ENBL", "site": "Bringeland Arpt", "prior": "5", "obsTime": "2018-09-17T20:50:00Z", "temp": 9.0, "dewp": 8.0, "wspd": 2, "wdir": 0, "ceil": 25, "cover": "BKN", "visib": 6.21, "fltcat": "MVFR", "altim": 1006.0, "wx": "-SHRA", "rawOb": "ENBL 172050Z VRB02KT 9999 -SHRA FEW/// SCT015 BKN025 09/08 Q1006"}, "geometry": {"type": "Point", "coordinates": [5.76, 61.392]}}, {"type": "Feature", "properties": {"id": "LIBR", "site": "Brindisi/Casale Arpt", "prior": "2", "obsTime": "2018-09-17T20:50:00Z", "temp": 22.0, "dewp": 18.0, "wspd": 3, "wdir": 290, "cover": "CAVOK", "visib": 6.21, "fltcat": "VFR", "altim": 1019.0, "rawOb": "LIBR 172050Z 29003KT CAVOK 22/18 Q1019"}, "geometry": {"type": "Point", "coordinates": [17.943, 40.662]}}, {"type": "Feature", "properties": {"id": "EGHH", "site": "Bournemouth Intl", "prior": "3", "obsTime": "2018-09-17T20:50:00Z", "temp": 19.0, "dewp": 15.0, "wspd": 11, "wdir": 150, "cover": "CAVOK", "visib": 6.21, "fltcat": "VFR", "altim": 1007.0, "rawOb": "EGHH 172050Z 15011KT CAVOK 19/15 Q1007"}, "geometry": {"type": "Point", "coordinates": [-1.839, 50.78]}}, {"type": "Feature", "properties": {"id": "EGQM", "site": "Boulmer(HEL)", "prior": "3", "obsTime": "2018-09-17T20:50:00Z", "temp": 17.0, "dewp": 15.0, "wspd": 9, "wdir": 160, "ceil": 33, "cover": "BKN", "visib": 6.21, "fltcat": "VFR", "altim": 1002.0, "rawOb": "EGQM 172050Z AUTO 16009KT 9999 SCT026/// BKN033/// 17/15 Q1002"}, "geometry": {"type": "Point", "coordinates": [-1.601, 55.421]}}, {"type": "Feature", "properties": {"id": "EGDM", "site": "Boscombe Down(MIL)", "prior": "5", "obsTime": "2018-09-17T20:50:00Z", "temp": 16.0, "dewp": 12.0, "wspd": 5, "wdir": 160, "cover": "CLR", "visib": 6.21, "fltcat": "VFR", "altim": 1007.0, "rawOb": "EGDM 172050Z AUTO 16005KT 9999 NCD 16/12 Q1007"}, "geometry": {"type": "Point", "coordinates": [-1.74, 51.158]}}, {"type": "Feature", "properties": {"id": "ESSD", "site": "Borlange/Dala Arpt", "prior": "3", "obsTime": "2018-09-17T20:50:00Z", "temp": 10.0, "dewp": 5.0, "wspd": 8, "wdir": 250, "cover": "FEW", "visib": 6.21, "fltcat": "VFR", "altim": 1011.0, "rawOb": "ESSD 172050Z AUTO 25008KT 9999 FEW190/// 10/05 Q1011"}, "geometry": {"type": "Point", "coordinates": [15.514, 60.423]}}, {"type": "Feature", "properties": {"id": "LIPB", "site": "Bolzano/Dolomiti Arp", "prior": "4", "obsTime": "2018-09-17T20:50:00Z", "temp": 23.0, "dewp": 16.0, "wspd": 3, "wdir": 0, "cover": "SCT", "visib": 6.21, "fltcat": "VFR", "altim": 1020.0, "rawOb": "LIPB 172050Z VRB03KT 9999 SCT075 23/16 Q1020"}, "geometry": {"type": "Point", "coordinates": [11.327, 46.46]}}, {"type": "Feature", "properties": {"id": "LIPE", "site": "Bologna/Marconi Arpt", "prior": "5", "obsTime": "2018-09-17T20:50:00Z", "temp": 21.0, "dewp": 20.0, "wspd": 1, "wdir": 0, "cover": "FEW", "visib": 6.21, "fltcat": "VFR", "altim": 1019.0, "rawOb": "LIPE 172050Z VRB01KT 9999 FEW080 21/20 Q1019"}, "geometry": {"type": "Point", "coordinates": [11.293, 44.534]}}, {"type": "Feature", "properties": {"id": "ENBO", "site": "Bodo Arpt", "prior": "1", "obsTime": "2018-09-17T20:50:00Z", "temp": 9.0, "dewp": 7.0, "wspd": 11, "wdir": 160, "ceil": 40, "cover": "BKN", "visib": 6.21, "fltcat": "VFR", "altim": 1000.0, "wx": "-SHRA", "rawOb": "ENBO 172050Z 16011KT 9999 -SHRA SCT015CB SCT030 BKN040 09/07 Q1000 TEMPO 23015G25KT SHRA BKN014CB"}, "geometry": {"type": "Point", "coordinates": [14.36, 67.269]}}, {"type": "Feature", "properties": {"id": "EGNH", "site": "Blackpool Arpt", "prior": "4", "obsTime": "2018-09-17T19:50:00Z", "temp": 18.0, "dewp": 15.0, "wspd": 15, "wdir": 150, "cover": "FEW", "visib": 6.21, "fltcat": "VFR", "altim": 1004.0, "rawOb": "EGNH 171950Z 15015KT 9999 FEW035 18/15 Q1004"}, "geometry": {"type": "Point", "coordinates": [-3.031, 53.772]}}, {"type": "Feature", "properties": {"id": "EGBB", "site": "Birmingham Intl", "prior": "3", "obsTime": "2018-09-17T20:50:00Z", "temp": 17.0, "dewp": 10.0, "wspd": 9, "wdir": 170, "cover": "CAVOK", "visib": 6.21, "fltcat": "VFR", "altim": 1007.0, "rawOb": "EGBB 172050Z 17009KT CAVOK 17/10 Q1007"}, "geometry": {"type": "Point", "coordinates": [-1.748, 52.453]}}, {"type": "Feature", "properties": {"id": "ENBR", "site": "Bergen/Flesland Arpt", "prior": "2", "obsTime": "2018-09-17T20:50:00Z", "temp": 13.0, "dewp": 11.0, "wspd": 12, "wdir": 150, "ceil": 38, "cover": "BKN", "visib": 6.21, "fltcat": "VFR", "altim": 1006.0, "rawOb": "ENBR 172050Z 15012KT 9999 FEW018 SCT023 BKN038 13/11 Q1006 RMK WIND 1200FT 15023KT"}, "geometry": {"type": "Point", "coordinates": [5.219, 60.291]}}, {"type": "Feature", "properties": {"id": "LIME", "site": "Bergamo/Orio Seno Ar", "prior": "5", "obsTime": "2018-09-17T20:50:00Z", "temp": 21.0, "dewp": 17.0, "wspd": 6, "wdir": 30, "cover": "SCT", "visib": 6.21, "fltcat": "VFR", "altim": 1021.0, "rawOb": "LIME 172050Z 03006KT 9999 SCT100 21/17 Q1021 NOSIG"}, "geometry": {"type": "Point", "coordinates": [9.704, 45.668]}}, {"type": "Feature", "properties": {"id": "EGUB", "site": "Benson(RAF)", "prior": "5", "obsTime": "2018-09-17T20:50:00Z", "temp": 17.0, "dewp": 10.0, "wspd": 9, "wdir": 150, "cover": "CAVOK", "visib": 6.21, "fltcat": "VFR", "altim": 1007.0, "rawOb": "EGUB 172050Z 15009KT CAVOK 17/10 Q1007 BLU NOSIG"}, "geometry": {"type": "Point", "coordinates": [-1.095, 51.617]}}, {"type": "Feature", "properties": {"id": "EGPL", "site": "Benbecula Isl Arpt", "prior": "4", "obsTime": "2018-09-17T20:50:00Z", "temp": 14.0, "dewp": 14.0, "wspd": 18, "wdir": 220, "ceil": 2, "cover": "OVC", "visib": 2.05, "fltcat": "LIFR", "altim": 991.0, "wx": "-DZ", "rawOb": "EGPL 172050Z AUTO 22018KT 3300 -DZ OVC002/// 14/14 Q0991"}, "geometry": {"type": "Point", "coordinates": [-7.363, 57.481]}}, {"type": "Feature", "properties": {"id": "EGAC", "site": "Belfast/Harbour Arpt", "prior": "6", "obsTime": "2018-09-17T20:50:00Z", "temp": 17.0, "dewp": 15.0, "wspd": 13, "wdir": 160, "ceil": 28, "cover": "BKN", "visib": 6.21, "fltcat": "MVFR", "altim": 998.0, "rawOb": "EGAC 172050Z AUTO 16013KT 9999 BKN028/// 17/15 Q0998"}, "geometry": {"type": "Point", "coordinates": [-5.875, 54.616]}}, {"type": "Feature", "properties": {"id": "EGAA", "site": "Belfast/Aldergrove A", "prior": "3", "obsTime": "2018-09-17T20:50:00Z", "temp": 17.0, "dewp": 14.0, "wspd": 10, "wdir": 170, "ceil": 21, "cover": "BKN", "visib": 6.21, "fltcat": "MVFR", "altim": 998.0, "rawOb": "EGAA 172050Z 17010KT 9999 BKN021 17/14 Q0998"}, "geometry": {"type": "Point", "coordinates": [-6.216, 54.657]}}, {"type": "Feature", "properties": {"id": "ENBS", "site": "Batsfjord Arpt", "prior": "4", "obsTime": "2018-09-17T20:50:00Z", "temp": 7.0, "dewp": 5.0, "wspd": 3, "wdir": 0, "cover": "SCT", "visib": 6.21, "fltcat": "VFR", "altim": 994.0, "rawOb": "ENBS 172050Z VRB03KT 9999 FEW026 SCT048 07/05 Q0994"}, "geometry": {"type": "Point", "coordinates": [29.695, 70.601]}}, {"type": "Feature", "properties": {"id": "LTCJ", "site": "Batman Arpt", "prior": "4", "obsTime": "2018-09-17T20:50:00Z", "temp": 21.0, "dewp": 7.0, "wspd": 5, "wdir": 190, "cover": "CAVOK", "visib": 6.21, "fltcat": "VFR", "altim": 1011.0, "rawOb": "LTCJ 172050Z 19005KT CAVOK 21/07 Q1011 RMK RWY20 00000KT"}, "geometry": {"type": "Point", "coordinates": [41.117, 37.929]}}, {"type": "Feature", "properties": {"id": "LIBD", "site": "Bari/Palese Arpt", "prior": "4", "obsTime": "2018-09-17T20:50:00Z", "temp": 21.0, "dewp": 14.0, "wspd": 4, "wdir": 240, "cover": "CAVOK", "visib": 6.21, "fltcat": "VFR", "altim": 1019.0, "rawOb": "LIBD 172050Z 24004KT CAVOK 21/14 Q1019"}, "geometry": {"type": "Point", "coordinates": [16.763, 41.139]}}, {"type": "Feature", "properties": {"id": "ENDU", "site": "Bardufoss Arpt", "prior": "4", "obsTime": "2018-09-17T20:50:00Z", "temp": 2.0, "dewp": 2.0, "wspd": 1, "wdir": 0, "ceil": 50, "cover": "BKN", "visib": 6.21, "fltcat": "VFR", "altim": 998.0, "wx": "-RA", "rawOb": "ENDU 172050Z VRB01KT 9999 -RA FEW040 BKN050 02/02 Q0998 RMK WIND 1100FT 18004KT WIND 2200FT 18004KT"}, "geometry": {"type": "Point", "coordinates": [18.538, 69.056]}}, {"type": "Feature", "properties": {"id": "ENNA", "site": "Banak Arpt", "prior": "3", "obsTime": "2018-09-17T20:50:00Z", "temp": 9.0, "dewp": 5.0, "wspd": 7, "wdir": 250, "ceil": 25, "cover": "BKN", "visib": 6.21, "fltcat": "MVFR", "altim": 997.0, "rawOb": "ENNA 172050Z 25007KT 210V310 9999 BKN025 09/05 Q0997 RMK WIND 1800FT 29024KT"}, "geometry": {"type": "Point", "coordinates": [24.975, 70.066]}}, {"type": "Feature", "properties": {"id": "LTBF", "site": "Balikesir Arpt", "prior": "4", "obsTime": "2018-09-17T20:50:00Z", "temp": 19.0, "dewp": 15.0, "wspd": 7, "wdir": 360, "cover": "CAVOK", "visib": 6.21, "fltcat": "VFR", "altim": 1020.0, "rawOb": "LTBF 172050Z 36007KT CAVOK 19/15 Q1020 NOSIG"}, "geometry": {"type": "Point", "coordinates": [27.926, 39.619]}}, {"type": "Feature", "properties": {"id": "LTBD", "site": "Aydin/Cildir Arpt", "prior": "4", "obsTime": "2018-09-17T20:50:00Z", "temp": 21.0, "dewp": 14.0, "wspd": 1, "wdir": 0, "cover": "CAVOK", "visib": 6.21, "fltcat": "VFR", "altim": 1013.0, "rawOb": "LTBD 172050Z VRB01KT CAVOK 21/14 Q1013"}, "geometry": {"type": "Point", "coordinates": [27.888, 37.816]}}, {"type": "Feature", "properties": {"id": "LGAV", "site": "Athens/Venizelos Int", "prior": "0", "obsTime": "2018-09-17T20:50:00Z", "temp": 24.0, "dewp": 15.0, "wspd": 9, "wdir": 350, "cover": "CAVOK", "visib": 6.21, "fltcat": "VFR", "altim": 1019.0, "rawOb": "LGAV 172050Z 35009KT CAVOK 24/15 Q1019 NOSIG"}, "geometry": {"type": "Point", "coordinates": [23.943, 37.937]}}, {"type": "Feature", "properties": {"id": "ESNX", "site": "Arvidsjaur Arpt", "prior": "3", "obsTime": "2018-09-17T20:50:00Z", "temp": 6.0, "dewp": 2.0, "wspd": 8, "wdir": 270, "cover": "CLR", "visib": 6.21, "fltcat": "VFR", "altim": 1002.0, "rawOb": "ESNX 172050Z AUTO 27008KT 9999 NCD 06/02 Q1002"}, "geometry": {"type": "Point", "coordinates": [19.274, 65.593]}}, {"type": "Feature", "properties": {"id": "LGRX", "site": "Araxos Arpt", "prior": "5", "obsTime": "2018-09-17T20:50:00Z", "temp": 24.0, "dewp": 14.0, "wspd": 5, "wdir": 70, "cover": "FEW", "visib": 6.21, "fltcat": "VFR", "altim": 1018.0, "rawOb": "LGRX 172050Z 07005KT 9999 FEW020 24/14 Q1018"}, "geometry": {"type": "Point", "coordinates": [21.426, 38.151]}}, {"type": "Feature", "properties": {"id": "LTAI", "site": "Antalya Arpt", "prior": "2", "obsTime": "2018-09-17T20:50:00Z", "temp": 27.0, "dewp": 8.0, "wspd": 8, "wdir": 310, "cover": "CAVOK", "visib": 6.21, "fltcat": "VFR", "altim": 1011.0, "rawOb": "LTAI 172050Z 31008KT CAVOK 27/08 Q1011 NOSIG RMK RWY18C 30006KT RWY36R 31007KT RWY18L 31009KT"}, "geometry": {"type": "Point", "coordinates": [30.801, 36.896]}}, {"type": "Feature", "properties": {"id": "ESTA", "site": "Angelholm Arpt", "prior": "6", "obsTime": "2018-09-17T20:50:00Z", "temp": 15.0, "dewp": 14.0, "wspd": 4, "wdir": 180, "cover": "CLR", "visib": 4.35, "fltcat": "MVFR", "altim": 1016.0, "rawOb": "ESTA 172050Z AUTO 18004KT 7000 NCD 15/14 Q1016"}, "geometry": {"type": "Point", "coordinates": [12.855, 56.291]}}, {"type": "Feature", "properties": {"id": "LGAD", "site": "Andravida Arpt", "prior": "3", "obsTime": "2018-09-17T20:50:00Z", "temp": 20.0, "dewp": 12.0, "wspd": 0, "wdir": 0, "cover": "FEW", "visib": 6.21, "fltcat": "VFR", "altim": 1018.0, "rawOb": "LGAD 172050Z 00000KT 9999 FEW025 20/12 Q1018"}, "geometry": {"type": "Point", "coordinates": [21.292, 37.921]}}, {"type": "Feature", "properties": {"id": "ENAN", "site": "Andenes Arpt", "prior": "4", "obsTime": "2018-09-17T20:50:00Z", "temp": 9.0, "dewp": 6.0, "wspd": 8, "wdir": 50, "ceil": 22, "cover": "BKN", "visib": 6.21, "fltcat": "MVFR", "altim": 998.0, "rawOb": "ENAN 172050Z 05008KT 9999 BKN022 09/06 Q0998"}, "geometry": {"type": "Point", "coordinates": [16.134, 69.299]}}, {"type": "Feature", "properties": {"id": "LTAP", "site": "Amasya Merzifon Arpt", "prior": "3", "obsTime": "2018-09-17T20:50:00Z", "temp": 17.0, "dewp": 13.0, "wspd": 11, "wdir": 40, "cover": "SCT", "visib": 6.21, "fltcat": "VFR", "altim": 1021.0, "rawOb": "LTAP 172050Z 04011KT 9999 SCT040 17/13 Q1021 NOSIG RMK RWY23 03012KT"}, "geometry": {"type": "Point", "coordinates": [35.517, 40.828]}}, {"type": "Feature", "properties": {"id": "ETHA", "site": "Altenstadt(AB)", "prior": "5", "obsTime": "2018-09-17T20:20:00Z", "temp": 16.0, "dewp": 14.0, "wspd": 1, "wdir": 0, "altim": 1020.0, "rawOb": "ETHA 172020Z AUTO VRB01KT //// // ////// 16/14 Q1020 ///"}, "geometry": {"type": "Point", "coordinates": [10.872, 47.836]}}, {"type": "Feature", "properties": {"id": "ENAT", "site": "Alta Arpt", "prior": "4", "obsTime": "2018-09-17T20:50:00Z", "temp": 8.0, "dewp": 3.0, "wspd": 4, "wdir": 210, "ceil": 33, "cover": "BKN", "visib": 6.21, "fltcat": "VFR", "altim": 997.0, "rawOb": "ENAT 172050Z 21004KT 160V270 9999 BKN033 08/03 Q0997 RMK WIND 700FT 25003KT"}, "geometry": {"type": "Point", "coordinates": [23.363, 69.978]}}, {"type": "Feature", "properties": {"id": "LSMA", "site": "Alpnach Arpt(MIL)", "prior": "6", "obsTime": "2018-09-17T20:50:00Z", "temp": 17.0, "dewp": 14.0, "wspd": 3, "wdir": 240, "cover": "CLR", "altim": 1019.0, "rawOb": "LSMA 172050Z AUTO 24003KT 9999NDV NCD 17/14 Q1019 RMK"}, "geometry": {"type": "Point", "coordinates": [8.284, 46.945]}}, {"type": "Feature", "properties": {"id": "LIEA", "site": "Alghero/Fertilia Arp", "prior": "3", "obsTime": "2018-09-17T20:50:00Z", "temp": 22.0, "dewp": 20.0, "wspd": 1, "wdir": 0, "cover": "CAVOK", "visib": 6.21, "fltcat": "VFR", "altim": 1018.0, "rawOb": "LIEA 172050Z VRB01KT CAVOK 22/20 Q1018"}, "geometry": {"type": "Point", "coordinates": [8.291, 40.632]}}, {"type": "Feature", "properties": {"id": "LEAB", "site": "Albacete Arpt", "prior": "3", "obsTime": "2018-09-17T21:00:00Z", "temp": 20.0, "dewp": 18.0, "wspd": 3, "wdir": 130, "cover": "FEW", "visib": 6.21, "fltcat": "VFR", "altim": 1019.0, "rawOb": "LEAB 172100Z 13003KT 100V160 9999 FEW045 20/18 Q1019 NOSIG"}, "geometry": {"type": "Point", "coordinates": [-1.864, 38.948]}}, {"type": "Feature", "properties": {"id": "LTCB", "site": "Agri", "prior": "7", "obsTime": "2018-09-17T20:50:00Z", "temp": 20.0, "dewp": 18.0, "wspd": 5, "wdir": 260, "ceil": 10, "cover": "BKN", "visib": 5.59, "fltcat": "MVFR", "altim": 1020.0, "wx": "-TSRA", "rawOb": "LTCB 172050Z 26005KT 230V310 9000 -TSRA BKN010 FEW020CB BKN030 20/18 Q1020 RETS"}, "geometry": {"type": "Point", "coordinates": [43.052, 39.725]}}, {"type": "Feature", "properties": {"id": "LTAF", "site": "Adana Arpt", "prior": "6", "obsTime": "2018-09-17T20:50:00Z", "temp": 23.0, "dewp": 15.0, "wspd": 7, "wdir": 40, "cover": "CAVOK", "visib": 6.21, "fltcat": "VFR", "altim": 1008.0, "rawOb": "LTAF 172050Z 04007KT CAVOK 23/15 Q1008 NOSIG RMK RWY23 06006KT"}, "geometry": {"type": "Point", "coordinates": [35.281, 36.983]}}, {"type": "Feature", "properties": {"id": "EGPD", "site": "Aberdeen Arpt", "prior": "3", "obsTime": "2018-09-17T20:50:00Z", "temp": 16.0, "dewp": 13.0, "wspd": 23, "wdir": 190, "cover": "SCT", "visib": 6.21, "fltcat": "VFR", "altim": 998.0, "rawOb": "EGPD 172050Z 19023KT 9999 FEW010 SCT036 16/13 Q0998"}, "geometry": {"type": "Point", "coordinates": [-2.199, 57.203]}}]}