{"type": "FeatureCollection", "features": [{"type": "Feature", "properties": {"id": "KJFK", "site": "New York/Kennedy Int", "prior": "0", "obsTime": "2018-09-20T19:51:00Z", "temp": 21.1, "dewp": 16.7, "wspd": 6, "wdir": 150, "ceil": 37, "cover": "BKN", "visib": 10.0, "fltcat": "VFR", "altim": 1023.5, "slp": 1023.4, "rawOb": "KJFK 201951Z 15006KT 10SM BKN037 BKN055 BKN250 21/17 A3022 RMK AO2 SLP234 T02110167 $"}, "geometry": {"type": "Point", "coordinates": [-73.785, 40.644]}}, {"type": "Feature", "properties": {"id": "TJSJ", "site": "San Juan/Marin Intl", "prior": "0", "obsTime": "2018-09-20T19:56:00Z", "temp": 31.7, "dewp": 23.3, "wspd": 15, "wgst": 21, "wdir": 90, "cover": "SCT", "visib": 5.0, "fltcat": "MVFR", "altim": 1014.6, "slp": 1014.5, "wx": "HZ", "rawOb": "TJSJ 201956Z 09015G21KT 5SM HZ SCT039 32/23 A2996 RMK AO2 SLP145 T03170233"}, "geometry": {"type": "Point", "coordinates": [-66.004, 18.438]}}, {"type": "Feature", "properties": {"id": "MROC", "site": "San Jose/Santamaria", "prior": "0", "obsTime": "2018-09-20T20:00:00Z", "temp": 24.0, "dewp": 21.0, "wspd": 9, "wdir": 230, "ceil": 140, "cover": "OVC", "visib": 6.21, "fltcat": "VFR", "altim": 1012.3, "rawOb": "MROC 202000Z 23009KT 9999 SCT020 OVC140 24/21 A2989 NOSIG"}, "geometry": {"type": "Point", "coordinates": [-84.207, 9.994]}}, {"type": "Feature", "properties": {"id": "KMIA", "site": "Miami Intl", "prior": "0", "obsTime": "2018-09-20T19:53:00Z", "temp": 29.4, "dewp": 23.3, "wspd": 3, "wdir": 0, "ceil": 40, "cover": "BKN", "visib": 10.0, "fltcat": "VFR", "altim": 1015.7, "slp": 1015.7, "wx": "TS", "rawOb": "KMIA 201953Z VRB03KT 10SM TS FEW025CB BKN040 BKN070 BKN250 29/23 A2999 RMK AO2 LTG DSNT S TSE29B31 SLP157 OCNL LTGICCG SW-NW TS SW-NW MOV SW CB DSNT NW T02940233"}, "geometry": {"type": "Point", "coordinates": [-80.283, 25.795]}}, {"type": "Feature", "properties": {"id": "KLAX", "site": "Los Angeles Intl", "prior": "0", "obsTime": "2018-09-20T19:53:00Z", "temp": 23.9, "dewp": 16.7, "wspd": 9, "wdir": 250, "cover": "FEW", "visib": 8.0, "fltcat": "VFR", "altim": 1010.9, "slp": 1010.8, "rawOb": "KLAX 201953Z 25009KT 8SM FEW018 FEW040 24/17 A2985 RMK AO2 SLP108 T02390167"}, "geometry": {"type": "Point", "coordinates": [-118.413, 33.943]}}, {"type": "Feature", "properties": {"id": "KDEN", "site": "Denver Intl", "prior": "0", "obsTime": "2018-09-20T19:53:00Z", "temp": 27.2, "dewp": 3.9, "wspd": 9, "wgst": 25, "wdir": 350, "cover": "SCT", "visib": 10.0, "fltcat": "VFR", "altim": 1012.6, "slp": 1004.6, "rawOb": "KDEN 201953Z 35009G25KT 10SM FEW070 SCT120 SCT220 27/04 A2990 RMK AO2 SLP046 T02720039"}, "geometry": {"type": "Point", "coordinates": [-104.674, 39.861]}}, {"type": "Feature", "properties": {"id": "KDFW", "site": "Dallas-Ft Worth Intl", "prior": "0", "obsTime": "2018-09-20T19:53:00Z", "temp": 31.7, "dewp": 21.7, "wspd": 12, "wdir": 160, "ceil": 250, "cover": "BKN", "visib": 10.0, "fltcat": "VFR", "altim": 1012.6, "slp": 1011.5, "rawOb": "KDFW 201953Z 16012KT 10SM FEW040 SCT180 BKN250 32/22 A2990 RMK AO2 SLP115 T03170217"}, "geometry": {"type": "Point", "coordinates": [-97.04, 32.9]}}, {"type": "Feature", "properties": {"id": "KATL", "site": "Atlanta/Hartsfield-J", "prior": "0", "obsTime": "2018-09-20T19:52:00Z", "temp": 32.8, "dewp": 17.8, "wspd": 6, "wdir": 90, "cover": "SCT", "visib": 10.0, "fltcat": "VFR", "altim": 1018.7, "slp": 1017.5, "rawOb": "KATL 201952Z 09006KT 10SM SCT065 33/18 A3008 RMK AO2 SLP175 MDT CU N S W T03280178"}, "geometry": {"type": "Point", "coordinates": [-84.423, 33.641]}}, {"type": "Feature", "properties": {"id": "CYWG", "site": "Winnipeg Intl Arpt", "prior": "0", "obsTime": "2018-09-20T19:00:00Z", "temp": 11.0, "dewp": 3.0, "wspd": 15, "wdir": 50, "ceil": 170, "cover": "OVC", "visib": 15.0, "fltcat": "VFR", "altim": 1017.7, "slp": 1018.6, "rawOb": "CYWG 201900Z 05015KT 15SM FEW030 FEW120 OVC170 11/03 A3005 RMK SC1AC1AS7 SC TR SLP186"}, "geometry": {"type": "Point", "coordinates": [-97.235, 49.906]}}, {"type": "Feature", "properties": {"id": "CYHZ", "site": "Halifax/Stanfield In", "prior": "0", "obsTime": "2018-09-20T19:00:00Z", "temp": 13.0, "dewp": 8.0, "wspd": 8, "wdir": 360, "ceil": 55, "cover": "OVC", "visib": 15.0, "fltcat": "VFR", "altim": 1023.5, "slp": 1023.8, "rawOb": "CYHZ 201900Z 36008KT 15SM OVC055 13/08 A3022 RMK SC8 SLP238"}, "geometry": {"type": "Point", "coordinates": [-63.508, 44.887]}}, {"type": "Feature", "properties": {"id": "KORD", "site": "Chicago/O'Hare Intl", "prior": "0", "obsTime": "2018-09-20T19:51:00Z", "temp": 32.8, "dewp": 21.7, "wspd": 9, "wdir": 190, "cover": "SCT", "visib": 8.0, "fltcat": "VFR", "altim": 1011.3, "slp": 1010.5, "rawOb": "KORD 201951Z 19009KT 8SM SCT042 SCT250 33/22 A2986 RMK AO2 SLP105 T03280217"}, "geometry": {"type": "Point", "coordinates": [-87.906, 41.977]}}, {"type": "Feature", "properties": {"id": "TXKF", "site": "Bermuda/Wade Intl", "prior": "0", "obsTime": "2018-09-20T19:55:00Z", "temp": 27.0, "dewp": 25.0, "wspd": 26, "wdir": 240, "ceil": 11, "cover": "OVC", "visib": 6.21, "fltcat": "MVFR", "altim": 1008.0, "wx": "VCSH", "rawOb": "TXKF 201955Z 24026KT 9999 VCSH BKN011CB BKN048 BKN130 OVC300 27/25 Q1008 RMK CB DSNT SE"}, "geometry": {"type": "Point", "coordinates": [-64.681, 32.365]}}, {"type": "Feature", "properties": {"id": "CYPR", "site": "Prince Rupert Arpt", "prior": "0", "obsTime": "2018-09-20T19:00:00Z", "temp": 14.0, "dewp": 9.0, "wspd": 3, "wdir": 270, "cover": "CLR", "visib": 9.0, "fltcat": "VFR", "altim": 1017.4, "slp": 1017.6, "rawOb": "CYPR 201900Z AUTO 27003KT 240V300 9SM CLR 14/09 A3004 RMK SLP176"}, "geometry": {"type": "Point", "coordinates": [-130.446, 54.288]}}, {"type": "Feature", "properties": {"id": "KSEA", "site": "Seattle-Tacoma Intl", "prior": "0", "obsTime": "2018-09-20T19:53:00Z", "temp": 16.1, "dewp": 9.4, "wspd": 5, "wdir": 0, "ceil": 95, "cover": "BKN", "visib": 10.0, "fltcat": "VFR", "altim": 1020.7, "slp": 1021.2, "rawOb": "KSEA 201953Z VRB05KT 10SM SCT023 BKN095 16/09 A3014 RMK AO2 SLP212 T01610094"}, "geometry": {"type": "Point", "coordinates": [-122.31, 47.45]}}, {"type": "Feature", "properties": {"id": "CYGW", "site": "Kuujjuarapik Arpt", "prior": "0", "obsTime": "2018-09-20T19:00:00Z", "temp": 5.0, "dewp": -2.0, "wspd": 15, "wgst": 21, "wdir": 310, "ceil": 43, "cover": "OVC", "visib": 9.0, "fltcat": "VFR", "altim": 1023.8, "slp": 1023.8, "rawOb": "CYGW 201900Z AUTO 31015G21KT 9SM SCT034 BKN043 OVC050 05/M02 A3023 RMK SLP238"}, "geometry": {"type": "Point", "coordinates": [-77.764, 55.282]}}, {"type": "Feature", "properties": {"id": "SVMI", "site": "Caracas/Bolivar Intl", "prior": "0", "obsTime": "2018-09-20T19:00:00Z", "temp": 32.0, "dewp": 20.0, "cover": "SCT", "visib": 6.21, "fltcat": "VFR", "altim": 1013.0, "rawOb": "SVMI 201900Z /////KT 9999 SCT016 32/20 Q1013"}, "geometry": {"type": "Point", "coordinates": [-67.001, 10.603]}}, {"type": "Feature", "properties": {"id": "MMMD", "site": "Merida Intl", "prior": "0", "obsTime": "2018-09-20T19:44:00Z", "temp": 33.0, "dewp": 22.0, "wspd": 6, "wdir": 120, "ceil": 300, "cover": "BKN", "visib": 7.0, "fltcat": "VFR", "altim": 1010.2, "rawOb": "MMMD 201944Z 12006KT 7SM SCT020TCU BKN300 33/22 A2983 RMK 8/208 CB E"}, "geometry": {"type": "Point", "coordinates": [-89.658, 20.934]}}, {"type": "Feature", "properties": {"id": "MWCR", "site": "Grand Cayman/Roberts", "prior": "0", "obsTime": "2018-09-20T20:00:00Z", "temp": 32.0, "dewp": 28.0, "wspd": 12, "wdir": 50, "cover": "FEW", "visib": 6.21, "fltcat": "VFR", "altim": 1012.0, "rawOb": "MWCR 202000Z 05012KT 9999 FEW022 32/28 Q1012"}, "geometry": {"type": "Point", "coordinates": [-81.357, 19.292]}}, {"type": "Feature", "properties": {"id": "MMMX", "site": "Mexico City Intl", "prior": "0", "obsTime": "2018-09-20T19:47:00Z", "temp": 24.0, "dewp": 10.0, "wspd": 5, "wdir": 340, "cover": "SCT", "visib": 7.0, "fltcat": "VFR", "altim": 1024.8, "rawOb": "MMMX 201947Z 34005KT 7SM SCT020 SCT230 24/10 A3026 NOSIG RMK 8/202 HZY"}, "geometry": {"type": "Point", "coordinates": [-99.073, 19.435]}}, {"type": "Feature", "properties": {"id": "MMCU", "site": "Chihuahua/Villalobos", "prior": "0", "obsTime": "2018-09-20T19:44:00Z", "temp": 26.0, "dewp": 16.0, "wspd": 18, "wdir": 180, "ceil": 25, "cover": "BKN", "visib": 10.0, "fltcat": "MVFR", "altim": 1015.3, "rawOb": "MMCU 201944Z 18018KT 10SM BKN025TCU BKN100 26/16 A2998 RMK 8/270"}, "geometry": {"type": "Point", "coordinates": [-105.964, 28.702]}}, {"type": "Feature", "properties": {"id": "TFFR", "site": "Guadeloupe/Pitre Int", "prior": "1", "obsTime": "2018-09-20T20:00:00Z", "temp": 30.0, "dewp": 23.0, "wspd": 11, "wdir": 80, "ceil": 33, "cover": "BKN", "visib": 6.21, "fltcat": "VFR", "altim": 1014.0, "rawOb": "TFFR 202000Z AUTO 08011KT 9999 BKN033 BKN042 30/23 Q1014 NOSIG"}, "geometry": {"type": "Point", "coordinates": [-61.533, 16.265]}}, {"type": "Feature", "properties": {"id": "KCHS", "site": "Charleston Intl", "prior": "1", "obsTime": "2018-09-20T19:56:00Z", "temp": 31.1, "dewp": 22.2, "wspd": 8, "wdir": 80, "cover": "SCT", "visib": 10.0, "fltcat": "VFR", "altim": 1018.7, "slp": 1018.5, "rawOb": "KCHS 201956Z 08008KT 10SM SCT040 SCT070 31/22 A3008 RMK AO2 SLP185 T03110222"}, "geometry": {"type": "Point", "coordinates": [-80.039, 32.897]}}, {"type": "Feature", "properties": {"id": "KGEG", "site": "Spokane Intl", "prior": "1", "obsTime": "2018-09-20T19:53:00Z", "temp": 16.7, "dewp": 2.8, "wspd": 14, "wdir": 200, "cover": "SCT", "visib": 10.0, "fltcat": "VFR", "altim": 1018.4, "slp": 1017.7, "rawOb": "KGEG 201953Z 20014KT 10SM SCT050 SCT080 SCT200 17/03 A3007 RMK AO2 SLP177 T01670028"}, "geometry": {"type": "Point", "coordinates": [-117.533, 47.622]}}, {"type": "Feature", "properties": {"id": "KHON", "site": "Huron Rgnl", "prior": "1", "obsTime": "2018-09-20T19:55:00Z", "temp": 18.3, "dewp": 16.7, "wspd": 4, "wdir": 190, "ceil": 17, "cover": "OVC", "visib": 10.0, "fltcat": "MVFR", "altim": 1003.5, "slp": 1003.1, "wx": "-RA", "rawOb": "KHON 201955Z AUTO 19004KT 10SM -RA OVC017 18/17 A2963 RMK AO2 SLP031 P0002 T01830167"}, "geometry": {"type": "Point", "coordinates": [-98.226, 44.384]}}, {"type": "Feature", "properties": {"id": "KGSO", "site": "Greensboro Intl", "prior": "1", "obsTime": "2018-09-20T19:54:00Z", "temp": 31.1, "dewp": 20.0, "wspd": 5, "wdir": 200, "cover": "SCT", "visib": 10.0, "fltcat": "VFR", "altim": 1020.4, "slp": 1018.9, "rawOb": "KGSO 201954Z 20005KT 10SM SCT050 31/20 A3013 RMK AO2 SLP189 T03110200"}, "geometry": {"type": "Point", "coordinates": [-79.943, 36.101]}}, {"type": "Feature", "properties": {"id": "KCAR", "site": "Caribou Muni", "prior": "1", "obsTime": "2018-09-20T19:54:00Z", "temp": 13.3, "dewp": 7.2, "wspd": 3, "wdir": 140, "ceil": 37, "cover": "OVC", "visib": 10.0, "fltcat": "VFR", "altim": 1024.1, "slp": 1024.7, "rawOb": "KCAR 201954Z AUTO 14003KT 10SM SCT024 BKN037 OVC060 13/07 A3024 RMK AO2 SLP247 T01330072"}, "geometry": {"type": "Point", "coordinates": [-68.016, 46.87]}}, {"type": "Feature", "properties": {"id": "KBUF", "site": "Buffalo-Niagara Intl", "prior": "1", "obsTime": "2018-09-20T19:54:00Z", "temp": 21.1, "dewp": 16.7, "wspd": 8, "wdir": 60, "ceil": 130, "cover": "OVC", "visib": 10.0, "fltcat": "VFR", "altim": 1019.4, "slp": 1019.3, "rawOb": "KBUF 201954Z 06008KT 10SM FEW022 FEW090 OVC130 21/17 A3010 RMK AO2 SLP193 VIRGA DSNT N-E AND SW-W T02110167"}, "geometry": {"type": "Point", "coordinates": [-78.73, 42.94]}}, {"type": "Feature", "properties": {"id": "MUCU", "site": "Santiago de Cuba Arp", "prior": "1", "obsTime": "2018-09-20T19:51:00Z", "temp": 31.0, "dewp": 23.0, "wspd": 7, "wdir": 160, "cover": "SCT", "visib": 5.59, "fltcat": "VFR", "altim": 1014.0, "wx": "VCSH", "rawOb": "MUCU 201951Z 16007KT 110V190 9000 VCSH SCT020CB 31/23 Q1014"}, "geometry": {"type": "Point", "coordinates": [-75.835, 19.97]}}, {"type": "Feature", "properties": {"id": "KSLC", "site": "Salt Lake City Intl", "prior": "1", "obsTime": "2018-09-20T19:54:00Z", "temp": 21.7, "dewp": -2.2, "wspd": 8, "wgst": 17, "wdir": 290, "cover": "FEW", "visib": 10.0, "fltcat": "VFR", "altim": 1019.7, "slp": 1015.5, "rawOb": "KSLC 201954Z 29008G17KT 10SM FEW011 22/M02 A3011 RMK AO2 SLP155 FU FEW011 FU S T02171022"}, "geometry": {"type": "Point", "coordinates": [-111.985, 40.787]}}, {"type": "Feature", "properties": {"id": "MUHA", "site": "Havana/Marti Intl", "prior": "1", "obsTime": "2018-09-20T19:55:00Z", "temp": 32.0, "dewp": 22.0, "wspd": 13, "wdir": 40, "cover": "SCT", "visib": 5.59, "fltcat": "VFR", "altim": 1015.0, "rawOb": "MUHA 201955Z 04013KT 9000 SCT030 32/22 Q1015"}, "geometry": {"type": "Point", "coordinates": [-82.407, 22.99]}}, {"type": "Feature", "properties": {"id": "KDSM", "site": "Des Moines Intl", "prior": "1", "obsTime": "2018-09-20T19:54:00Z", "temp": 32.2, "dewp": 20.6, "wspd": 23, "wgst": 31, "wdir": 190, "cover": "FEW", "visib": 10.0, "fltcat": "VFR", "altim": 1006.2, "slp": 1005.0, "rawOb": "KDSM 201954Z 19023G31KT 10SM FEW050 FEW200 32/21 A2971 RMK AO2 PK WND 20032/1941 SLP050 T03220206"}, "geometry": {"type": "Point", "coordinates": [-93.657, 41.534]}}, {"type": "Feature", "properties": {"id": "KMAF", "site": "Midland Intl", "prior": "1", "obsTime": "2018-09-20T19:53:00Z", "temp": 28.3, "dewp": 17.8, "wspd": 14, "wdir": 210, "ceil": 95, "cover": "BKN", "visib": 10.0, "fltcat": "VFR", "altim": 1012.6, "slp": 1008.0, "rawOb": "KMAF 201953Z 21014KT 10SM FEW075 BKN095 28/18 A2990 RMK AO2 SLP080 T02830178"}, "geometry": {"type": "Point", "coordinates": [-102.204, 31.942]}}, {"type": "Feature", "properties": {"id": "KOKC", "site": "Oklahoma City/Will R", "prior": "1", "obsTime": "2018-09-20T19:52:00Z", "temp": 30.6, "dewp": 19.4, "wspd": 15, "wgst": 21, "wdir": 190, "cover": "SCT", "visib": 10.0, "fltcat": "VFR", "altim": 1012.3, "slp": 1010.4, "rawOb": "KOKC 201952Z 19015G21KT 10SM SCT047 31/19 A2989 RMK AO2 SLP104 T03060194"}, "geometry": {"type": "Point", "coordinates": [-97.596, 35.395]}}, {"type": "Feature", "properties": {"id": "KBNA", "site": "Nashville Intl", "prior": "1", "obsTime": "2018-09-20T19:53:00Z", "temp": 34.4, "dewp": 16.1, "wspd": 6, "wdir": 130, "cover": "SCT", "visib": 10.0, "fltcat": "VFR", "altim": 1017.0, "slp": 1015.9, "rawOb": "KBNA 201953Z 13006KT 10SM SCT075 34/16 A3003 RMK AO2 SLP159 T03440161"}, "geometry": {"type": "Point", "coordinates": [-86.677, 36.123]}}, {"type": "Feature", "properties": {"id": "KLCH", "site": "Lake Charles Rgnl", "prior": "1", "obsTime": "2018-09-20T19:53:00Z", "temp": 31.7, "dewp": 24.4, "wspd": 3, "wdir": 80, "ceil": 65, "cover": "BKN", "visib": 10.0, "fltcat": "VFR", "altim": 1014.3, "slp": 1015.1, "rawOb": "KLCH 201953Z 08003KT 10SM SCT040 BKN065 BKN085 32/24 A2995 RMK AO2 LTG DSNT NW-E SLP151 T03170244"}, "geometry": {"type": "Point", "coordinates": [-93.225, 30.123]}}, {"type": "Feature", "properties": {"id": "MDSD", "site": "La Caleta/Americas I", "prior": "1", "obsTime": "2018-09-20T20:00:00Z", "temp": 28.0, "dewp": 25.0, "wspd": 6, "wdir": 120, "ceil": 300, "cover": "BKN", "visib": 6.21, "fltcat": "VFR", "altim": 1013.0, "rawOb": "MDSD 202000Z 12006KT 9999 FEW018CB SCT020 BKN300 28/25 Q1013 CB/W/NW"}, "geometry": {"type": "Point", "coordinates": [-69.669, 18.429]}}, {"type": "Feature", "properties": {"id": "KMCI", "site": "Kansas City Intl", "prior": "1", "obsTime": "2018-09-20T19:53:00Z", "temp": 32.8, "dewp": 18.9, "wspd": 19, "wgst": 29, "wdir": 190, "cover": "FEW", "visib": 10.0, "fltcat": "VFR", "altim": 1009.6, "slp": 1008.0, "rawOb": "KMCI 201953Z 19019G29KT 10SM FEW060 FEW150 33/19 A2981 RMK AO2 PK WND 20036/1908 SLP080 T03280189"}, "geometry": {"type": "Point", "coordinates": [-94.717, 39.296]}}, {"type": "Feature", "properties": {"id": "KDTW", "site": "Detroit Metro/Wayne", "prior": "1", "obsTime": "2018-09-20T19:53:00Z", "temp": 25.6, "dewp": 19.4, "wspd": 5, "wdir": 140, "ceil": 15, "cover": "BKN", "visib": 9.0, "fltcat": "MVFR", "altim": 1016.7, "slp": 1016.3, "rawOb": "KDTW 201953Z 14005KT 9SM BKN015 BKN100 26/19 A3002 RMK AO2 SLP163 T02560194"}, "geometry": {"type": "Point", "coordinates": [-83.355, 42.215]}}, {"type": "Feature", "properties": {"id": "KMOB", "site": "Mobile Rgnl", "prior": "1", "obsTime": "2018-09-20T19:56:00Z", "temp": 31.7, "dewp": 23.9, "wspd": 4, "wdir": 260, "cover": "SCT", "visib": 10.0, "fltcat": "VFR", "altim": 1016.7, "slp": 1016.0, "rawOb": "KMOB 201956Z 26004KT 10SM FEW040 SCT120 32/24 A3002 RMK AO2 LTG DSNT NE AND E SLP160 CB DSNT ALQDS TCU DSNT SW T03170239"}, "geometry": {"type": "Point", "coordinates": [-88.243, 30.688]}}, {"type": "Feature", "properties": {"id": "KLIT", "site": "Little Rock/Clinton", "prior": "1", "obsTime": "2018-09-20T19:53:00Z", "temp": 32.8, "dewp": 22.2, "wspd": 8, "wdir": 140, "cover": "SCT", "visib": 10.0, "fltcat": "VFR", "altim": 1014.3, "slp": 1014.0, "rawOb": "KLIT 201953Z 14008KT 10SM SCT055 33/22 A2995 RMK AO2 SLP140 T03280222"}, "geometry": {"type": "Point", "coordinates": [-92.221, 34.729]}}, {"type": "Feature", "properties": {"id": "KJAX", "site": "Jacksonville Intl", "prior": "1", "obsTime": "2018-09-20T19:56:00Z", "temp": 31.7, "dewp": 22.2, "wspd": 13, "wdir": 80, "cover": "SCT", "visib": 10.0, "fltcat": "VFR", "altim": 1017.4, "slp": 1017.3, "rawOb": "KJAX 201956Z 08013KT 10SM SCT041 32/22 A3004 RMK AO2 SLP173 T03170222 $"}, "geometry": {"type": "Point", "coordinates": [-81.69, 30.49]}}, {"type": "Feature", "properties": {"id": "KINL", "site": "International Falls", "prior": "1", "obsTime": "2018-09-20T19:55:00Z", "temp": 13.3, "dewp": 10.0, "wspd": 8, "wdir": 80, "ceil": 26, "cover": "OVC", "visib": 10.0, "fltcat": "MVFR", "altim": 1015.0, "slp": 1015.6, "rawOb": "KINL 201955Z AUTO 08008KT 10SM OVC026 13/10 A2997 RMK AO2 SLP156 T01330100"}, "geometry": {"type": "Point", "coordinates": [-93.402, 48.566]}}, {"type": "Feature", "properties": {"id": "KDDC", "site": "Dodge City Arpt", "prior": "1", "obsTime": "2018-09-20T19:52:00Z", "temp": 32.2, "dewp": 15.0, "wspd": 21, "wgst": 32, "wdir": 190, "cover": "CLR", "visib": 9.0, "fltcat": "VFR", "altim": 1008.5, "slp": 1004.7, "rawOb": "KDDC 201952Z AUTO 19021G32KT 9SM CLR 32/15 A2978 RMK AO2 PK WND 18035/1906 SLP047 T03220150"}, "geometry": {"type": "Point", "coordinates": [-99.967, 37.763]}}, {"type": "Feature", "properties": {"id": "KABQ", "site": "Albuquerque Intl", "prior": "1", "obsTime": "2018-09-20T19:52:00Z", "temp": 21.7, "dewp": 12.2, "wspd": 3, "wdir": 0, "ceil": 200, "cover": "BKN", "visib": 10.0, "fltcat": "VFR", "altim": 1017.0, "slp": 1009.9, "rawOb": "KABQ 201952Z VRB03KT 10SM SCT035 BKN200 22/12 A3003 RMK AO2 SLP099 MTN TOPS OBSC NE AND SE T02170122"}, "geometry": {"type": "Point", "coordinates": [-106.607, 35.044]}}, {"type": "Feature", "properties": {"id": "KMSP", "site": "Minneapolis-St Paul", "prior": "1", "obsTime": "2018-09-20T20:01:00Z", "temp": 18.3, "dewp": 17.8, "wspd": 16, "wgst": 19, "wdir": 140, "ceil": 60, "cover": "OVC", "visib": 0.75, "fltcat": "LIFR", "altim": 1006.9, "wx": "VCTS +RA BR", "rawOb": "KMSP 202001Z 14016G19KT 3/4SM R30L/2600VP6000FT VCTS +RA BR FEW040 BKN060 OVC070CB 18/18 A2973 RMK AO2 VIS 1/4V5 LTG DSNT ALQDS VCTS SW-W MOV E P0014 T01830178"}, "geometry": {"type": "Point", "coordinates": [-93.215, 44.883]}}, {"type": "Feature", "properties": {"id": "KCVG", "site": "Cincinnati Intl", "prior": "1", "obsTime": "2018-09-20T19:52:00Z", "temp": 31.7, "dewp": 21.7, "wspd": 11, "wdir": 190, "cover": "FEW", "visib": 10.0, "fltcat": "VFR", "altim": 1017.4, "slp": 1015.9, "rawOb": "KCVG 201952Z 19011KT 10SM FEW047 32/22 A3004 RMK AO2 SLP159 T03170217"}, "geometry": {"type": "Point", "coordinates": [-84.666, 39.047]}}, {"type": "Feature", "properties": {"id": "KIAD", "site": "Washington/Dulles In", "prior": "1", "obsTime": "2018-09-20T19:52:00Z", "temp": 26.7, "dewp": 20.6, "wspd": 6, "wdir": 150, "ceil": 47, "cover": "BKN", "visib": 10.0, "fltcat": "VFR", "altim": 1021.1, "slp": 1020.7, "rawOb": "KIAD 201952Z 15006KT 10SM SCT033 BKN047 BKN080 27/21 A3015 RMK AO2 SLP207 T02670206"}, "geometry": {"type": "Point", "coordinates": [-77.448, 38.95]}}, {"type": "Feature", "properties": {"id": "CYOW", "site": "Ottawa/Cartier Intl", "prior": "1", "obsTime": "2018-09-20T19:00:00Z", "temp": 16.0, "dewp": 11.0, "wspd": 7, "wdir": 40, "ceil": 160, "cover": "BKN", "visib": 15.0, "fltcat": "VFR", "altim": 1023.8, "slp": 1024.2, "rawOb": "CYOW 201900Z 04007KT 020V090 15SM FEW025 BKN160 BKN220 16/11 A3023 RMK SC2AC3CI2 SLP242"}, "geometry": {"type": "Point", "coordinates": [-75.665, 45.316]}}, {"type": "Feature", "properties": {"id": "KLAS", "site": "Las Vegas/McCarran I", "prior": "1", "obsTime": "2018-09-20T19:56:00Z", "temp": 31.7, "dewp": 0.6, "wspd": 0, "wdir": 0, "cover": "FEW", "visib": 10.0, "fltcat": "VFR", "altim": 1013.0, "slp": 1010.3, "rawOb": "KLAS 201956Z 00000KT 10SM FEW120 32/01 A2991 RMK AO2 SLP103 T03170006"}, "geometry": {"type": "Point", "coordinates": [-115.157, 36.081]}}, {"type": "Feature", "properties": {"id": "CYQX", "site": "Gander Intl Arpt", "prior": "1", "obsTime": "2018-09-20T19:41:00Z", "temp": 7.0, "dewp": 1.0, "wspd": 10, "wgst": 16, "wdir": 360, "ceil": 30, "cover": "BKN", "visib": 20.0, "fltcat": "MVFR", "altim": 1023.5, "slp": 1024.1, "rawOb": "CYQX 201941Z 36010G16KT 20SM BKN030 07/01 A3022 RMK CU7 SLP241"}, "geometry": {"type": "Point", "coordinates": [-54.562, 48.947]}}, {"type": "Feature", "properties": {"id": "KBOI", "site": "Boise Arpt", "prior": "1", "obsTime": "2018-09-20T19:53:00Z", "temp": 19.4, "dewp": 1.1, "wspd": 11, "wdir": 280, "cover": "CLR", "visib": 10.0, "fltcat": "VFR", "altim": 1020.1, "slp": 1018.6, "rawOb": "KBOI 201953Z 28011KT 10SM CLR 19/01 A3012 RMK AO2 SLP186 T01940011"}, "geometry": {"type": "Point", "coordinates": [-116.223, 43.565]}}, {"type": "Feature", "properties": {"id": "KHLN", "site": "Helena Rgnl", "prior": "1", "obsTime": "2018-09-20T19:53:00Z", "temp": 16.7, "dewp": 3.3, "wspd": 13, "wdir": 250, "cover": "FEW", "visib": 10.0, "fltcat": "VFR", "altim": 1017.0, "slp": 1017.4, "rawOb": "KHLN 201953Z 25013KT 10SM FEW060 17/03 A3003 RMK AO2 SLP174 T01670033"}, "geometry": {"type": "Point", "coordinates": [-111.977, 46.605]}}, {"type": "Feature", "properties": {"id": "KSFO", "site": "San Francisco Intl", "prior": "1", "obsTime": "2018-09-20T19:56:00Z", "temp": 22.8, "dewp": 15.0, "wspd": 5, "wdir": 360, "cover": "CLR", "visib": 10.0, "fltcat": "VFR", "altim": 1011.3, "slp": 1011.0, "rawOb": "KSFO 201956Z 36005KT 10SM CLR 23/15 A2986 RMK AO2 SLP110 T02280150"}, "geometry": {"type": "Point", "coordinates": [-122.374, 37.619]}}, {"type": "Feature", "properties": {"id": "KGGW", "site": "Glasgow Intl Arpt", "prior": "1", "obsTime": "2018-09-20T19:53:00Z", "temp": 7.2, "dewp": 5.6, "wspd": 13, "wdir": 60, "ceil": 11, "cover": "OVC", "visib": 8.0, "fltcat": "MVFR", "altim": 1014.6, "slp": 1015.7, "wx": "-RA", "rawOb": "KGGW 201953Z AUTO 06013KT 8SM -RA BKN011 OVC019 07/06 A2996 RMK AO2 SLP157 P0002 T00720056"}, "geometry": {"type": "Point", "coordinates": [-106.621, 48.214]}}, {"type": "Feature", "properties": {"id": "KACV", "site": "Arcata Arpt", "prior": "1", "obsTime": "2018-09-20T19:53:00Z", "temp": 14.4, "dewp": 11.1, "wspd": 7, "wdir": 310, "cover": "SCT", "visib": 10.0, "fltcat": "VFR", "altim": 1015.7, "slp": 1016.2, "rawOb": "KACV 201953Z AUTO 31007KT 10SM SCT006 14/11 A2999 RMK AO2 SLP162 T01440111"}, "geometry": {"type": "Point", "coordinates": [-124.108, 40.978]}}, {"type": "Feature", "properties": {"id": "CYWK", "site": "Wabush Lake Arpt", "prior": "1", "obsTime": "2018-09-20T19:45:00Z", "temp": 8.0, "dewp": 3.0, "wspd": 16, "wdir": 230, "ceil": 25, "cover": "BKN", "visib": 15.0, "fltcat": "MVFR", "altim": 1018.4, "slp": 1020.3, "rawOb": "CYWK 201945Z 23016KT 15SM BKN025 BKN033 08/03 A3007 RMK SC5SC2 SLP203"}, "geometry": {"type": "Point", "coordinates": [-66.866, 52.924]}}, {"type": "Feature", "properties": {"id": "CYYC", "site": "Calgary Intl Arpt", "prior": "1", "obsTime": "2018-09-20T19:00:00Z", "temp": 8.0, "dewp": 5.0, "wspd": 9, "wdir": 10, "ceil": 12, "cover": "OVC", "visib": 5.0, "fltcat": "MVFR", "altim": 1018.0, "slp": 1020.8, "wx": "BR", "rawOb": "CYYC 201900Z 01009KT 5SM BR BKN012 OVC095 08/05 A3006 RMK SC7AC1 SLP208"}, "geometry": {"type": "Point", "coordinates": [-114.022, 51.119]}}, {"type": "Feature", "properties": {"id": "SKBQ", "site": "Barranquilla/Cortiss", "prior": "1", "obsTime": "2018-09-20T20:00:00Z", "temp": 31.0, "dewp": 27.0, "wspd": 10, "wdir": 360, "ceil": 200, "cover": "BKN", "visib": 6.21, "fltcat": "VFR", "altim": 1006.9, "rawOb": "SKBQ 202000Z 36010KT 9999 FEW015 BKN200 31/27 A2973"}, "geometry": {"type": "Point", "coordinates": [-74.781, 10.89]}}, {"type": "Feature", "properties": {"id": "KPWM", "site": "Portland Intl", "prior": "1", "obsTime": "2018-09-20T19:51:00Z", "temp": 15.6, "dewp": 12.2, "wspd": 4, "wdir": 140, "ceil": 47, "cover": "BKN", "visib": 10.0, "fltcat": "VFR", "altim": 1025.5, "slp": 1025.3, "rawOb": "KPWM 201951Z 14004KT 10SM SCT016 BKN047 16/12 A3028 RMK AO2 SLP253 T01560122"}, "geometry": {"type": "Point", "coordinates": [-70.306, 43.645]}}, {"type": "Feature", "properties": {"id": "KPHX", "site": "Phoenix/Sky Harbor", "prior": "1", "obsTime": "2018-09-20T19:51:00Z", "temp": 32.8, "dewp": 20.0, "wspd": 7, "wdir": 230, "cover": "FEW", "visib": 10.0, "fltcat": "VFR", "altim": 1009.6, "slp": 1007.5, "rawOb": "KPHX 201951Z 23007KT 10SM FEW050 33/20 A2981 RMK AO2 SLP075 T03280200"}, "geometry": {"type": "Point", "coordinates": [-112.01, 33.435]}}, {"type": "Feature", "properties": {"id": "KEKO", "site": "Elko Rgnl", "prior": "1", "obsTime": "2018-09-20T19:56:00Z", "temp": 20.6, "dewp": -5.0, "wspd": 4, "wdir": 250, "cover": "CLR", "visib": 10.0, "fltcat": "VFR", "altim": 1021.1, "slp": 1017.8, "rawOb": "KEKO 201956Z AUTO 25004KT 10SM CLR 21/M05 A3015 RMK AO2 SLP178 T02061050"}, "geometry": {"type": "Point", "coordinates": [-115.79, 40.824]}}, {"type": "Feature", "properties": {"id": "KBIS", "site": "Bismarck Arpt", "prior": "1", "obsTime": "2018-09-20T19:52:00Z", "temp": 8.9, "dewp": 8.3, "wspd": 18, "wgst": 25, "wdir": 60, "ceil": 55, "cover": "OVC", "visib": 10.0, "fltcat": "VFR", "altim": 1008.9, "slp": 1009.5, "wx": "-RA", "rawOb": "KBIS 201952Z 06018G25KT 10SM -RA SCT009 BKN055 OVC095 09/08 A2979 RMK AO2 PK WND 07031/1922 SLP095 P0003 T00890083"}, "geometry": {"type": "Point", "coordinates": [-100.75, 46.774]}}, {"type": "Feature", "properties": {"id": "CYXE", "site": "Saskatoon/Diefenbake", "prior": "1", "obsTime": "2018-09-20T19:00:00Z", "temp": 13.0, "dewp": 2.0, "wspd": 7, "wdir": 230, "ceil": 100, "cover": "BKN", "visib": 15.0, "fltcat": "VFR", "altim": 1018.7, "slp": 1020.0, "rawOb": "CYXE 201900Z 23007KT 140V240 15SM FEW040 BKN100 BKN260 13/02 A3008 RMK CU1AC4CI2 SLP200 DENSITY ALT 1700FT"}, "geometry": {"type": "Point", "coordinates": [-106.703, 52.175]}}, {"type": "Feature", "properties": {"id": "KSAT", "site": "San Antonio Intl", "prior": "1", "obsTime": "2018-09-20T19:51:00Z", "temp": 27.8, "dewp": 22.2, "wspd": 11, "wdir": 210, "ceil": 40, "cover": "OVC", "visib": 9.0, "fltcat": "VFR", "altim": 1013.0, "slp": 1010.8, "wx": "-RA", "rawOb": "KSAT 201951Z 21011KT 9SM -RA BKN040 BKN090 OVC250 28/22 A2991 RMK AO2 RAB44 SLP108 P0000 T02780222"}, "geometry": {"type": "Point", "coordinates": [-98.472, 29.534]}}, {"type": "Feature", "properties": {"id": "CYXS", "site": "Prince George Arpt", "prior": "1", "obsTime": "2018-09-20T19:00:00Z", "temp": 13.0, "dewp": 2.0, "wspd": 10, "wgst": 17, "wdir": 20, "ceil": 110, "cover": "BKN", "visib": 9.0, "fltcat": "VFR", "altim": 1018.0, "slp": 1019.8, "rawOb": "CYXS 201900Z AUTO 02010G17KT 9SM SCT065 BKN110 13/02 A3006 RMK SLP198 DENSITY ALT 2300FT"}, "geometry": {"type": "Point", "coordinates": [-122.675, 53.888]}}, {"type": "Feature", "properties": {"id": "KANJ", "site": "Sault Ste Marie Muni", "prior": "1", "obsTime": "2018-09-20T19:55:00Z", "temp": 15.0, "dewp": 13.9, "wspd": 4, "wdir": 90, "ceil": 8, "cover": "OVC", "visib": 10.0, "fltcat": "IFR", "altim": 1017.7, "slp": 1017.6, "wx": "-RA", "rawOb": "KANJ 201955Z AUTO 09004KT 10SM -RA OVC008 15/14 A3005 RMK AO2 CIG 005V010 SLP176 P0001 T01500139"}, "geometry": {"type": "Point", "coordinates": [-84.368, 46.48]}}, {"type": "Feature", "properties": {"id": "CYZT", "site": "Port Hardy Arpt", "prior": "1", "obsTime": "2018-09-20T19:00:00Z", "temp": 11.0, "dewp": 10.0, "wspd": 6, "wdir": 110, "ceil": 56, "cover": "OVC", "visib": 8.0, "fltcat": "VFR", "altim": 1017.7, "slp": 1017.8, "wx": "-RA", "rawOb": "CYZT 201900Z 11006KT 8SM -RA FEW010 OVC056 11/10 A3005 RMK SF2SC6 SLP178"}, "geometry": {"type": "Point", "coordinates": [-127.37, 50.682]}}, {"type": "Feature", "properties": {"id": "KCPR", "site": "Casper/Natrona Cnty", "prior": "1", "obsTime": "2018-09-20T19:53:00Z", "temp": 17.8, "dewp": 8.3, "wspd": 20, "wgst": 26, "wdir": 360, "ceil": 100, "cover": "OVC", "visib": 10.0, "fltcat": "VFR", "altim": 1014.0, "slp": 1009.0, "rawOb": "KCPR 201953Z 36020G26KT 10SM FEW037 OVC100 18/08 A2994 RMK AO2 PK WND 31032/1937 LTG DSNT NE SLP090 T01780083"}, "geometry": {"type": "Point", "coordinates": [-106.462, 42.903]}}, {"type": "Feature", "properties": {"id": "CYGP", "site": "Gaspe Arpt", "prior": "1", "obsTime": "2018-09-20T19:00:00Z", "temp": 12.0, "dewp": 5.0, "wspd": 6, "wdir": 90, "ceil": 70, "cover": "BKN", "visib": 15.0, "fltcat": "VFR", "altim": 1024.8, "slp": 1025.1, "rawOb": "CYGP 201900Z 09006KT 15SM FEW040 BKN070 12/05 A3026 RMK CU1AC5 SLP251"}, "geometry": {"type": "Point", "coordinates": [-64.481, 48.776]}}, {"type": "Feature", "properties": {"id": "KEUG", "site": "Eugene/Mahlon Sweet", "prior": "1", "obsTime": "2018-09-20T19:54:00Z", "temp": 21.1, "dewp": 6.7, "wspd": 6, "wdir": 10, "cover": "FEW", "visib": 10.0, "fltcat": "VFR", "altim": 1020.7, "slp": 1020.5, "rawOb": "KEUG 201954Z 01006KT 10SM FEW040 FEW250 21/07 A3014 RMK AO2 SLP205 T02110067"}, "geometry": {"type": "Point", "coordinates": [-123.213, 44.122]}}, {"type": "Feature", "properties": {"id": "KBRO", "site": "Brownsville Intl", "prior": "1", "obsTime": "2018-09-20T19:53:00Z", "temp": 34.4, "dewp": 25.0, "wspd": 14, "wgst": 24, "wdir": 150, "cover": "SCT", "visib": 10.0, "fltcat": "VFR", "altim": 1011.9, "slp": 1011.8, "rawOb": "KBRO 201953Z 15014G24KT 10SM SCT039 34/25 A2988 RMK AO2 SLP118 T03440250"}, "geometry": {"type": "Point", "coordinates": [-97.428, 25.908]}}, {"type": "Feature", "properties": {"id": "KSTL", "site": "St Louis/Lambert Int", "prior": "1", "obsTime": "2018-09-20T19:51:00Z", "temp": 34.4, "dewp": 21.1, "wspd": 12, "wgst": 17, "wdir": 200, "cover": "SCT", "visib": 10.0, "fltcat": "VFR", "altim": 1013.6, "slp": 1012.0, "rawOb": "KSTL 201951Z 20012G17KT 10SM FEW050 SCT100 34/21 A2993 RMK AO2 SLP120 T03440211"}, "geometry": {"type": "Point", "coordinates": [-90.361, 38.745]}}, {"type": "Feature", "properties": {"id": "CYTH", "site": "Thompson Arpt", "prior": "1", "obsTime": "2018-09-20T19:00:00Z", "temp": 8.0, "dewp": -3.0, "wspd": 6, "wdir": 290, "ceil": 160, "cover": "BKN", "visib": 15.0, "fltcat": "VFR", "altim": 1018.7, "slp": 1020.1, "rawOb": "CYTH 201900Z 29006KT 15SM FEW030 SCT090 BKN160 BKN210 08/M03 A3008 RMK SC2AC2AC1CI1 SLP201"}, "geometry": {"type": "Point", "coordinates": [-97.863, 55.8]}}, {"type": "Feature", "properties": {"id": "KLBF", "site": "N Platte/Lee Bird Fl", "prior": "1", "obsTime": "2018-09-20T19:53:00Z", "temp": 22.2, "dewp": 18.3, "wspd": 9, "wdir": 320, "cover": "FEW", "visib": 10.0, "fltcat": "VFR", "altim": 1008.2, "slp": 1005.7, "rawOb": "KLBF 201953Z AUTO 32009KT 10SM FEW017 22/18 A2977 RMK AO2 SLP057 T02220183"}, "geometry": {"type": "Point", "coordinates": [-100.692, 41.131]}}, {"type": "Feature", "properties": {"id": "CWNZ", "site": "Nagagami(MARS)", "prior": "1", "obsTime": "2018-09-20T19:00:00Z", "temp": 12.8, "dewp": 7.0, "wspd": 5, "wdir": 90, "slp": 1022.9, "rawOb": "CWNZ 201900Z AUTO 09005KT 13/07 RMK AO1 SLP229 T01280070 58016"}, "geometry": {"type": "Point", "coordinates": [-84.164, 49.747]}}, {"type": "Feature", "properties": {"id": "CYZH", "site": "Slave Lake Arpt", "prior": "1", "obsTime": "2018-09-20T19:00:00Z", "temp": 6.0, "dewp": -3.0, "wspd": 4, "wdir": 170, "ceil": 130, "cover": "BKN", "visib": 9.0, "fltcat": "VFR", "altim": 1024.1, "slp": 1026.6, "rawOb": "CYZH 201900Z AUTO 17004KT 140V210 9SM BKN130 06/M03 A3024 RMK SLP266"}, "geometry": {"type": "Point", "coordinates": [-114.777, 55.293]}}, {"type": "Feature", "properties": {"id": "CYER", "site": "Ft Severn Arpt", "prior": "1", "obsTime": "2018-09-20T19:26:00Z", "temp": 5.0, "dewp": 4.0, "wspd": 11, "wgst": 17, "wdir": 240, "visib": 9.0, "altim": 1019.4, "slp": 1019.6, "rawOb": "CYER 201926Z AUTO 24011G17KT 9SM 05/04 A3010 RMK CLD MISG SLP196"}, "geometry": {"type": "Point", "coordinates": [-87.676, 56.019]}}, {"type": "Feature", "properties": {"id": "MSLP", "site": "El Salvador Intl", "prior": "1", "obsTime": "2018-09-20T19:50:00Z", "temp": 26.0, "dewp": 21.0, "wspd": 7, "wdir": 340, "ceil": 68, "cover": "BKN", "visib": 6.21, "fltcat": "VFR", "altim": 1008.0, "wx": "-TSRA", "rawOb": "MSLP 201950Z 34007KT 310V050 9999 -TSRA FEW034 SCT037CB BKN068 26/21 Q1008 A2977 WS RWY25 NOSIG"}, "geometry": {"type": "Point", "coordinates": [-89.055, 13.442]}}, {"type": "Feature", "properties": {"id": "MPTO", "site": "Tocumen Intl", "prior": "1", "obsTime": "2018-09-20T20:00:00Z", "temp": 31.0, "dewp": 25.0, "wspd": 5, "wdir": 160, "ceil": 90, "cover": "BKN", "visib": 5.59, "fltcat": "VFR", "altim": 1007.0, "wx": "VCSH", "rawOb": "MPTO 202000Z 16005KT 9000 VCSH SCT017CB BKN090 31/25 Q1007 TEMPO 6000 TSRA"}, "geometry": {"type": "Point", "coordinates": [-79.383, 9.069]}}, {"type": "Feature", "properties": {"id": "KCDC", "site": "Cedar City Muni", "prior": "1", "obsTime": "2018-09-20T19:53:00Z", "temp": 23.3, "dewp": -7.8, "wspd": 4, "wdir": 0, "cover": "CLR", "visib": 10.0, "fltcat": "VFR", "altim": 1020.1, "slp": 1013.5, "rawOb": "KCDC 201953Z AUTO VRB04KT 10SM CLR 23/M08 A3012 RMK AO2 SLP135 T02331078"}, "geometry": {"type": "Point", "coordinates": [-113.1, 37.7]}}, {"type": "Feature", "properties": {"id": "TGPY", "site": "St Georges/Pt Saline", "prior": "1", "obsTime": "2018-09-20T19:00:00Z", "temp": 31.0, "dewp": 24.0, "wspd": 18, "wdir": 80, "cover": "FEW", "visib": 6.21, "fltcat": "VFR", "altim": 1011.0, "rawOb": "TGPY 201900Z 08018KT 9999 FEW019 31/24 Q1011 NOSIG"}, "geometry": {"type": "Point", "coordinates": [-61.785, 12.003]}}, {"type": "Feature", "properties": {"id": "KHSE", "site": "Hatteras/Mitchell Fl", "prior": "1", "obsTime": "2018-09-20T19:51:00Z", "temp": 27.8, "dewp": 18.9, "wspd": 8, "wgst": 14, "wdir": 20, "cover": "FEW", "visib": 10.0, "fltcat": "VFR", "altim": 1021.1, "slp": 1020.9, "rawOb": "KHSE 201951Z AUTO 02008G14KT 350V050 10SM FEW030 28/19 A3015 RMK AO2 SLP209 T02780189"}, "geometry": {"type": "Point", "coordinates": [-75.618, 35.233]}}, {"type": "Feature", "properties": {"id": "CYKJ", "site": "Key Lake Arpt", "prior": "1", "obsTime": "2018-09-20T19:00:00Z", "temp": 2.0, "dewp": -9.0, "wspd": 15, "wgst": 22, "wdir": 310, "ceil": 42, "cover": "BKN", "visib": 9.0, "fltcat": "VFR", "altim": 1021.1, "slp": 1024.0, "rawOb": "CYKJ 201900Z AUTO 31015G22KT 9SM BKN042 02/M09 A3015 RMK SLP240"}, "geometry": {"type": "Point", "coordinates": [-105.62, 57.255]}}, {"type": "Feature", "properties": {"id": "MMGL", "site": "Guadalajara/Hildago", "prior": "1", "obsTime": "2018-09-20T19:51:00Z", "temp": 27.0, "dewp": 14.0, "wspd": 4, "wdir": 10, "cover": "SCT", "visib": 10.0, "fltcat": "VFR", "altim": 1020.7, "rawOb": "MMGL 201951Z 01004KT 10SM SCT025TCU SCT300 27/14 A3014 RMK 8/201 CB N"}, "geometry": {"type": "Point", "coordinates": [-103.31, 20.522]}}, {"type": "Feature", "properties": {"id": "CYPL", "site": "Pickle Lake Arpt", "prior": "1", "obsTime": "2018-09-20T19:00:00Z", "temp": 11.0, "dewp": 0.0, "wspd": 6, "wdir": 90, "ceil": 220, "cover": "BKN", "visib": 15.0, "fltcat": "VFR", "altim": 1020.4, "slp": 1021.8, "rawOb": "CYPL 201900Z 09006KT 15SM FEW025 BKN220 11/00 A3013 RMK CF1CI6 CF TR WND ESTD SLP218"}, "geometry": {"type": "Point", "coordinates": [-90.214, 51.446]}}, {"type": "Feature", "properties": {"id": "MZBZ", "site": "Belize/Goldson Intl", "prior": "1", "obsTime": "2018-09-20T20:00:00Z", "temp": 32.0, "dewp": 26.0, "wspd": 10, "wdir": 80, "ceil": 21, "cover": "BKN", "visib": 6.21, "fltcat": "MVFR", "altim": 1011.0, "rawOb": "MZBZ 202000Z 08010KT 9999 BKN021 32/26 A2987 Q1011 NOSIG"}, "geometry": {"type": "Point", "coordinates": [-88.305, 17.54]}}, {"type": "Feature", "properties": {"id": "MBPV", "site": "Providenciales Intl", "prior": "1", "obsTime": "2018-09-20T20:00:00Z", "temp": 31.0, "dewp": 22.0, "wspd": 10, "wdir": 30, "cover": "SCT", "visib": 6.21, "fltcat": "VFR", "altim": 1013.0, "rawOb": "MBPV 202000Z 03010KT 9999 SCT014CB 31/22 Q1013"}, "geometry": {"type": "Point", "coordinates": [-72.267, 21.774]}}, {"type": "Feature", "properties": {"id": "MMMT", "site": "Minatitlan Arpt", "prior": "1", "obsTime": "2018-09-20T19:42:00Z", "temp": 31.0, "dewp": 23.0, "wspd": 10, "wdir": 360, "cover": "SCT", "visib": 7.0, "fltcat": "VFR", "altim": 1010.2, "rawOb": "MMMT 201942Z 36010KT 7SM SCT120 31/23 A2983 RMK 8/020"}, "geometry": {"type": "Point", "coordinates": [-94.581, 18.103]}}, {"type": "Feature", "properties": {"id": "MMTM", "site": "Tampico/Mina Intl", "prior": "1", "obsTime": "2018-09-20T19:41:00Z", "temp": 31.0, "dewp": 25.0, "wspd": 12, "wdir": 90, "ceil": 200, "cover": "BKN", "visib": 8.0, "fltcat": "VFR", "altim": 1012.3, "rawOb": "MMTM 201941Z E09012KT 8SM SCT010TCU BKN200 31/25 A2989 RMK 8/208"}, "geometry": {"type": "Point", "coordinates": [-97.867, 22.293]}}, {"type": "Feature", "properties": {"id": "MHPL", "site": "Puerto Lempira Arpt", "prior": "1", "obsTime": "2018-09-20T20:00:00Z", "rawOb": "MHPL 202000Z METAR "}, "geometry": {"type": "Point", "coordinates": [-83.782, 15.263]}}, {"type": "Feature", "properties": {"id": "MMTC", "site": "Torreon/Tinoco Intl", "prior": "1", "obsTime": "2018-09-20T19:46:00Z", "temp": 31.0, "dewp": 15.0, "wspd": 6, "wdir": 130, "ceil": 200, "cover": "BKN", "visib": 15.0, "fltcat": "VFR", "altim": 1016.3, "rawOb": "MMTC 201946Z 13006KT 15SM FEW015 FEW100 BKN200 31/15 A3001 RMK 8/132"}, "geometry": {"type": "Point", "coordinates": [-103.404, 25.562]}}, {"type": "Feature", "properties": {"id": "MMGM", "site": "Guaymas/Yanez Intl", "prior": "1", "obsTime": "2018-09-20T19:52:00Z", "temp": 32.0, "dewp": 24.0, "wspd": 10, "wdir": 200, "cover": "SCT", "visib": 10.0, "fltcat": "VFR", "altim": 1007.9, "rawOb": "MMGM 201952Z 20010KT 10SM SCT020 32/24 A2976 RMK 8/400"}, "geometry": {"type": "Point", "coordinates": [-110.924, 27.968]}}, {"type": "Feature", "properties": {"id": "MMLP", "site": "La Paz/De Leon Intl", "prior": "1", "obsTime": "2018-09-20T19:42:00Z", "temp": 31.0, "dewp": 21.0, "wspd": 8, "wdir": 220, "ceil": 35, "cover": "BKN", "visib": 10.0, "fltcat": "VFR", "altim": 1011.3, "rawOb": "MMLP 201942Z 22008KT 10SM BKN035TCU 31/21 A2986 RMK 8/200"}, "geometry": {"type": "Point", "coordinates": [-110.362, 24.073]}}, {"type": "Feature", "properties": {"id": "KSAN", "site": "San Diego Intl Arpt", "prior": "2", "obsTime": "2018-09-20T19:51:00Z", "temp": 21.1, "dewp": 15.0, "wspd": 9, "wdir": 180, "cover": "FEW", "visib": 10.0, "fltcat": "VFR", "altim": 1012.3, "slp": 1012.3, "rawOb": "KSAN 201951Z 18009KT 10SM FEW013 21/15 A2989 RMK AO2 SLP123 T02110150"}, "geometry": {"type": "Point", "coordinates": [-117.19, 32.733]}}, {"type": "Feature", "properties": {"id": "KSYR", "site": "Syracuse/Hancock Int", "prior": "2", "obsTime": "2018-09-20T19:54:00Z", "temp": 20.6, "dewp": 16.1, "wspd": 6, "wdir": 30, "ceil": 120, "cover": "BKN", "visib": 10.0, "fltcat": "VFR", "altim": 1021.4, "slp": 1021.1, "rawOb": "KSYR 201954Z 03006KT 10SM FEW030 BKN120 21/16 A3016 RMK AO2 SLP211 T02060161"}, "geometry": {"type": "Point", "coordinates": [-76.106, 43.112]}}, {"type": "Feature", "properties": {"id": "KPHL", "site": "Philadelphia Intl", "prior": "2", "obsTime": "2018-09-20T19:54:00Z", "temp": 23.3, "dewp": 17.2, "wspd": 6, "wdir": 100, "ceil": 30, "cover": "OVC", "visib": 10.0, "fltcat": "MVFR", "altim": 1022.4, "slp": 1022.3, "rawOb": "KPHL 201954Z 10006KT 10SM BKN030 OVC036 23/17 A3019 RMK AO2 SLP223 T02330172 $"}, "geometry": {"type": "Point", "coordinates": [-75.246, 39.869]}}, {"type": "Feature", "properties": {"id": "KRIC", "site": "Richmond Intl", "prior": "2", "obsTime": "2018-09-20T19:54:00Z", "temp": 28.3, "dewp": 21.1, "wspd": 8, "wdir": 140, "cover": "SCT", "visib": 10.0, "fltcat": "VFR", "altim": 1021.1, "slp": 1021.3, "rawOb": "KRIC 201954Z 14008KT 10SM FEW032 SCT075 SCT200 28/21 A3015 RMK AO2 SLP213 MDT CU SE T02830211 $"}, "geometry": {"type": "Point", "coordinates": [-77.322, 37.506]}}, {"type": "Feature", "properties": {"id": "KJAN", "site": "Jackson/Evers Intl", "prior": "2", "obsTime": "2018-09-20T19:54:00Z", "temp": 33.3, "dewp": 21.7, "wspd": 9, "wdir": 160, "ceil": 45, "cover": "BKN", "visib": 10.0, "fltcat": "VFR", "altim": 1015.7, "slp": 1015.0, "rawOb": "KJAN 201954Z 16009KT 10SM BKN045 BKN090 BKN110 33/22 A2999 RMK AO2 SLP150 T03330217"}, "geometry": {"type": "Point", "coordinates": [-90.077, 32.312]}}, {"type": "Feature", "properties": {"id": "KFWA", "site": "Fort Wayne Intl", "prior": "2", "obsTime": "2018-09-20T19:54:00Z", "temp": 32.2, "dewp": 21.7, "wspd": 11, "wdir": 220, "cover": "SCT", "visib": 10.0, "fltcat": "VFR", "altim": 1015.0, "slp": 1014.2, "rawOb": "KFWA 201954Z 22011KT 10SM FEW050 SCT250 32/22 A2997 RMK AO2 SLP142 T03220217"}, "geometry": {"type": "Point", "coordinates": [-85.19, 40.982]}}, {"type": "Feature", "properties": {"id": "KCNK", "site": "Concordia/Blosser Mu", "prior": "2", "obsTime": "2018-09-20T19:55:00Z", "temp": 33.3, "dewp": 17.2, "wspd": 21, "wgst": 36, "wdir": 190, "cover": "CLR", "visib": 10.0, "fltcat": "VFR", "altim": 1006.2, "slp": 1004.1, "rawOb": "KCNK 201955Z AUTO 19021G36KT 10SM CLR 33/17 A2971 RMK AO2 PK WND 18036/1949 SLP041 T03330172"}, "geometry": {"type": "Point", "coordinates": [-97.653, 39.55]}}, {"type": "Feature", "properties": {"id": "KIPT", "site": "Williamsport Rgnl", "prior": "2", "obsTime": "2018-09-20T19:54:00Z", "temp": 25.0, "dewp": 16.7, "wspd": 3, "wdir": 170, "cover": "SCT", "visib": 10.0, "fltcat": "VFR", "altim": 1020.7, "slp": 1020.4, "rawOb": "KIPT 201954Z 17003KT 10SM SCT050 25/17 A3014 RMK AO2 SLP204 T02500167"}, "geometry": {"type": "Point", "coordinates": [-76.922, 41.241]}}, {"type": "Feature", "properties": {"id": "KMEM", "site": "Memphis Intl", "prior": "2", "obsTime": "2018-09-20T19:54:00Z", "temp": 35.0, "dewp": 19.4, "wspd": 11, "wdir": 180, "cover": "SCT", "visib": 10.0, "fltcat": "VFR", "altim": 1015.3, "slp": 1014.8, "rawOb": "KMEM 201954Z 18011KT 10SM SCT060 35/19 A2998 RMK AO2 SLP148 T03500194"}, "geometry": {"type": "Point", "coordinates": [-89.982, 35.042]}}, {"type": "Feature", "properties": {"id": "KCRW", "site": "Charleston/Yeager Ar", "prior": "2", "obsTime": "2018-09-20T19:54:00Z", "temp": 31.7, "dewp": 20.0, "wspd": 7, "wdir": 220, "cover": "SCT", "visib": 10.0, "fltcat": "VFR", "altim": 1019.0, "slp": 1017.9, "rawOb": "KCRW 201954Z 22007KT 180V250 10SM SCT060 32/20 A3009 RMK AO2 SLP179 T03170200"}, "geometry": {"type": "Point", "coordinates": [-81.594, 38.374]}}, {"type": "Feature", "properties": {"id": "KGRR", "site": "Grand Rapids Intl", "prior": "2", "obsTime": "2018-09-20T19:53:00Z", "temp": 26.1, "dewp": 22.2, "wspd": 10, "wdir": 140, "ceil": 220, "cover": "BKN", "visib": 10.0, "fltcat": "VFR", "altim": 1013.6, "slp": 1013.1, "rawOb": "KGRR 201953Z 14010KT 10SM FEW040 FEW170 BKN220 26/22 A2993 RMK AO2 SLP131 CB DSNT NE AND S-SW T02610222"}, "geometry": {"type": "Point", "coordinates": [-85.52, 42.88]}}, {"type": "Feature", "properties": {"id": "KMSY", "site": "New Orleans/Armstron", "prior": "2", "obsTime": "2018-09-20T19:53:00Z", "temp": 30.0, "dewp": 25.6, "wspd": 4, "wdir": 90, "ceil": 60, "cover": "OVC", "visib": 10.0, "fltcat": "VFR", "altim": 1016.0, "slp": 1016.2, "wx": "-RA", "rawOb": "KMSY 201953Z 09004KT 10SM -RA FEW034 BKN060 OVC080 30/26 A3000 RMK AO2 LTG DSNT W AND NW RAB07 SLP162 P0026 T03000256"}, "geometry": {"type": "Point", "coordinates": [-90.259, 29.991]}}, {"type": "Feature", "properties": {"id": "MGGT", "site": "Guatemala/Aurora Arp", "prior": "2", "obsTime": "2018-09-20T20:00:00Z", "temp": 26.0, "dewp": 17.0, "wspd": 14, "wdir": 360, "cover": "SCT", "visib": 6.21, "fltcat": "VFR", "altim": 1022.0, "wx": "SS", "rawOb": "MGGT 202000Z 36014KT 9999 SCT020TCU FEW024CB SCT200 26/17 Q1022 A3018 CB/PCPN SSW CB S TCU SE"}, "geometry": {"type": "Point", "coordinates": [-90.528, 14.582]}}, {"type": "Feature", "properties": {"id": "KBGR", "site": "Bangor Intl Arpt", "prior": "2", "obsTime": "2018-09-20T19:53:00Z", "temp": 17.2, "dewp": 9.4, "wspd": 6, "wdir": 250, "ceil": 60, "cover": "BKN", "visib": 10.0, "fltcat": "VFR", "altim": 1024.8, "slp": 1024.7, "rawOb": "KBGR 201953Z 25006KT 10SM SCT030 BKN060 BKN150 17/09 A3026 RMK AO2 SLP247 T01720094"}, "geometry": {"type": "Point", "coordinates": [-68.83, 44.808]}}, {"type": "Feature", "properties": {"id": "KBFL", "site": "Bakersfield/Meadows", "prior": "2", "obsTime": "2018-09-20T19:54:00Z", "temp": 29.4, "dewp": 6.7, "wspd": 10, "wdir": 310, "cover": "CLR", "visib": 10.0, "fltcat": "VFR", "altim": 1011.3, "slp": 1010.4, "rawOb": "KBFL 201954Z COR 31010KT 10SM CLR 29/07 A2986 RMK AO2 SLP104 T02940067"}, "geometry": {"type": "Point", "coordinates": [-119.058, 35.435]}}, {"type": "Feature", "properties": {"id": "KTCC", "site": "Tucumcari Muni", "prior": "2", "obsTime": "2018-09-20T19:53:00Z", "temp": 28.3, "dewp": 15.0, "wspd": 9, "wdir": 220, "cover": "FEW", "visib": 10.0, "fltcat": "VFR", "altim": 1011.6, "slp": 1004.8, "rawOb": "KTCC 201953Z AUTO 22009KT 10SM FEW110 28/15 A2987 RMK AO2 SLP048 T02830150"}, "geometry": {"type": "Point", "coordinates": [-103.604, 35.182]}}, {"type": "Feature", "properties": {"id": "KRNO", "site": "Reno/Tahoe Intl", "prior": "2", "obsTime": "2018-09-20T19:55:00Z", "temp": 23.3, "dewp": -3.9, "wspd": 4, "wdir": 0, "cover": "CLR", "visib": 10.0, "fltcat": "VFR", "altim": 1019.0, "slp": 1014.6, "rawOb": "KRNO 201955Z VRB04KT 10SM CLR 23/M04 A3009 RMK AO2 SLP146 FU DSNT NW T02331039"}, "geometry": {"type": "Point", "coordinates": [-119.77, 39.5]}}, {"type": "Feature", "properties": {"id": "KPUB", "site": "Pueblo Mem Arpt", "prior": "2", "obsTime": "2018-09-20T19:53:00Z", "temp": 26.7, "dewp": 8.9, "wspd": 3, "wdir": 0, "cover": "CLR", "visib": 10.0, "fltcat": "VFR", "altim": 1011.6, "slp": 1004.8, "rawOb": "KPUB 201953Z VRB03KT 10SM CLR 27/09 A2987 RMK AO2 SLP048 T02670089"}, "geometry": {"type": "Point", "coordinates": [-104.494, 38.286]}}, {"type": "Feature", "properties": {"id": "KLBB", "site": "Lubbock Intl Arpt", "prior": "2", "obsTime": "2018-09-20T19:53:00Z", "temp": 30.6, "dewp": 15.6, "wspd": 17, "wgst": 26, "wdir": 160, "ceil": 210, "cover": "BKN", "visib": 10.0, "fltcat": "VFR", "altim": 1012.6, "slp": 1007.0, "rawOb": "KLBB 201953Z 16017G26KT 10SM SCT049 BKN210 31/16 A2990 RMK AO2 PK WND 20027/1943 SLP070 MDT CU ALQDS T03060156"}, "geometry": {"type": "Point", "coordinates": [-101.828, 33.66]}}, {"type": "Feature", "properties": {"id": "KIND", "site": "Indianapolis Intl", "prior": "2", "obsTime": "2018-09-20T19:54:00Z", "temp": 32.2, "dewp": 21.7, "wspd": 12, "wdir": 210, "cover": "SCT", "visib": 10.0, "fltcat": "VFR", "altim": 1015.3, "slp": 1014.5, "rawOb": "KIND 201954Z 21012KT 10SM FEW045 SCT065 32/22 A2998 RMK AO2 SLP145 T03220217"}, "geometry": {"type": "Point", "coordinates": [-86.292, 39.72]}}, {"type": "Feature", "properties": {"id": "KFAR", "site": "Fargo/Hector Intl", "prior": "2", "obsTime": "2018-09-20T19:53:00Z", "temp": 12.8, "dewp": 12.2, "wspd": 14, "wdir": 40, "ceil": 7, "cover": "OVC", "visib": 5.0, "fltcat": "IFR", "altim": 1008.2, "slp": 1008.3, "wx": "-RA BR", "rawOb": "KFAR 201953Z 04014KT 5SM -RA BR BKN007 OVC015 13/12 A2977 RMK AO2 SLP083 P0005 T01280122"}, "geometry": {"type": "Point", "coordinates": [-96.816, 46.92]}}, {"type": "Feature", "properties": {"id": "KELY", "site": "Ely/Yelland Fld", "prior": "2", "obsTime": "2018-09-20T19:53:00Z", "temp": 21.1, "dewp": -13.3, "wspd": 6, "wdir": 350, "cover": "CLR", "visib": 10.0, "fltcat": "VFR", "altim": 1021.4, "slp": 1015.3, "rawOb": "KELY 201953Z AUTO 35006KT 10SM CLR 21/M13 A3016 RMK AO2 SLP153 T02111133"}, "geometry": {"type": "Point", "coordinates": [-114.838, 39.3]}}, {"type": "Feature", "properties": {"id": "KDLH", "site": "Duluth Intl Arpt", "prior": "2", "obsTime": "2018-09-20T19:55:00Z", "temp": 13.3, "dewp": 12.2, "wspd": 19, "wgst": 28, "wdir": 90, "ceil": 4, "cover": "OVC", "visib": 1.5, "fltcat": "LIFR", "altim": 1011.6, "slp": 1012.0, "wx": "-DZ BR", "rawOb": "KDLH 201955Z 09019G28KT 1 1/2SM R09/5500VP6000FT -DZ BR OVC004 13/12 A2987 RMK AO2 PK WND 10029/1857 RAE21DZB21 SLP120 P0000 T01330122"}, "geometry": {"type": "Point", "coordinates": [-92.191, 46.841]}}, {"type": "Feature", "properties": {"id": "KCYS", "site": "Cheyenne Rgnl", "prior": "2", "obsTime": "2018-09-20T19:53:00Z", "temp": 23.9, "dewp": -5.6, "wspd": 18, "wgst": 30, "wdir": 310, "cover": "CLR", "visib": 10.0, "fltcat": "VFR", "altim": 1013.6, "slp": 1005.4, "rawOb": "KCYS 201953Z 31018G30KT 10SM CLR 24/M06 A2993 RMK AO2 PK WND 35030/1947 WSHFT 1845 LTG DSNT SE SLP054 T02391056"}, "geometry": {"type": "Point", "coordinates": [-104.814, 41.155]}}, {"type": "Feature", "properties": {"id": "MUCM", "site": "Camaguey/Agramonte A", "prior": "2", "obsTime": "2018-09-20T19:50:00Z", "temp": 32.0, "dewp": 24.0, "wspd": 15, "wdir": 20, "cover": "SCT", "visib": 5.59, "fltcat": "VFR", "altim": 1014.0, "rawOb": "MUCM 201950Z 02015KT 9000 SCT020 32/24 Q1014"}, "geometry": {"type": "Point", "coordinates": [-77.847, 21.42]}}, {"type": "Feature", "properties": {"id": "KBTV", "site": "Burlington Intl", "prior": "2", "obsTime": "2018-09-20T19:54:00Z", "temp": 17.8, "dewp": 10.6, "wspd": 3, "wdir": 360, "ceil": 110, "cover": "OVC", "visib": 10.0, "fltcat": "VFR", "altim": 1023.8, "slp": 1023.9, "rawOb": "KBTV 201954Z 36003KT 10SM FEW016 OVC110 18/11 A3023 RMK AO2 SLP239 MTNS E-SE OBSCD T01780106"}, "geometry": {"type": "Point", "coordinates": [-73.152, 44.473]}}, {"type": "Feature", "properties": {"id": "KBIL", "site": "Billings/Logan Intl", "prior": "2", "obsTime": "2018-09-20T19:53:00Z", "temp": 14.4, "dewp": 8.9, "wspd": 10, "wdir": 290, "cover": "SCT", "visib": 10.0, "fltcat": "VFR", "altim": 1014.6, "slp": 1014.1, "rawOb": "KBIL 201953Z 29010KT 10SM SCT037 SCT090 14/09 A2996 RMK AO2 LTG DSNT E AND SE RAE19 TSE21 SLP141 CB SHRA DSNT E-S P0003 T01440089"}, "geometry": {"type": "Point", "coordinates": [-108.538, 45.807]}}, {"type": "Feature", "properties": {"id": "KINW", "site": "Winslow/Lindberg Rgn", "prior": "2", "obsTime": "2018-09-20T19:56:00Z", "temp": 27.2, "dewp": 7.2, "wspd": 10, "wgst": 15, "wdir": 290, "cover": "CLR", "visib": 10.0, "fltcat": "VFR", "altim": 1018.0, "slp": 1011.2, "rawOb": "KINW 201956Z AUTO 29010G15KT 10SM CLR 27/07 A3006 RMK AO2 SLP112 T02720072"}, "geometry": {"type": "Point", "coordinates": [-110.721, 35.022]}}, {"type": "Feature", "properties": {"id": "KICT", "site": "Wichita/Mid Continen", "prior": "2", "obsTime": "2018-09-20T19:53:00Z", "temp": 33.3, "dewp": 18.9, "wspd": 22, "wgst": 32, "wdir": 190, "cover": "FEW", "visib": 10.0, "fltcat": "VFR", "altim": 1009.6, "slp": 1007.5, "rawOb": "KICT 201953Z 19022G32KT 10SM FEW055 33/19 A2981 RMK AO2 PK WND 17033/1931 SLP075 T03330189"}, "geometry": {"type": "Point", "coordinates": [-97.43, 37.653]}}, {"type": "Feature", "properties": {"id": "KTUL", "site": "Tulsa Intl Arpt", "prior": "2", "obsTime": "2018-09-20T19:53:00Z", "temp": 34.4, "dewp": 19.4, "wspd": 14, "wgst": 20, "wdir": 180, "cover": "SCT", "visib": 10.0, "fltcat": "VFR", "altim": 1011.3, "slp": 1010.0, "rawOb": "KTUL 201953Z 18014G20KT 10SM SCT060 SCT250 34/19 A2986 RMK AO2 SLP100 T03440194"}, "geometry": {"type": "Point", "coordinates": [-95.884, 36.195]}}, {"type": "Feature", "properties": {"id": "KSHR", "site": "Sheridan Cnty Arpt", "prior": "2", "obsTime": "2018-09-20T19:53:00Z", "temp": 17.8, "dewp": 6.7, "wspd": 20, "wgst": 27, "wdir": 340, "cover": "CLR", "visib": 10.0, "fltcat": "VFR", "altim": 1013.3, "slp": 1011.7, "rawOb": "KSHR 201953Z AUTO 34020G27KT 10SM CLR 18/07 A2992 RMK AO2 PK WND 34029/1941 RAE1854 SLP117 P0000 T01780067"}, "geometry": {"type": "Point", "coordinates": [-106.977, 44.774]}}, {"type": "Feature", "properties": {"id": "KRAP", "site": "Rapid City Rgnl", "prior": "2", "obsTime": "2018-09-20T19:52:00Z", "temp": 12.8, "dewp": 10.0, "wspd": 11, "wdir": 350, "ceil": 9, "cover": "OVC", "visib": 10.0, "fltcat": "IFR", "altim": 1010.6, "slp": 1010.2, "rawOb": "KRAP 201952Z 35011KT 10SM OVC009 13/10 A2984 RMK AO2 SLP102 T01280100"}, "geometry": {"type": "Point", "coordinates": [-103.057, 44.042]}}, {"type": "Feature", "properties": {"id": "KGJT", "site": "Grand Junction Rgnl", "prior": "2", "obsTime": "2018-09-20T19:53:00Z", "temp": 27.2, "dewp": 0.0, "wspd": 13, "wgst": 18, "wdir": 310, "cover": "CLR", "visib": 10.0, "fltcat": "VFR", "altim": 1015.3, "slp": 1008.1, "rawOb": "KGJT 201953Z 31013G18KT 10SM CLR 27/00 A2998 RMK AO2 SLP081 T02720000"}, "geometry": {"type": "Point", "coordinates": [-108.528, 39.126]}}, {"type": "Feature", "properties": {"id": "KGLD", "site": "Goodland/Renner Fld", "prior": "2", "obsTime": "2018-09-20T19:53:00Z", "temp": 20.6, "dewp": 16.7, "wspd": 10, "wdir": 180, "ceil": 100, "cover": "BKN", "visib": 10.0, "fltcat": "VFR", "altim": 1010.2, "slp": 1006.7, "rawOb": "KGLD 201953Z AUTO 18010KT 10SM BKN100 21/17 A2983 RMK AO2 LTG DSNT E RAE33 SLP067 P0001 T02060167"}, "geometry": {"type": "Point", "coordinates": [-101.7, 39.37]}}, {"type": "Feature", "properties": {"id": "KBHM", "site": "Birmingham Intl", "prior": "2", "obsTime": "2018-09-20T19:53:00Z", "temp": 35.0, "dewp": 16.1, "wspd": 6, "wdir": 140, "cover": "SCT", "visib": 10.0, "fltcat": "VFR", "altim": 1017.7, "slp": 1016.5, "rawOb": "KBHM 201953Z 14006KT 10SM SCT075 35/16 A3005 RMK AO2 SLP165 T03500161"}, "geometry": {"type": "Point", "coordinates": [-86.75, 33.565]}}, {"type": "Feature", "properties": {"id": "KABI", "site": "Abilene Rgnl", "prior": "2", "obsTime": "2018-09-20T19:52:00Z", "temp": 29.4, "dewp": 20.0, "wspd": 14, "wgst": 21, "wdir": 190, "ceil": 120, "cover": "BKN", "visib": 10.0, "fltcat": "VFR", "altim": 1012.6, "slp": 1009.8, "rawOb": "KABI 201952Z 19014G21KT 10SM FEW075 SCT095 BKN120 29/20 A2990 RMK AO2 LTG DSNT SE RAE04 SLP098 P0005 T02940200"}, "geometry": {"type": "Point", "coordinates": [-99.68, 32.409]}}, {"type": "Feature", "properties": {"id": "KILM", "site": "Wilmington Intl", "prior": "2", "obsTime": "2018-09-20T19:53:00Z", "temp": 28.9, "dewp": 20.0, "wspd": 8, "wdir": 100, "cover": "SCT", "visib": 10.0, "fltcat": "VFR", "altim": 1020.1, "slp": 1019.9, "rawOb": "KILM 201953Z 10008KT 10SM SCT034 29/20 A3012 RMK AO2 SLP199 T02890200"}, "geometry": {"type": "Point", "coordinates": [-77.903, 34.268]}}, {"type": "Feature", "properties": {"id": "KTPA", "site": "Tampa Intl Arpt", "prior": "2", "obsTime": "2018-09-20T19:53:00Z", "temp": 35.0, "dewp": 23.3, "wspd": 7, "wdir": 260, "ceil": 45, "cover": "BKN", "visib": 10.0, "fltcat": "VFR", "altim": 1015.3, "slp": 1015.2, "rawOb": "KTPA 201953Z 26007KT 10SM BKN045 35/23 A2998 RMK AO2 SLP152 TCU DSNT ALQDS T03500233"}, "geometry": {"type": "Point", "coordinates": [-82.535, 27.976]}}, {"type": "Feature", "properties": {"id": "KSGF", "site": "Springfield Muni", "prior": "2", "obsTime": "2018-09-20T19:52:00Z", "temp": 33.3, "dewp": 21.1, "wspd": 12, "wdir": 180, "cover": "CLR", "visib": 10.0, "fltcat": "VFR", "altim": 1013.3, "slp": 1011.6, "rawOb": "KSGF 201952Z 18012KT 10SM CLR 33/21 A2992 RMK AO2 LTG DSNT SE SLP116 T03330211"}, "geometry": {"type": "Point", "coordinates": [-93.388, 37.245]}}, {"type": "Feature", "properties": {"id": "KSHV", "site": "Shreveport Rgnl", "prior": "2", "obsTime": "2018-09-20T19:56:00Z", "temp": 33.9, "dewp": 21.1, "wspd": 8, "wdir": 200, "cover": "FEW", "visib": 10.0, "fltcat": "VFR", "altim": 1014.0, "slp": 1013.5, "rawOb": "KSHV 201956Z 20008KT 10SM FEW046 34/21 A2994 RMK AO2 SLP135 T03390211"}, "geometry": {"type": "Point", "coordinates": [-93.828, 32.447]}}, {"type": "Feature", "properties": {"id": "KMSN", "site": "Madison/Dane Cnty Rg", "prior": "2", "obsTime": "2018-09-20T19:53:00Z", "temp": 26.1, "dewp": 21.7, "wspd": 7, "wdir": 180, "ceil": 15, "cover": "BKN", "visib": 10.0, "fltcat": "MVFR", "altim": 1010.2, "slp": 1009.5, "rawOb": "KMSN 201953Z 18007KT 10SM BKN015 26/22 A2983 RMK AO2 SLP095 T02610217"}, "geometry": {"type": "Point", "coordinates": [-89.341, 43.136]}}, {"type": "Feature", "properties": {"id": "KIAH", "site": "Houston/Bush Intl", "prior": "2", "obsTime": "2018-09-20T19:53:00Z", "temp": 27.8, "dewp": 26.7, "wspd": 4, "wdir": 240, "ceil": 45, "cover": "BKN", "visib": 7.0, "fltcat": "VFR", "altim": 1013.6, "slp": 1013.5, "wx": "+TSRA", "rawOb": "KIAH 201953Z 24004KT 7SM +TSRA FEW030 BKN045CB BKN090 BKN250 28/27 A2993 RMK AO2 RAB36 TSB21 SLP135 OCNL LTGICCG OHD SW TS OHD SW MOV N MDT CU ALQDS P0009 T02780267"}, "geometry": {"type": "Point", "coordinates": [-95.35, 29.981]}}, {"type": "Feature", "properties": {"id": "KHVR", "site": "Havre/City Arpt", "prior": "2", "obsTime": "2018-09-20T19:53:00Z", "temp": 10.0, "dewp": 6.7, "wspd": 0, "wdir": 0, "ceil": 19, "cover": "OVC", "visib": 10.0, "fltcat": "MVFR", "altim": 1016.7, "slp": 1017.3, "rawOb": "KHVR 201953Z AUTO 00000KT 10SM OVC019 10/07 A3002 RMK AO2 SLP173 T01000067"}, "geometry": {"type": "Point", "coordinates": [-109.763, 48.544]}}, {"type": "Feature", "properties": {"id": "CYYR", "site": "Goose Bay Arpt", "prior": "2", "obsTime": "2018-09-20T19:00:00Z", "temp": 11.0, "dewp": 1.0, "wspd": 9, "wdir": 250, "ceil": 86, "cover": "BKN", "visib": 15.0, "fltcat": "VFR", "altim": 1021.4, "slp": 1021.5, "rawOb": "CYYR 201900Z 25009KT 15SM FEW035 BKN086 11/01 A3016 RMK CU1AC7 SLP215"}, "geometry": {"type": "Point", "coordinates": [-60.411, 53.32]}}, {"type": "Feature", "properties": {"id": "CYVR", "site": "Vancouver Intl", "prior": "2", "obsTime": "2018-09-20T19:55:00Z", "temp": 15.0, "dewp": 11.0, "wspd": 6, "wdir": 150, "ceil": 46, "cover": "OVC", "visib": 15.0, "fltcat": "VFR", "altim": 1020.1, "slp": 1020.1, "wx": "+SHRA", "rawOb": "CYVR 201955Z 15006KT 15SM +SHRA SCT018 BKN046 OVC071 15/11 A3012 RMK CU3CU3AS2 SLP201"}, "geometry": {"type": "Point", "coordinates": [-123.181, 49.195]}}, {"type": "Feature", "properties": {"id": "KSMF", "site": "Sacramento Intl", "prior": "2", "obsTime": "2018-09-20T19:53:00Z", "temp": 28.3, "dewp": 2.8, "wspd": 6, "wdir": 330, "cover": "CLR", "visib": 10.0, "fltcat": "VFR", "altim": 1010.6, "slp": 1010.5, "rawOb": "KSMF 201953Z 33006KT 10SM CLR 28/03 A2984 RMK AO2 SLP105 T02830028"}, "geometry": {"type": "Point", "coordinates": [-121.591, 38.696]}}, {"type": "Feature", "properties": {"id": "CYQB", "site": "Quebec/Lesage Intl", "prior": "2", "obsTime": "2018-09-20T19:00:00Z", "temp": 16.0, "dewp": 9.0, "wspd": 6, "wdir": 240, "ceil": 130, "cover": "BKN", "visib": 30.0, "fltcat": "VFR", "altim": 1024.1, "slp": 1024.4, "rawOb": "CYQB 201900Z 24006KT 30SM FEW030 SCT060 BKN130 BKN210 16/09 A3024 RMK CU1SC3AC3CI1 CI TR SLP244"}, "geometry": {"type": "Point", "coordinates": [-71.389, 46.788]}}, {"type": "Feature", "properties": {"id": "CYEG", "site": "Edmonton Intl Arpt", "prior": "2", "obsTime": "2018-09-20T19:00:00Z", "temp": 9.0, "dewp": 2.0, "wspd": 15, "wdir": 30, "ceil": 94, "cover": "BKN", "visib": 15.0, "fltcat": "VFR", "altim": 1020.4, "slp": 1022.7, "rawOb": "CYEG 201900Z 03015KT 15SM FEW028 SCT032 BKN094 BKN200 OVC240 09/02 A3013 RMK CU2SC1AC3CC1CI1 SLP227"}, "geometry": {"type": "Point", "coordinates": [-113.588, 53.308]}}, {"type": "Feature", "properties": {"id": "KAPN", "site": "Alpena Cnty Rgnl", "prior": "2", "obsTime": "2018-09-20T19:54:00Z", "temp": 18.3, "dewp": 17.8, "wspd": 6, "wdir": 120, "ceil": 6, "cover": "OVC", "visib": 7.0, "fltcat": "IFR", "altim": 1017.7, "slp": 1017.5, "rawOb": "KAPN 201954Z AUTO 12006KT 7SM BKN006 BKN014 OVC034 18/18 A3005 RMK AO2 RAE15B25E46 CIG 004V009 SLP175 P0001 T01830178"}, "geometry": {"type": "Point", "coordinates": [-83.561, 45.083]}}, {"type": "Feature", "properties": {"id": "CYKL", "site": "Schefferville Arpt", "prior": "2", "obsTime": "2018-09-20T19:09:00Z", "temp": 9.0, "dewp": 3.0, "wspd": 13, "wdir": 240, "ceil": 46, "cover": "OVC", "visib": 9.0, "fltcat": "VFR", "altim": 1014.6, "slp": 1016.7, "rawOb": "CYKL 201909Z AUTO 24013KT 9SM SCT030 BKN046 OVC075 09/03 A2996 RMK SLP167"}, "geometry": {"type": "Point", "coordinates": [-66.805, 54.805]}}, {"type": "Feature", "properties": {"id": "CYGL", "site": "La Grande Riviere Ar", "prior": "2", "obsTime": "2018-09-20T19:00:00Z", "temp": 8.0, "dewp": -1.0, "wspd": 11, "wgst": 16, "wdir": 290, "ceil": 32, "cover": "BKN", "visib": 15.0, "fltcat": "VFR", "altim": 1023.8, "slp": 1024.7, "rawOb": "CYGL 201900Z 29011G16KT 260V330 15SM BKN032 08/M01 A3023 RMK SC5 SLP247"}, "geometry": {"type": "Point", "coordinates": [-77.705, 53.625]}}, {"type": "Feature", "properties": {"id": "KEVV", "site": "Evansville Rgnl", "prior": "2", "obsTime": "2018-09-20T19:54:00Z", "temp": 33.9, "dewp": 19.4, "wspd": 8, "wdir": 220, "ceil": 65, "cover": "BKN", "visib": 10.0, "fltcat": "VFR", "altim": 1015.3, "slp": 1014.7, "rawOb": "KEVV 201954Z 22008KT 10SM BKN065 BKN085 34/19 A2998 RMK AO2 SLP147 T03390194"}, "geometry": {"type": "Point", "coordinates": [-87.527, 38.04]}}, {"type": "Feature", "properties": {"id": "KTLH", "site": "Tallahassee Intl", "prior": "2", "obsTime": "2018-09-20T19:53:00Z", "temp": 34.4, "dewp": 22.2, "wspd": 8, "wdir": 80, "cover": "SCT", "visib": 10.0, "fltcat": "VFR", "altim": 1016.3, "slp": 1015.9, "rawOb": "KTLH 201953Z 08008KT 10SM SCT050 34/22 A3001 RMK AO2 SLP159 T03440222"}, "geometry": {"type": "Point", "coordinates": [-84.355, 30.394]}}, {"type": "Feature", "properties": {"id": "CYJT", "site": "Stephenville Intl", "prior": "2", "obsTime": "2018-09-20T19:00:00Z", "temp": 11.0, "dewp": 2.0, "wspd": 10, "wdir": 320, "cover": "SCT", "visib": 15.0, "fltcat": "VFR", "altim": 1024.1, "slp": 1024.2, "rawOb": "CYJT 201900Z 32010KT 15SM SCT022 SCT200 11/02 A3024 RMK SC3CI1 CI TR SLP242"}, "geometry": {"type": "Point", "coordinates": [-58.553, 48.544]}}, {"type": "Feature", "properties": {"id": "KMSO", "site": "Missoula Intl", "prior": "2", "obsTime": "2018-09-20T19:53:00Z", "temp": 16.7, "dewp": 2.2, "wspd": 3, "wdir": 0, "cover": "SCT", "visib": 10.0, "fltcat": "VFR", "altim": 1017.4, "slp": 1016.7, "rawOb": "KMSO 201953Z VRB03KT 10SM SCT100 17/02 A3004 RMK AO2 SLP167 T01670022"}, "geometry": {"type": "Point", "coordinates": [-114.094, 46.917]}}, {"type": "Feature", "properties": {"id": "KFAT", "site": "Fresno Air Terminal", "prior": "2", "obsTime": "2018-09-20T19:53:00Z", "temp": 28.3, "dewp": 8.3, "wspd": 3, "wdir": 160, "cover": "CLR", "visib": 10.0, "fltcat": "VFR", "altim": 1011.6, "slp": 1011.1, "rawOb": "KFAT 201953Z 16003KT 10SM CLR 28/08 A2987 RMK AO2 SLP111 T02830083"}, "geometry": {"type": "Point", "coordinates": [-119.717, 36.776]}}, {"type": "Feature", "properties": {"id": "KCRP", "site": "Corpus Christi Intl", "prior": "2", "obsTime": "2018-09-20T19:51:00Z", "temp": 33.3, "dewp": 25.0, "wspd": 15, "wdir": 150, "ceil": 180, "cover": "BKN", "visib": 10.0, "fltcat": "VFR", "altim": 1011.9, "slp": 1011.8, "rawOb": "KCRP 201951Z 15015KT 10SM FEW029 FEW036 FEW045 BKN180 BKN250 33/25 A2988 RMK AO2 SLP118 CB DSNT N MOV N TCU DSNT NE E SE W T03330250"}, "geometry": {"type": "Point", "coordinates": [-97.505, 27.77]}}, {"type": "Feature", "properties": {"id": "KWMC", "site": "Winnemucca Muni", "prior": "2", "obsTime": "2018-09-20T19:56:00Z", "temp": 22.2, "dewp": -5.6, "wspd": 3, "wdir": 0, "cover": "CLR", "visib": 10.0, "fltcat": "VFR", "altim": 1020.4, "slp": 1017.6, "rawOb": "KWMC 201956Z AUTO VRB03KT 10SM CLR 22/M06 A3013 RMK AO2 SLP176 T02221056"}, "geometry": {"type": "Point", "coordinates": [-117.807, 40.899]}}, {"type": "Feature", "properties": {"id": "KISN", "site": "Williston/Sloulin Fl", "prior": "2", "obsTime": "2018-09-20T19:52:00Z", "temp": 6.1, "dewp": 3.9, "wspd": 11, "wgst": 20, "wdir": 50, "ceil": 14, "cover": "OVC", "visib": 3.0, "fltcat": "MVFR", "altim": 1015.3, "slp": 1016.3, "wx": "-RA BR", "rawOb": "KISN 201952Z AUTO 05011G20KT 3SM -RA BR BKN014 OVC029 06/04 A2998 RMK AO2 SLP163 P0005 T00610039"}, "geometry": {"type": "Point", "coordinates": [-103.64, 48.177]}}, {"type": "Feature", "properties": {"id": "CYSJ", "site": "Saint John Arpt", "prior": "2", "obsTime": "2018-09-20T19:00:00Z", "temp": 14.0, "dewp": 6.0, "wspd": 8, "wdir": 40, "ceil": 45, "cover": "BKN", "visib": 15.0, "fltcat": "VFR", "altim": 1023.8, "slp": 1024.1, "rawOb": "CYSJ 201900Z 04008KT 010V070 15SM BKN045 BKN120 14/06 A3023 RMK SC5AC1 SLP241"}, "geometry": {"type": "Point", "coordinates": [-65.884, 45.322]}}, {"type": "Feature", "properties": {"id": "KCLE", "site": "Cleveland/Hopkins In", "prior": "2", "obsTime": "2018-09-20T20:00:00Z", "temp": 28.3, "dewp": 20.0, "wspd": 8, "wdir": 120, "cover": "SCT", "visib": 10.0, "fltcat": "VFR", "altim": 1017.7, "rawOb": "KCLE 202000Z 12008KT 10SM FEW040 SCT065 SCT250 28/20 A3005 RMK AO2 LTG DSNT SE TSE1954 T02830200"}, "geometry": {"type": "Point", "coordinates": [-81.85, 41.41]}}, {"type": "Feature", "properties": {"id": "KSPW", "site": "Spencer Muni", "prior": "2", "obsTime": "2018-09-20T19:53:00Z", "temp": 25.6, "dewp": 21.7, "wspd": 6, "wdir": 0, "cover": "FEW", "visib": 10.0, "fltcat": "VFR", "altim": 1002.8, "slp": 1002.0, "rawOb": "KSPW 201953Z AUTO VRB06KT 10SM FEW012 FEW050 26/22 A2961 RMK AO2 SLP020 T02560217"}, "geometry": {"type": "Point", "coordinates": [-95.202, 43.165]}}, {"type": "Feature", "properties": {"id": "KPIT", "site": "Pittsburgh Intl", "prior": "2", "obsTime": "2018-09-20T19:51:00Z", "temp": 28.3, "dewp": 18.9, "wspd": 8, "wdir": 200, "ceil": 250, "cover": "BKN", "visib": 10.0, "fltcat": "VFR", "altim": 1019.4, "slp": 1019.1, "rawOb": "KPIT 201951Z 20008KT 10SM SCT039 SCT050 BKN250 28/19 A3010 RMK AO2 SLP191 T02830189"}, "geometry": {"type": "Point", "coordinates": [-80.243, 40.495]}}, {"type": "Feature", "properties": {"id": "KPIA", "site": "Peoria Intl", "prior": "2", "obsTime": "2018-09-20T19:54:00Z", "temp": 33.9, "dewp": 21.7, "wspd": 11, "wdir": 210, "cover": "SCT", "visib": 10.0, "fltcat": "VFR", "altim": 1011.3, "slp": 1010.6, "rawOb": "KPIA 201954Z AUTO 21011KT 10SM SCT065 34/22 A2986 RMK AO2 SLP106 T03390217"}, "geometry": {"type": "Point", "coordinates": [-89.689, 40.661]}}, {"type": "Feature", "properties": {"id": "KOMA", "site": "Omaha/Eppley Fld", "prior": "2", "obsTime": "2018-09-20T19:52:00Z", "temp": 34.4, "dewp": 17.8, "wspd": 21, "wgst": 35, "wdir": 190, "cover": "SCT", "visib": 10.0, "fltcat": "VFR", "altim": 1003.8, "slp": 1002.3, "rawOb": "KOMA 201952Z 19021G35KT 10SM SCT060 SCT200 34/18 A2964 RMK AO2 PK WND 21037/1930 SLP023 T03440178"}, "geometry": {"type": "Point", "coordinates": [-95.897, 41.303]}}, {"type": "Feature", "properties": {"id": "KGRB", "site": "Green Bay/Straubel I", "prior": "2", "obsTime": "2018-09-20T19:59:00Z", "temp": 20.6, "dewp": 18.9, "wspd": 4, "wdir": 0, "ceil": 16, "cover": "OVC", "visib": 1.75, "fltcat": "IFR", "altim": 1012.3, "wx": "RA BR", "rawOb": "KGRB 201959Z VRB04KT 1 3/4SM RA BR BKN016 OVC021 21/19 A2989 RMK AO2 P0001 T02060189"}, "geometry": {"type": "Point", "coordinates": [-88.131, 44.486]}}, {"type": "Feature", "properties": {"id": "KCSG", "site": "Columbus Arpt", "prior": "2", "obsTime": "2018-09-20T19:51:00Z", "temp": 35.6, "dewp": 17.2, "wspd": 5, "wdir": 70, "cover": "CLR", "visib": 10.0, "fltcat": "VFR", "altim": 1017.0, "slp": 1016.3, "rawOb": "KCSG 201951Z 07005KT 10SM CLR 36/17 A3003 RMK AO2 SLP163 T03560172"}, "geometry": {"type": "Point", "coordinates": [-84.938, 32.516]}}, {"type": "Feature", "properties": {"id": "KCAE", "site": "Columbia Metro", "prior": "2", "obsTime": "2018-09-20T19:56:00Z", "temp": 33.3, "dewp": 20.6, "wspd": 9, "wdir": 160, "cover": "SCT", "visib": 10.0, "fltcat": "VFR", "altim": 1019.0, "slp": 1018.4, "rawOb": "KCAE 201956Z 16009KT 10SM SCT050 33/21 A3009 RMK AO2 SLP184 T03330206"}, "geometry": {"type": "Point", "coordinates": [-81.12, 33.94]}}, {"type": "Feature", "properties": {"id": "KBLH", "site": "Blythe Arpt", "prior": "2", "obsTime": "2018-09-20T19:52:00Z", "temp": 35.0, "dewp": 20.0, "wspd": 4, "wdir": 0, "cover": "CLR", "visib": 10.0, "fltcat": "VFR", "altim": 1009.2, "slp": 1008.4, "rawOb": "KBLH 201952Z AUTO VRB04KT 10SM CLR 35/20 A2980 RMK AO2 SLP084 T03500200"}, "geometry": {"type": "Point", "coordinates": [-114.717, 33.617]}}, {"type": "Feature", "properties": {"id": "KALB", "site": "Albany Intl", "prior": "2", "obsTime": "2018-09-20T19:51:00Z", "temp": 22.2, "dewp": 13.9, "wspd": 9, "wdir": 200, "ceil": 160, "cover": "BKN", "visib": 10.0, "fltcat": "VFR", "altim": 1022.4, "slp": 1022.4, "rawOb": "KALB 201951Z 20009KT 10SM FEW028 SCT035 BKN160 BKN250 22/14 A3019 RMK AO2 SLP224 T02220139"}, "geometry": {"type": "Point", "coordinates": [-73.806, 42.748]}}, {"type": "Feature", "properties": {"id": "CYVO", "site": "Val DOr Arpt", "prior": "2", "obsTime": "2018-09-20T19:00:00Z", "temp": 17.0, "dewp": 7.0, "wspd": 3, "wdir": 170, "ceil": 250, "cover": "OVC", "visib": 15.0, "fltcat": "VFR", "altim": 1022.8, "slp": 1024.0, "rawOb": "CYVO 201900Z 17003KT 110V190 15SM FEW020 FEW090 OVC250 17/07 A3020 RMK CF1AC1CS7 CF TR CONTRAILS SLP240 DENSITY ALT 1300FT"}, "geometry": {"type": "Point", "coordinates": [-77.783, 48.054]}}, {"type": "Feature", "properties": {"id": "KTPH", "site": "Tonopah Arpt", "prior": "2", "obsTime": "2018-09-20T19:56:00Z", "temp": 23.3, "dewp": 4.4, "wspd": 6, "wdir": 0, "cover": "CLR", "visib": 10.0, "fltcat": "VFR", "altim": 1020.4, "rawOb": "KTPH 201956Z AUTO VRB06KT 10SM CLR 23/04 A3013 RMK AO2 SLPNO T02330044"}, "geometry": {"type": "Point", "coordinates": [-117.088, 38.057]}}, {"type": "Feature", "properties": {"id": "CYAY", "site": "Saint Anthony Arpt", "prior": "2", "obsTime": "2018-09-20T19:00:00Z", "temp": 8.0, "dewp": -1.0, "wspd": 11, "wdir": 130, "ceil": 65, "cover": "BKN", "visib": 9.0, "fltcat": "VFR", "altim": 1024.5, "slp": 1024.7, "rawOb": "CYAY 201900Z AUTO 13011KT 9SM BKN065 08/M01 A3025 RMK SLP247"}, "geometry": {"type": "Point", "coordinates": [-56.082, 51.392]}}, {"type": "Feature", "properties": {"id": "KFMN", "site": "Farmington/Four Corn", "prior": "2", "obsTime": "2018-09-20T19:53:00Z", "temp": 23.9, "dewp": 6.1, "wspd": 11, "wgst": 16, "wdir": 270, "cover": "CLR", "visib": 10.0, "fltcat": "VFR", "altim": 1017.0, "slp": 1011.7, "rawOb": "KFMN 201953Z 27011G16KT 10SM CLR 24/06 A3003 RMK AO2 SLP117 T02390061"}, "geometry": {"type": "Point", "coordinates": [-108.229, 36.741]}}, {"type": "Feature", "properties": {"id": "KCMH", "site": "Columbus Intl", "prior": "2", "obsTime": "2018-09-20T19:51:00Z", "temp": 28.9, "dewp": 22.8, "wspd": 7, "wdir": 30, "ceil": 50, "cover": "OVC", "visib": 8.0, "fltcat": "VFR", "altim": 1016.7, "slp": 1016.0, "wx": "-RA", "rawOb": "KCMH 201951Z 03007KT 8SM -RA BKN050 BKN080 BKN100 OVC250 29/23 A3002 RMK AO2 RAB23 SLP160 P0001 T02890228"}, "geometry": {"type": "Point", "coordinates": [-82.891, 39.998]}}, {"type": "Feature", "properties": {"id": "CYYN", "site": "Swift Current Arpt", "prior": "2", "obsTime": "2018-09-20T19:00:00Z", "temp": 7.0, "dewp": 5.0, "wspd": 8, "wdir": 130, "ceil": 9, "cover": "OVC", "visib": 9.0, "fltcat": "IFR", "altim": 1016.3, "slp": 1018.3, "rawOb": "CYYN 201900Z AUTO 13008KT 9SM OVC009 07/05 A3001 RMK SLP183"}, "geometry": {"type": "Point", "coordinates": [-107.687, 50.291]}}, {"type": "Feature", "properties": {"id": "CYYD", "site": "Smithers Arpt", "prior": "2", "obsTime": "2018-09-20T19:00:00Z", "temp": 12.0, "dewp": 5.0, "wspd": 6, "wdir": 180, "ceil": 120, "cover": "BKN", "visib": 25.0, "fltcat": "VFR", "altim": 1018.7, "slp": 1019.6, "wx": "VCSH", "rawOb": "CYYD 201900Z 18006KT 25SM VCSH SCT050 SCT080 BKN120 BKN230 12/05 A3008 RMK SC3AC1AC1CI1 SLP196"}, "geometry": {"type": "Point", "coordinates": [-127.182, 54.824]}}, {"type": "Feature", "properties": {"id": "CYMM", "site": "Fort McMurray Arpt", "prior": "2", "obsTime": "2018-09-20T19:00:00Z", "temp": 3.0, "dewp": -9.0, "wspd": 11, "wgst": 17, "wdir": 350, "cover": "CLR", "visib": 9.0, "fltcat": "VFR", "altim": 1025.8, "slp": 1027.7, "rawOb": "CYMM 201900Z AUTO 35011G17KT 9SM CLR 03/M09 A3029 RMK SLP277"}, "geometry": {"type": "Point", "coordinates": [-111.223, 56.654]}}, {"type": "Feature", "properties": {"id": "KELP", "site": "El Paso Intl", "prior": "2", "obsTime": "2018-09-20T19:51:00Z", "temp": 20.6, "dewp": 17.8, "wspd": 11, "wdir": 170, "ceil": 45, "cover": "OVC", "visib": 8.0, "fltcat": "VFR", "altim": 1013.6, "slp": 1007.3, "wx": "-RA", "rawOb": "KELP 201951Z 17011KT 8SM -RA FEW014 BKN045 OVC100 21/18 A2993 RMK AO2 SLP073 CB DSNT NE SW AND W MOV NE CLDS TPG MTNS SW-NW P0019 T02060178"}, "geometry": {"type": "Point", "coordinates": [-106.387, 31.805]}}, {"type": "Feature", "properties": {"id": "CYMT", "site": "Chibougamau Arpt", "prior": "2", "obsTime": "2018-09-20T19:00:00Z", "temp": 15.0, "dewp": 4.0, "wspd": 2, "wdir": 0, "ceil": 65, "cover": "OVC", "visib": 9.0, "fltcat": "VFR", "altim": 1022.8, "slp": 1024.0, "rawOb": "CYMT 201900Z AUTO VRB02KT 9SM FEW047 BKN065 OVC100 15/04 A3020 RMK SLP240"}, "geometry": {"type": "Point", "coordinates": [-74.537, 49.773]}}, {"type": "Feature", "properties": {"id": "KCGI", "site": "Cape Girardeau Rgnl", "prior": "2", "obsTime": "2018-09-20T19:53:00Z", "temp": 34.4, "dewp": 19.4, "wspd": 11, "wdir": 170, "cover": "FEW", "visib": 10.0, "fltcat": "VFR", "altim": 1014.3, "slp": 1013.8, "rawOb": "KCGI 201953Z 17011KT 10SM FEW070 34/19 A2995 RMK AO2 SLP138 T03440194"}, "geometry": {"type": "Point", "coordinates": [-89.571, 37.224]}}, {"type": "Feature", "properties": {"id": "KYKM", "site": "Yakima Air Term/McAl", "prior": "2", "obsTime": "2018-09-20T19:53:00Z", "temp": 20.0, "dewp": 2.8, "wspd": 3, "wdir": 0, "cover": "CLR", "visib": 10.0, "fltcat": "VFR", "altim": 1018.0, "slp": 1017.8, "rawOb": "KYKM 201953Z VRB03KT 10SM CLR 20/03 A3006 RMK AO2 SLP178 T02000028"}, "geometry": {"type": "Point", "coordinates": [-120.54, 46.568]}}, {"type": "Feature", "properties": {"id": "KVTN", "site": "Valentine/Miller Fld", "prior": "2", "obsTime": "2018-09-20T19:52:00Z", "temp": 17.8, "dewp": 14.4, "wspd": 10, "wdir": 310, "ceil": 13, "cover": "OVC", "visib": 10.0, "fltcat": "MVFR", "altim": 1007.9, "slp": 1006.8, "rawOb": "KVTN 201952Z AUTO 31010KT 10SM OVC013 18/14 A2976 RMK AO2 SLP068 T01780144"}, "geometry": {"type": "Point", "coordinates": [-100.549, 42.859]}}, {"type": "Feature", "properties": {"id": "CYQR", "site": "Regina Intl Arpt", "prior": "2", "obsTime": "2018-09-20T19:00:00Z", "temp": 8.0, "dewp": 3.0, "wspd": 2, "wdir": 0, "ceil": 75, "cover": "OVC", "visib": 15.0, "fltcat": "VFR", "altim": 1018.4, "slp": 1020.4, "rawOb": "CYQR 201900Z VRB02KT 15SM FEW030 BKN075 OVC110 08/03 A3007 RMK CU1AC6AC2 CU TR SLP204"}, "geometry": {"type": "Point", "coordinates": [-104.661, 50.432]}}, {"type": "Feature", "properties": {"id": "KPIH", "site": "Pocatello Muni", "prior": "2", "obsTime": "2018-09-20T19:53:00Z", "temp": 19.4, "dewp": -4.4, "wspd": 17, "wgst": 23, "wdir": 250, "cover": "CLR", "visib": 10.0, "fltcat": "VFR", "altim": 1020.1, "slp": 1016.9, "rawOb": "KPIH 201953Z 25017G23KT 10SM CLR 19/M04 A3012 RMK AO2 PK WND 26029/1854 SLP169 T01941044"}, "geometry": {"type": "Point", "coordinates": [-112.59, 42.91]}}, {"type": "Feature", "properties": {"id": "CYMO", "site": "Moosonee Arpt", "prior": "2", "obsTime": "2018-09-20T19:00:00Z", "temp": 10.0, "dewp": 5.0, "wspd": 11, "wdir": 80, "cover": "CLR", "visib": 9.0, "fltcat": "VFR", "altim": 1025.5, "slp": 1025.5, "rawOb": "CYMO 201900Z AUTO 08011KT 9SM CLR 10/05 A3028 RMK SLP255"}, "geometry": {"type": "Point", "coordinates": [-80.61, 51.29]}}, {"type": "Feature", "properties": {"id": "CYQU", "site": "Grande Prairie Arpt", "prior": "2", "obsTime": "2018-09-20T19:00:00Z", "temp": 3.0, "dewp": -7.0, "wspd": 8, "wdir": 40, "ceil": 130, "cover": "BKN", "visib": 25.0, "fltcat": "VFR", "altim": 1026.2, "slp": 1028.9, "rawOb": "CYQU 201900Z 04008KT 350V080 25SM SCT050 BKN130 03/M07 A3030 RMK SC3AC4 SLP289"}, "geometry": {"type": "Point", "coordinates": [-118.88, 55.18]}}, {"type": "Feature", "properties": {"id": "CYPA", "site": "Prince Albert Arpt", "prior": "2", "obsTime": "2018-09-20T19:50:00Z", "temp": 8.0, "dewp": 6.0, "wspd": 7, "wdir": 350, "ceil": 60, "cover": "OVC", "visib": 12.0, "fltcat": "VFR", "altim": 1019.7, "slp": 1021.8, "rawOb": "CYPA 201950Z 35007KT 12SM FEW006 BKN060 OVC250 08/06 A3011 RMK SF1SC7CI1 SF TR SLP218"}, "geometry": {"type": "Point", "coordinates": [-105.676, 53.218]}}, {"type": "Feature", "properties": {"id": "CYNA", "site": "Natashquan Arpt", "prior": "2", "obsTime": "2018-09-20T19:00:00Z", "temp": 11.0, "dewp": -1.0, "wspd": 6, "wdir": 210, "ceil": 46, "cover": "BKN", "visib": 9.0, "fltcat": "VFR", "altim": 1025.5, "slp": 1025.6, "rawOb": "CYNA 201900Z AUTO 21006KT 110V240 9SM BKN046 BKN050 11/M01 A3028 RMK SLP256"}, "geometry": {"type": "Point", "coordinates": [-61.789, 50.19]}}, {"type": "Feature", "properties": {"id": "KBOS", "site": "Boston/Logan Intl", "prior": "2", "obsTime": "2018-09-20T19:54:00Z", "temp": 17.8, "dewp": 12.8, "wspd": 12, "wdir": 80, "ceil": 110, "cover": "BKN", "visib": 10.0, "fltcat": "VFR", "altim": 1024.8, "slp": 1024.5, "rawOb": "KBOS 201954Z 08012KT 10SM FEW017 SCT045 BKN110 BKN210 18/13 A3026 RMK AO2 SLP245 T01780128"}, "geometry": {"type": "Point", "coordinates": [-71.006, 42.364]}}, {"type": "Feature", "properties": {"id": "CYQT", "site": "Thunder Bay Intl", "prior": "2", "obsTime": "2018-09-20T19:00:00Z", "temp": 13.0, "dewp": 10.0, "wspd": 13, "wgst": 18, "wdir": 90, "ceil": 16, "cover": "OVC", "visib": 20.0, "fltcat": "MVFR", "altim": 1017.7, "slp": 1018.5, "rawOb": "CYQT 201900Z 09013G18KT 20SM OVC016 13/10 A3005 RMK SC8 SLP185"}, "geometry": {"type": "Point", "coordinates": [-89.325, 48.371]}}, {"type": "Feature", "properties": {"id": "CYSB", "site": "Sudbury Arpt", "prior": "2", "obsTime": "2018-09-20T19:24:00Z", "temp": 15.0, "dewp": 13.0, "wspd": 7, "wdir": 110, "ceil": 12, "cover": "OVC", "visib": 20.0, "fltcat": "MVFR", "altim": 1021.1, "slp": 1021.6, "wx": "-SHRA", "rawOb": "CYSB 201924Z 11007KT 20SM -SHRA BKN012 OVC030 15/13 A3015 RMK SF5SC3 VIS LWR W -SHRA SLP216 DENSITY ALT 1200FT"}, "geometry": {"type": "Point", "coordinates": [-80.798, 46.627]}}, {"type": "Feature", "properties": {"id": "KMFR", "site": "Medford/Roque Valley", "prior": "2", "obsTime": "2018-09-20T19:53:00Z", "temp": 20.0, "dewp": 3.3, "wspd": 3, "wdir": 0, "cover": "CLR", "visib": 10.0, "fltcat": "VFR", "altim": 1018.7, "slp": 1018.1, "rawOb": "KMFR 201953Z VRB03KT 10SM CLR 20/03 A3008 RMK AO2 SLP181 T02000033"}, "geometry": {"type": "Point", "coordinates": [-122.874, 42.374]}}, {"type": "Feature", "properties": {"id": "KLND", "site": "Lander/Hunt Fld", "prior": "2", "obsTime": "2018-09-20T20:00:00Z", "temp": 18.3, "dewp": 5.0, "wspd": 19, "wgst": 23, "wdir": 40, "cover": "CLR", "visib": 10.0, "fltcat": "VFR", "altim": 1015.3, "rawOb": "KLND 202000Z AUTO 04019G23KT 10SM CLR 18/05 A2998 RMK AO2 WSHFT 1940 T01830050"}, "geometry": {"type": "Point", "coordinates": [-108.728, 42.816]}}, {"type": "Feature", "properties": {"id": "CWEQ", "site": "Swan River Arpt", "prior": "2", "obsTime": "2018-09-20T19:00:00Z", "temp": 11.2, "dewp": 3.0, "wspd": 2, "wdir": 360, "slp": 1019.9, "rawOb": "CWEQ 201900Z AUTO 36002KT 11/03 RMK AO1 SLP199 T01120030 58022"}, "geometry": {"type": "Point", "coordinates": [-101.235, 52.121]}}, {"type": "Feature", "properties": {"id": "KPDX", "site": "Portland Intl Arpt", "prior": "2", "obsTime": "2018-09-20T19:53:00Z", "temp": 18.9, "dewp": 8.3, "wspd": 3, "wdir": 0, "cover": "SCT", "visib": 10.0, "fltcat": "VFR", "altim": 1021.4, "slp": 1021.1, "rawOb": "KPDX 201953Z VRB03KT 10SM SCT035 SCT250 19/08 A3016 RMK AO2 SLP211 T01890083"}, "geometry": {"type": "Point", "coordinates": [-122.596, 45.59]}}, {"type": "Feature", "properties": {"id": "KBNO", "site": "Burns Muni", "prior": "2", "obsTime": "2018-09-20T19:53:00Z", "temp": 17.2, "dewp": -3.3, "wspd": 9, "wgst": 16, "wdir": 170, "cover": "CLR", "visib": 10.0, "fltcat": "VFR", "altim": 1021.1, "slp": 1019.8, "rawOb": "KBNO 201953Z AUTO 17009G16KT 10SM CLR 17/M03 A3015 RMK AO2 SLP198 T01721033 $"}, "geometry": {"type": "Point", "coordinates": [-118.955, 43.591]}}, {"type": "Feature", "properties": {"id": "CYBC", "site": "Baie Comeau Arpt", "prior": "2", "obsTime": "2018-09-20T19:51:00Z", "temp": 11.0, "dewp": 7.0, "wspd": 5, "wdir": 150, "cover": "SCT", "visib": 9.0, "fltcat": "VFR", "altim": 1023.8, "slp": 1024.1, "rawOb": "CYBC 201951Z AUTO 15005KT 120V200 9SM SCT014 11/07 A3023 RMK SLP241"}, "geometry": {"type": "Point", "coordinates": [-68.202, 49.133]}}, {"type": "Feature", "properties": {"id": "CYQL", "site": "Lethbridge Cnty Arpt", "prior": "2", "obsTime": "2018-09-20T19:00:00Z", "temp": 11.0, "dewp": 6.0, "wspd": 7, "wdir": 10, "ceil": 26, "cover": "BKN", "visib": 30.0, "fltcat": "MVFR", "altim": 1016.3, "slp": 1018.5, "rawOb": "CYQL 201900Z 01007KT 30SM BKN026 11/06 A3001 RMK SC7 SLP185 DENSITY ALT 3200FT"}, "geometry": {"type": "Point", "coordinates": [-112.795, 49.629]}}, {"type": "Feature", "properties": {"id": "CYAH", "site": "La Grande IV Arpt", "prior": "2", "obsTime": "2018-09-20T19:56:00Z", "temp": 7.0, "dewp": 2.0, "wspd": 13, "wdir": 310, "ceil": 42, "cover": "BKN", "visib": 9.0, "fltcat": "VFR", "altim": 1020.7, "slp": 1022.3, "wx": "-RA", "rawOb": "CYAH 201956Z AUTO 31013KT 9SM -RA FEW031 SCT035 BKN042 BKN050 07/02 A3014 RMK SLP223"}, "geometry": {"type": "Point", "coordinates": [-73.677, 53.754]}}, {"type": "Feature", "properties": {"id": "KSAW", "site": "Sawyer AFB", "prior": "2", "obsTime": "2018-09-20T19:50:00Z", "temp": 15.0, "dewp": 14.0, "wspd": 6, "wdir": 80, "ceil": 4, "cover": "OVC", "visib": 7.0, "fltcat": "LIFR", "altim": 1014.6, "wx": "-RA", "rawOb": "KSAW 201950Z 08006KT 7SM -RA OVC004 15/14 A2996"}, "geometry": {"type": "Point", "coordinates": [-87.396, 46.351]}}, {"type": "Feature", "properties": {"id": "KPIR", "site": "Pierre Muni", "prior": "2", "obsTime": "2018-09-20T19:53:00Z", "temp": 12.8, "dewp": 12.2, "wspd": 11, "wdir": 340, "ceil": 5, "cover": "OVC", "visib": 10.0, "fltcat": "IFR", "altim": 1006.9, "slp": 1006.4, "rawOb": "KPIR 201953Z AUTO 34011KT 10SM BKN005 OVC012 13/12 A2973 RMK AO2 RAE39 SLP064 P0001 T01280122"}, "geometry": {"type": "Point", "coordinates": [-100.288, 44.38]}}, {"type": "Feature", "properties": {"id": "TBPB", "site": "Bridgetown/Adams Int", "prior": "2", "obsTime": "2018-09-20T20:00:00Z", "temp": 30.0, "dewp": 24.0, "wspd": 18, "wdir": 80, "cover": "SCT", "visib": 6.21, "fltcat": "VFR", "altim": 1012.0, "rawOb": "TBPB 202000Z 08018KT 9999 SCT022 30/24 Q1012 NOSIG"}, "geometry": {"type": "Point", "coordinates": [-59.491, 13.075]}}, {"type": "Feature", "properties": {"id": "KTUS", "site": "Tucson Intl Arpt", "prior": "2", "obsTime": "2018-09-20T19:53:00Z", "temp": 28.9, "dewp": 16.7, "wspd": 6, "wdir": 310, "cover": "CLR", "visib": 10.0, "fltcat": "VFR", "altim": 1013.6, "slp": 1009.2, "rawOb": "KTUS 201953Z 31006KT 10SM CLR 29/17 A2993 RMK AO2 SLP092 T02890167"}, "geometry": {"type": "Point", "coordinates": [-110.94, 32.12]}}, {"type": "Feature", "properties": {"id": "CWSA", "site": "Sable Island", "prior": "2", "obsTime": "2018-09-20T19:00:00Z", "temp": 14.0, "dewp": 6.0, "ceil": 42, "cover": "OVC", "visib": 9.0, "fltcat": "VFR", "rawOb": "CWSA 201900Z AUTO /////KT 9SM OVC042 14/06 RMK WND MISG PRES MISG DENSITY ALT MISG"}, "geometry": {"type": "Point", "coordinates": [-60.009, 43.932]}}, {"type": "Feature", "properties": {"id": "KTYS", "site": "Knoxville/Tyson Arpt", "prior": "2", "obsTime": "2018-09-20T19:53:00Z", "temp": 31.7, "dewp": 20.0, "wspd": 4, "wdir": 290, "cover": "FEW", "visib": 10.0, "fltcat": "VFR", "altim": 1018.7, "slp": 1017.3, "rawOb": "KTYS 201953Z 29004KT 10SM FEW050 32/20 A3008 RMK AO2 SLP173 T03170200"}, "geometry": {"type": "Point", "coordinates": [-83.994, 35.812]}}, {"type": "Feature", "properties": {"id": "CYQI", "site": "Yarmouth Arpt", "prior": "2", "obsTime": "2018-09-20T19:00:00Z", "temp": 17.0, "dewp": 10.0, "wspd": 12, "wdir": 320, "ceil": 240, "cover": "BKN", "visib": 15.0, "fltcat": "VFR", "altim": 1023.1, "slp": 1023.3, "rawOb": "CYQI 201900Z 32012KT 15SM SCT037 BKN240 17/10 A3021 RMK SC3CI4 CC ASOCTD SLP233"}, "geometry": {"type": "Point", "coordinates": [-66.084, 43.83]}}, {"type": "Feature", "properties": {"id": "KEYW", "site": "Key West Intl", "prior": "2", "obsTime": "2018-09-20T19:53:00Z", "temp": 33.9, "dewp": 25.0, "wspd": 5, "wdir": 0, "cover": "CLR", "visib": 10.0, "fltcat": "VFR", "altim": 1015.7, "slp": 1015.5, "rawOb": "KEYW 201953Z VRB05KT 10SM CLR 34/25 A2999 RMK AO2 SLP155 T03390250"}, "geometry": {"type": "Point", "coordinates": [-81.759, 24.555]}}, {"type": "Feature", "properties": {"id": "CWJW", "site": "Jasper/Warden(AUTO)", "prior": "2", "obsTime": "2018-09-20T19:00:00Z", "temp": 5.8, "dewp": 1.1, "wspd": 7, "wgst": 16, "wdir": 360, "slp": 1022.2, "rawOb": "CWJW 201900Z AUTO 36007G16KT 06/01 RMK AO1 SLP222 T00580011 51008"}, "geometry": {"type": "Point", "coordinates": [-118.03, 52.926]}}, {"type": "Feature", "properties": {"id": "TTPP", "site": "Port of Spain/Piarco", "prior": "2", "obsTime": "2018-09-20T19:00:00Z", "temp": 29.0, "dewp": 26.0, "wspd": 6, "wdir": 150, "ceil": 16, "cover": "BKN", "visib": 3.73, "fltcat": "MVFR", "altim": 1011.0, "wx": "VCSH", "rawOb": "TTPP 201900Z 15006KT 6000 VCSH FEW012CB BKN016TCU 29/26 Q1011 NOSIG RMK CB- WSW/W TCU- SE"}, "geometry": {"type": "Point", "coordinates": [-61.336, 10.595]}}, {"type": "Feature", "properties": {"id": "KAMA", "site": "Amarillo Intl Arpt", "prior": "2", "obsTime": "2018-09-20T19:53:00Z", "temp": 31.1, "dewp": 12.2, "wspd": 17, "wgst": 26, "wdir": 170, "cover": "FEW", "visib": 10.0, "fltcat": "VFR", "altim": 1012.6, "slp": 1006.6, "rawOb": "KAMA 201953Z AUTO 17017G26KT 10SM FEW065 31/12 A2990 RMK AO2 PK WND 19034/1917 SLP066 T03110122"}, "geometry": {"type": "Point", "coordinates": [-101.71, 35.223]}}, {"type": "Feature", "properties": {"id": "MKJP", "site": "Kingston/Manley Intl", "prior": "2", "obsTime": "2018-09-20T20:00:00Z", "temp": 33.0, "dewp": 22.0, "wspd": 22, "wdir": 130, "cover": "SCT", "visib": 6.21, "fltcat": "VFR", "altim": 1010.0, "rawOb": "MKJP 202000Z 13022KT 9999 SCT022 33/22 Q1010"}, "geometry": {"type": "Point", "coordinates": [-76.787, 17.936]}}, {"type": "Feature", "properties": {"id": "KGRI", "site": "Grand Island Rgnl", "prior": "2", "obsTime": "2018-09-20T19:53:00Z", "temp": 30.0, "dewp": 19.4, "wspd": 16, "wgst": 29, "wdir": 280, "ceil": 60, "cover": "BKN", "visib": 10.0, "fltcat": "VFR", "altim": 1006.2, "slp": 1004.4, "rawOb": "KGRI 201953Z 28016G29KT 10SM SCT050 BKN060 30/19 A2971 RMK AO2 PK WND 23032/1921 LTG DSNT E SLP044 T03000194"}, "geometry": {"type": "Point", "coordinates": [-98.314, 40.969]}}, {"type": "Feature", "properties": {"id": "SKSP", "site": "San Andres Isl Arpt", "prior": "2", "obsTime": "2018-09-20T20:00:00Z", "temp": 26.0, "dewp": 24.0, "wspd": 8, "wdir": 70, "ceil": 70, "cover": "OVC", "visib": 6.21, "fltcat": "VFR", "altim": 1007.9, "rawOb": "SKSP 202000Z 07008KT 030V120 9999 FEW012 OVC070 26/24 A2976 RETSRA"}, "geometry": {"type": "Point", "coordinates": [-81.712, 12.584]}}, {"type": "Feature", "properties": {"id": "KDRT", "site": "Del Rio Intl", "prior": "2", "obsTime": "2018-09-20T19:53:00Z", "temp": 26.1, "dewp": 24.4, "wspd": 8, "wdir": 150, "ceil": 36, "cover": "OVC", "visib": 10.0, "fltcat": "VFR", "altim": 1011.9, "slp": 1010.3, "wx": "-RA", "rawOb": "KDRT 201953Z AUTO 15008KT 10SM -RA SCT017 BKN036 OVC120 26/24 A2988 RMK AO2 SLP103 P0000 T02610244 $"}, "geometry": {"type": "Point", "coordinates": [-100.926, 29.372]}}, {"type": "Feature", "properties": {"id": "CWZV", "site": "Cape St James", "prior": "2", "obsTime": "2018-09-20T19:00:00Z", "temp": 12.3, "dewp": 11.7, "wspd": 14, "wgst": 22, "wdir": 130, "slp": 1015.0, "rawOb": "CWZV 201900Z AUTO 13014G22KT 12/12 RMK AO1 PK WND 12022/1858 SLP150 T01230117 50000"}, "geometry": {"type": "Point", "coordinates": [-131.016, 51.936]}}, {"type": "Feature", "properties": {"id": "MYNN", "site": "Nassau Intl", "prior": "2", "obsTime": "2018-09-20T20:00:00Z", "temp": 31.0, "dewp": 24.0, "wspd": 7, "wdir": 50, "cover": "SCT", "visib": 6.21, "fltcat": "VFR", "altim": 1016.7, "rawOb": "MYNN 202000Z 05007KT 360V100 9999 SCT015CB SCT018TCU 31/24 A3002 RMK CB/TCU SCT ALQDS"}, "geometry": {"type": "Point", "coordinates": [-77.465, 25.042]}}, {"type": "Feature", "properties": {"id": "KTCS", "site": "Truth or Consequence", "prior": "2", "obsTime": "2018-09-20T19:53:00Z", "temp": 20.0, "dewp": 15.0, "wspd": 3, "wdir": 0, "ceil": 65, "cover": "BKN", "visib": 10.0, "fltcat": "VFR", "altim": 1016.7, "slp": 1009.9, "rawOb": "KTCS 201953Z AUTO VRB03KT 10SM BKN065 20/15 A3002 RMK AO2 SLP099 T02000150"}, "geometry": {"type": "Point", "coordinates": [-107.27, 33.234]}}, {"type": "Feature", "properties": {"id": "CYGX", "site": "Gillam Arpt", "prior": "2", "obsTime": "2018-09-20T19:00:00Z", "temp": 7.0, "dewp": 0.0, "wspd": 10, "wgst": 16, "wdir": 260, "cover": "FEW", "visib": 15.0, "fltcat": "VFR", "altim": 1018.4, "slp": 1019.4, "rawOb": "CYGX 201900Z 26010G16KT 220V290 15SM FEW015 FEW120 07/M00 A3007 RMK SC1AS1 AS TR SLP194"}, "geometry": {"type": "Point", "coordinates": [-94.711, 56.357]}}, {"type": "Feature", "properties": {"id": "TNCC", "site": "Curacao/Hato Intl", "prior": "2", "obsTime": "2018-09-20T19:33:00Z", "temp": 33.0, "dewp": 23.0, "wspd": 15, "wdir": 110, "cover": "CLR", "visib": 6.21, "fltcat": "VFR", "altim": 1009.0, "rawOb": "TNCC 201933Z AUTO 11015KT 9999 NCD 33/23 Q1009 NOSIG "}, "geometry": {"type": "Point", "coordinates": [-68.96, 12.188]}}, {"type": "Feature", "properties": {"id": "CWPK", "site": "Parent(MARS)", "prior": "2", "obsTime": "2018-09-20T19:00:00Z", "temp": 15.4, "dewp": 5.7, "wspd": 2, "wdir": 310, "slp": 1024.0, "rawOb": "CWPK 201900Z AUTO 31002KT 15/06 RMK AO1 SLP240 T01540057 58005"}, "geometry": {"type": "Point", "coordinates": [-74.624, 47.922]}}, {"type": "Feature", "properties": {"id": "MHLM", "site": "San Pedro Sula/Moral", "prior": "2", "obsTime": "2018-09-20T20:00:00Z", "temp": 32.0, "dewp": 25.0, "wspd": 11, "wdir": 30, "ceil": 28, "cover": "BKN", "visib": 6.21, "fltcat": "MVFR", "altim": 1009.0, "rawOb": "MHLM 202000Z 03011KT 9999 BKN028TCU SCT250 32/25 Q1009 A2980 RERA NOSIG"}, "geometry": {"type": "Point", "coordinates": [-87.923, 15.453]}}, {"type": "Feature", "properties": {"id": "CYTL", "site": "Big Trout Lake Arpt", "prior": "2", "obsTime": "2018-09-20T19:00:00Z", "temp": 13.0, "dewp": 3.0, "wspd": 8, "wdir": 220, "ceil": 41, "cover": "BKN", "visib": 9.0, "fltcat": "VFR", "altim": 1020.4, "slp": 1021.6, "rawOb": "CYTL 201900Z AUTO 22008KT 9SM BKN041 13/03 A3013 RMK SLP216"}, "geometry": {"type": "Point", "coordinates": [-89.898, 53.818]}}, {"type": "Feature", "properties": {"id": "KMRF", "site": "Marfa Muni", "prior": "2", "obsTime": "2018-09-20T19:56:00Z", "temp": 22.2, "dewp": 16.1, "wspd": 15, "wdir": 180, "visib": 10.0, "altim": 1016.7, "slp": 1011.5, "rawOb": "KMRF 201956Z AUTO 18015KT 10SM 22/16 A3002 RMK AO2 SLP115 T02220161 $"}, "geometry": {"type": "Point", "coordinates": [-104.016, 30.37]}}, {"type": "Feature", "properties": {"id": "MGMM", "site": "Mundo Maya Intl", "prior": "2", "obsTime": "2018-09-20T20:00:00Z", "temp": 28.0, "dewp": 25.0, "wspd": 6, "wdir": 230, "cover": "SCT", "visib": 6.21, "fltcat": "VFR", "altim": 1012.0, "wx": "TS TS", "rawOb": "MGMM 202000Z 23006KT 9999 TS SCT020 FEW025CB SCT090 28/25 Q1012 A2988 CB/TS/PCPN ENE/E/SW CB E"}, "geometry": {"type": "Point", "coordinates": [-89.866, 16.914]}}, {"type": "Feature", "properties": {"id": "PAWG", "site": "Wrangell Arpt", "prior": "2", "obsTime": "2018-09-20T19:56:00Z", "temp": 10.0, "dewp": 4.0, "wspd": 3, "wdir": 340, "cover": "FEW", "visib": 10.0, "fltcat": "VFR", "altim": 1019.0, "rawOb": "PAWG 201956Z 34003KT 10SM FEW070 10/04 A3009"}, "geometry": {"type": "Point", "coordinates": [-132.37, 56.484]}}, {"type": "Feature", "properties": {"id": "MNMG", "site": "Managua Intl", "prior": "2", "obsTime": "2018-09-20T19:00:00Z", "temp": 28.0, "dewp": 25.0, "wspd": 16, "wdir": 90, "cover": "SCT", "visib": 6.21, "fltcat": "VFR", "altim": 1007.0, "rawOb": "MNMG 201900Z 09016KT 9999 SCT024 28/25 Q1007 A2976 BECMG 9000 -RA"}, "geometry": {"type": "Point", "coordinates": [-86.168, 12.142]}}, {"type": "Feature", "properties": {"id": "CYYL", "site": "Lynn Lake Arpt", "prior": "2", "obsTime": "2018-09-20T19:00:00Z", "temp": 2.0, "dewp": -1.0, "wspd": 8, "wdir": 260, "ceil": 41, "cover": "OVC", "visib": 9.0, "fltcat": "VFR", "altim": 1019.4, "slp": 1021.8, "rawOb": "CYYL 201900Z AUTO 26008KT 240V310 9SM BKN041 BKN075 OVC092 02/M01 A3010 RMK SLP218"}, "geometry": {"type": "Point", "coordinates": [-101.071, 56.865]}}, {"type": "Feature", "properties": {"id": "CYIV", "site": "Island Lake Arpt", "prior": "2", "obsTime": "2018-09-20T19:00:00Z", "temp": 13.0, "dewp": 4.0, "wspd": 5, "wdir": 270, "cover": "SCT", "visib": 15.0, "fltcat": "VFR", "altim": 1018.7, "slp": 1019.7, "rawOb": "CYIV 201900Z 27005KT 220V300 15SM SCT022 13/04 A3008 RMK SC3 SLP197"}, "geometry": {"type": "Point", "coordinates": [-94.655, 53.857]}}, {"type": "Feature", "properties": {"id": "MHCA", "site": "Catacamas Arpt", "prior": "2", "obsTime": "2018-09-20T20:00:00Z", "temp": 25.0, "dewp": 20.0, "wspd": 8, "wdir": 60, "ceil": 70, "cover": "BKN", "visib": 6.21, "fltcat": "VFR", "wx": "-TSRA VCSH TS HZ", "rawOb": "MHCA 202000Z 06008KT 9999 -TSRA SCT028TCU SCT030CB BKN070 25/20 CB TS TCU NW W VCSH ALL HZ"}, "geometry": {"type": "Point", "coordinates": [-85.775, 14.875]}}, {"type": "Feature", "properties": {"id": "CWCT", "site": "Coronation Arpt", "prior": "2", "obsTime": "2018-09-20T19:00:00Z", "temp": 8.7, "dewp": 6.7, "wspd": 2, "wdir": 330, "slp": 1020.5, "rawOb": "CWCT 201900Z AUTO 33002KT 09/07 RMK AO1 SLP205 T00870067 51006"}, "geometry": {"type": "Point", "coordinates": [-111.447, 52.076]}}, {"type": "Feature", "properties": {"id": "CYRL", "site": "Red Lake Arpt", "prior": "2", "obsTime": "2018-09-20T19:00:00Z", "temp": 10.0, "dewp": -1.0, "wspd": 5, "wdir": 90, "ceil": 260, "cover": "OVC", "visib": 15.0, "fltcat": "VFR", "altim": 1019.0, "slp": 1020.7, "rawOb": "CYRL 201900Z 09005KT 15SM FEW100 OVC260 10/M01 A3009 RMK AC1CS7 HALO WND ESTD SLP207"}, "geometry": {"type": "Point", "coordinates": [-93.795, 51.067]}}, {"type": "Feature", "properties": {"id": "TNCM", "site": "St Maarten Intl", "prior": "2", "obsTime": "2018-09-20T20:00:00Z", "temp": 31.0, "dewp": 23.0, "wspd": 8, "wdir": 90, "cover": "FEW", "visib": 6.21, "fltcat": "VFR", "altim": 1015.0, "rawOb": "TNCM 202000Z 09008KT 050V140 9999 FEW022 31/23 Q1015 NOSIG RMK A2998/ HZ ALQDS"}, "geometry": {"type": "Point", "coordinates": [-63.106, 18.041]}}, {"type": "Feature", "properties": {"id": "MPDA", "site": "David/Malek Intl", "prior": "2", "obsTime": "2018-09-20T20:00:00Z", "temp": 30.0, "dewp": 25.0, "wspd": 7, "wdir": 220, "cover": "SCT", "visib": 6.21, "fltcat": "VFR", "altim": 1005.0, "rawOb": "MPDA 202000Z 22007KT 9999 SCT015 SCT080 30/25 Q1005"}, "geometry": {"type": "Point", "coordinates": [-82.435, 8.391]}}, {"type": "Feature", "properties": {"id": "MMPR", "site": "Puerto Vallarta Intl", "prior": "2", "obsTime": "2018-09-20T19:42:00Z", "temp": 31.0, "dewp": 27.0, "wspd": 8, "wdir": 230, "ceil": 270, "cover": "BKN", "visib": 15.0, "fltcat": "VFR", "altim": 1010.6, "rawOb": "MMPR 201942Z 23008KT 15SM BKN270 31/27 A2984 RMK 8/001 DSNT MDT CU ALQDS"}, "geometry": {"type": "Point", "coordinates": [-105.252, 20.682]}}, {"type": "Feature", "properties": {"id": "MMUN", "site": "Cancun Intl", "prior": "2", "obsTime": "2018-09-20T19:42:00Z", "temp": 31.0, "dewp": 25.0, "wspd": 11, "wdir": 110, "ceil": 15, "cover": "BKN", "visib": 7.0, "fltcat": "MVFR", "altim": 1014.0, "rawOb": "MMUN 201942Z 11011KT 7SM BKN015TCU 31/25 A2994 RMK 8/200 CI"}, "geometry": {"type": "Point", "coordinates": [-86.869, 21.038]}}, {"type": "Feature", "properties": {"id": "MMTG", "site": "Tuxtla Gutierre Intl", "prior": "2", "obsTime": "2018-09-20T19:46:00Z", "temp": 31.0, "dewp": 21.0, "wspd": 2, "wdir": 320, "cover": "SCT", "visib": 8.0, "fltcat": "VFR", "altim": 1011.9, "rawOb": "MMTG 201946Z 32002KT 8SM SCT025TCU SCT300 31/21 A2988 RMK 8/206"}, "geometry": {"type": "Point", "coordinates": [-93.026, 16.561]}}, {"type": "Feature", "properties": {"id": "MMAA", "site": "Acapulco/Alvarez Int", "prior": "2", "obsTime": "2018-09-20T19:45:00Z", "temp": 31.0, "dewp": 26.0, "wspd": 5, "wdir": 190, "ceil": 300, "cover": "BKN", "visib": 8.0, "fltcat": "VFR", "altim": 1009.6, "rawOb": "MMAA 201945Z 19005KT 8SM FEW015 BKN300 31/26 A2981 RMK 8/102 HZY"}, "geometry": {"type": "Point", "coordinates": [-99.754, 16.757]}}, {"type": "Feature", "properties": {"id": "MNBL", "site": "Bluefields Arpt", "prior": "2", "obsTime": "2018-09-20T19:00:00Z", "temp": 25.0, "dewp": 24.0, "wspd": 4, "wdir": 340, "cover": "SCT", "visib": 4.97, "fltcat": "MVFR", "altim": 1009.0, "wx": "-TS RA", "rawOb": "MNBL 201900Z 34004KT 8000 -TS FEW017CB SCT070 25/24 Q1009 CBRA/N/NE/E"}, "geometry": {"type": "Point", "coordinates": [-83.773, 11.991]}}, {"type": "Feature", "properties": {"id": "MMMM", "site": "Morelia/Mujica Intl", "prior": "2", "obsTime": "2018-09-20T19:43:00Z", "temp": 26.0, "dewp": 13.0, "wspd": 0, "wdir": 0, "cover": "SCT", "visib": 8.0, "fltcat": "VFR", "altim": 1022.1, "rawOb": "MMMM 201943Z 00000KT 8SM SCT020TCU 26/13 A3018 RMK 8/200 DSNT/CB/E/SW CI"}, "geometry": {"type": "Point", "coordinates": [-101.027, 19.85]}}, {"type": "Feature", "properties": {"id": "MMDO", "site": "Durango/Victoria Int", "prior": "2", "obsTime": "2018-09-20T19:49:00Z", "temp": 25.0, "dewp": 11.0, "wspd": 6, "wdir": 150, "ceil": 200, "cover": "BKN", "visib": 14.0, "fltcat": "VFR", "altim": 1022.4, "rawOb": "MMDO 201949Z 15006KT 14SM FEW025 BKN200 25/11 A3019 RMK 8/108"}, "geometry": {"type": "Point", "coordinates": [-104.527, 24.126]}}, {"type": "Feature", "properties": {"id": "MMOX", "site": "Xoxocotlan Intl", "prior": "2", "obsTime": "2018-09-20T19:50:00Z", "temp": 24.0, "dewp": 11.0, "wspd": 0, "wdir": 0, "ceil": 25, "cover": "OVC", "visib": 10.0, "fltcat": "MVFR", "altim": 1020.7, "rawOb": "MMOX 201950Z 00000KT 10SM BKN025 OVC100 24/11 A3014 RMK 8/77/ BINOVC"}, "geometry": {"type": "Point", "coordinates": [-96.726, 17.001]}}, {"type": "Feature", "properties": {"id": "MMVR", "site": "Veracruz/Jara Intl", "prior": "2", "obsTime": "2018-09-20T19:43:00Z", "temp": 30.0, "dewp": 24.0, "wspd": 0, "wdir": 0, "ceil": 70, "cover": "BKN", "visib": 7.0, "fltcat": "VFR", "altim": 1011.6, "rawOb": "MMVR 201943Z 00000KT 7SM FEW015 BKN070 BKN200 30/24 A2987 RMK 8/128 HZY ISOL TCU"}, "geometry": {"type": "Point", "coordinates": [-96.188, 19.146]}}, {"type": "Feature", "properties": {"id": "MMMY", "site": "Monterrey Intl", "prior": "2", "obsTime": "2018-09-20T19:45:00Z", "temp": 30.0, "dewp": 20.0, "wspd": 11, "wdir": 130, "ceil": 30, "cover": "BKN", "visib": 6.0, "fltcat": "MVFR", "altim": 1012.6, "rawOb": "MMMY 201945Z 13011KT 6SM BKN030 BKN080 30/20 A2990 RMK 8/530 HZY"}, "geometry": {"type": "Point", "coordinates": [-100.107, 25.778]}}, {"type": "Feature", "properties": {"id": "MMAS", "site": "Aguascalientes Arpt", "prior": "2", "obsTime": "2018-09-20T19:41:00Z", "temp": 24.0, "dewp": 11.0, "wspd": 2, "wdir": 280, "ceil": 200, "cover": "BKN", "visib": 9.0, "fltcat": "VFR", "altim": 1023.8, "rawOb": "MMAS 201941Z 28002KT 9SM SCT025 SCT050TCU BKN200 24/11 A3023 RMK 8/201 HZY"}, "geometry": {"type": "Point", "coordinates": [-102.318, 21.702]}}, {"type": "Feature", "properties": {"id": "MMLT", "site": "Loreto Intl", "prior": "2", "obsTime": "2018-09-20T19:40:00Z", "temp": 32.0, "dewp": 20.0, "wspd": 10, "wdir": 50, "cover": "SCT", "visib": 8.0, "fltcat": "VFR", "altim": 1008.9, "rawOb": "MMLT 201940Z 05010KT 8SM FEW060 SCT120 32/20 A2979 RMK 8/130 HZY DSNT CB E"}, "geometry": {"type": "Point", "coordinates": [-111.348, 25.992]}}, {"type": "Feature", "properties": {"id": "MMMZ", "site": "Mazatlan/Buelna Intl", "prior": "2", "obsTime": "2018-09-20T19:42:00Z", "temp": 33.0, "dewp": 24.0, "wspd": 7, "wdir": 260, "ceil": 240, "cover": "BKN", "visib": 15.0, "fltcat": "VFR", "altim": 1011.9, "rawOb": "MMMZ 201942Z 26007KT 15SM FEW018CB BKN240 33/24 A2988 RMK 8/302"}, "geometry": {"type": "Point", "coordinates": [-106.269, 23.161]}}, {"type": "Feature", "properties": {"id": "MMTP", "site": "Tapachula Intl", "prior": "2", "obsTime": "2018-09-20T19:40:00Z", "temp": 33.0, "dewp": 26.0, "wspd": 8, "wdir": 270, "cover": "SCT", "visib": 12.0, "fltcat": "VFR", "altim": 1008.2, "rawOb": "MMTP 201940Z 27008KT 12SM SCT025 33/26 A2977 RMK 8/100 DSNT TCU 1ST QUAD"}, "geometry": {"type": "Point", "coordinates": [-92.371, 14.794]}}, {"type": "Feature", "properties": {"id": "MMCV", "site": "Ciudad Victoria Intl", "prior": "2", "obsTime": "2018-09-20T19:42:00Z", "temp": 32.0, "dewp": 19.0, "wspd": 20, "wdir": 140, "cover": "SCT", "visib": 10.0, "fltcat": "VFR", "altim": 1012.3, "rawOb": "MMCV 201942Z 14020KT 10SM SCT020TCU SCT200 32/19 A2989 RMK 8/209 CB SE"}, "geometry": {"type": "Point", "coordinates": [-98.957, 23.704]}}, {"type": "Feature", "properties": {"id": "MMCL", "site": "Culiacan/Bachigualat", "prior": "2", "obsTime": "2018-09-20T18:53:00Z", "temp": 23.0, "dewp": 23.0, "wspd": 4, "wdir": 80, "ceil": 20, "cover": "OVC", "visib": 5.0, "fltcat": "MVFR", "altim": 1013.3, "rawOb": "MMCL 201853Z 08004KT 5SM SCT010 BKN020 OVC080 23/23 A2992 RMK 8/72/ BINOVC COND VRBS RA INTMT"}, "geometry": {"type": "Point", "coordinates": [-107.474, 24.766]}}, {"type": "Feature", "properties": {"id": "KDAB", "site": "Daytona Beach Intl", "prior": "3", "obsTime": "2018-09-20T19:53:00Z", "temp": 31.1, "dewp": 24.4, "wspd": 11, "wdir": 40, "cover": "SCT", "visib": 10.0, "fltcat": "VFR", "altim": 1017.0, "slp": 1016.7, "rawOb": "KDAB 201953Z 04011KT 10SM FEW026 SCT037 SCT150 31/24 A3003 RMK AO2 SLP167 T03110244"}, "geometry": {"type": "Point", "coordinates": [-81.057, 29.181]}}, {"type": "Feature", "properties": {"id": "TFFF", "site": "Le Lamentin/Cesaire", "prior": "3", "obsTime": "2018-09-20T20:00:00Z", "temp": 30.0, "dewp": 23.0, "wspd": 13, "wdir": 90, "ceil": 29, "cover": "BKN", "visib": 6.21, "fltcat": "MVFR", "altim": 1013.0, "rawOb": "TFFF 202000Z AUTO 09013KT 9999 BKN029 BKN037 30/23 Q1013 NOSIG"}, "geometry": {"type": "Point", "coordinates": [-61.002, 14.591]}}, {"type": "Feature", "properties": {"id": "KPBI", "site": "Palm Beach Intl", "prior": "3", "obsTime": "2018-09-20T19:53:00Z", "temp": 31.7, "dewp": 24.4, "wspd": 14, "wdir": 100, "cover": "SCT", "visib": 10.0, "fltcat": "VFR", "altim": 1016.0, "slp": 1015.8, "rawOb": "KPBI 201953Z 10014KT 10SM SCT035 SCT150 SCT250 32/24 A3000 RMK AO2 LTG DSNT SW AND W SLP158 CB DSNT SW-NW T03170244"}, "geometry": {"type": "Point", "coordinates": [-80.093, 26.683]}}, {"type": "Feature", "properties": {"id": "KMCO", "site": "Orlando Intl", "prior": "3", "obsTime": "2018-09-20T19:53:00Z", "temp": 32.2, "dewp": 22.8, "wspd": 10, "wdir": 100, "cover": "SCT", "visib": 10.0, "fltcat": "VFR", "altim": 1016.0, "slp": 1015.6, "rawOb": "KMCO 201953Z 10010KT 070V130 10SM SCT050CB SCT090 SCT250 32/23 A3000 RMK AO2 RAB13E25 SLP156 CB SW MOV SW P0000 T03220228"}, "geometry": {"type": "Point", "coordinates": [-81.309, 28.424]}}, {"type": "Feature", "properties": {"id": "PAKT", "site": "Ketchikan Intl", "prior": "3", "obsTime": "2018-09-20T19:53:00Z", "temp": 14.4, "dewp": 7.8, "wspd": 5, "wdir": 360, "cover": "CLR", "visib": 10.0, "fltcat": "VFR", "altim": 1018.4, "slp": 1018.3, "rawOb": "PAKT 201953Z 36005KT 10SM CLR 14/08 A3007 RMK AO2 SLP183 HARBOR WND 18006KT T01440078"}, "geometry": {"type": "Point", "coordinates": [-131.711, 55.354]}}, {"type": "Feature", "properties": {"id": "KACY", "site": "Atlantic City Intl", "prior": "3", "obsTime": "2018-09-20T19:54:00Z", "temp": 22.8, "dewp": 17.2, "wspd": 9, "wdir": 80, "ceil": 25, "cover": "OVC", "visib": 10.0, "fltcat": "MVFR", "altim": 1023.1, "slp": 1023.0, "rawOb": "KACY 201954Z 08009KT 10SM BKN025 OVC032 23/17 A3021 RMK AO2 SLP230 T02280172"}, "geometry": {"type": "Point", "coordinates": [-74.575, 39.457]}}, {"type": "Feature", "properties": {"id": "KROX", "site": "Roseau/Billberg Fld", "prior": "3", "obsTime": "2018-09-20T19:56:00Z", "temp": 14.0, "dewp": 11.0, "wspd": 17, "wdir": 50, "ceil": 16, "cover": "OVC", "visib": 10.0, "fltcat": "MVFR", "altim": 1013.6, "rawOb": "KROX 201956Z AUTO 05017KT 10SM OVC016 14/11 A2993 RMK AO2"}, "geometry": {"type": "Point", "coordinates": [-95.698, 48.857]}}, {"type": "Feature", "properties": {"id": "KCOS", "site": "Colorado Spring Muni", "prior": "3", "obsTime": "2018-09-20T19:54:00Z", "temp": 23.9, "dewp": 7.2, "wspd": 11, "wgst": 16, "wdir": 150, "ceil": 250, "cover": "BKN", "visib": 10.0, "fltcat": "VFR", "altim": 1014.3, "slp": 1005.2, "rawOb": "KCOS 201954Z 15011G16KT 110V170 10SM SCT080 BKN250 24/07 A2995 RMK AO2 SLP052 T02390072"}, "geometry": {"type": "Point", "coordinates": [-104.7, 38.8]}}, {"type": "Feature", "properties": {"id": "KAVP", "site": "Wilkes-Barre/Scranto", "prior": "3", "obsTime": "2018-09-20T19:54:00Z", "temp": 22.8, "dewp": 16.7, "wspd": 5, "wdir": 0, "ceil": 42, "cover": "OVC", "visib": 9.0, "fltcat": "VFR", "altim": 1022.1, "slp": 1021.4, "rawOb": "KAVP 201954Z VRB05KT 9SM OVC042 23/17 A3018 RMK AO2 SLP214 T02280167"}, "geometry": {"type": "Point", "coordinates": [-75.725, 41.336]}}, {"type": "Feature", "properties": {"id": "KSBN", "site": "South Bend Rgnl", "prior": "3", "obsTime": "2018-09-20T19:54:00Z", "temp": 26.1, "dewp": 18.9, "wspd": 15, "wdir": 140, "cover": "SCT", "visib": 10.0, "fltcat": "VFR", "altim": 1013.3, "slp": 1012.4, "wx": "VCTS", "rawOb": "KSBN 201954Z 14015KT 10SM VCTS FEW044 FEW065 SCT080 26/19 A2992 RMK AO2 PK WND 18028/1933 LTG DSNT NE AND W TSB35E50 SLP124 T02610189"}, "geometry": {"type": "Point", "coordinates": [-86.314, 41.705]}}, {"type": "Feature", "properties": {"id": "KRFD", "site": "Rockford Intl", "prior": "3", "obsTime": "2018-09-20T19:54:00Z", "temp": 30.6, "dewp": 20.6, "wspd": 9, "wdir": 200, "cover": "SCT", "visib": 10.0, "fltcat": "VFR", "altim": 1010.6, "slp": 1010.0, "rawOb": "KRFD 201954Z 20009KT 10SM FEW038CB SCT250 31/21 A2984 RMK AO2 SLP100 CB S MOV NE T03060206"}, "geometry": {"type": "Point", "coordinates": [-89.1, 42.197]}}, {"type": "Feature", "properties": {"id": "KROC", "site": "Rochester Intl Arpt", "prior": "3", "obsTime": "2018-09-20T19:54:00Z", "temp": 22.2, "dewp": 15.0, "wspd": 4, "wdir": 90, "ceil": 140, "cover": "BKN", "visib": 10.0, "fltcat": "VFR", "altim": 1021.1, "slp": 1021.1, "rawOb": "KROC 201954Z 09004KT 10SM FEW060 BKN140 BKN210 22/15 A3015 RMK AO2 SLP211 T02220150"}, "geometry": {"type": "Point", "coordinates": [-77.673, 43.122]}}, {"type": "Feature", "properties": {"id": "KROA", "site": "Roanoke Rgnl", "prior": "3", "obsTime": "2018-09-20T19:54:00Z", "temp": 29.4, "dewp": 21.7, "wspd": 7, "wdir": 150, "ceil": 110, "cover": "BKN", "visib": 10.0, "fltcat": "VFR", "altim": 1021.1, "slp": 1019.8, "rawOb": "KROA 201954Z 15007KT 10SM SCT038 BKN110 29/22 A3015 RMK AO2 SLP198 T02940217 $"}, "geometry": {"type": "Point", "coordinates": [-79.977, 37.325]}}, {"type": "Feature", "properties": {"id": "KLEX", "site": "Lexington/Blue Grass", "prior": "3", "obsTime": "2018-09-20T19:54:00Z", "temp": 32.8, "dewp": 20.6, "wspd": 9, "wdir": 190, "cover": "CLR", "visib": 10.0, "fltcat": "VFR", "altim": 1018.4, "slp": 1017.0, "rawOb": "KLEX 201954Z 19009KT 10SM CLR 33/21 A3007 RMK AO2 SLP170 T03280206"}, "geometry": {"type": "Point", "coordinates": [-84.606, 38.036]}}, {"type": "Feature", "properties": {"id": "KIRK", "site": "Kirksville/Cannon Me", "prior": "3", "obsTime": "2018-09-20T19:55:00Z", "temp": 32.2, "dewp": 22.2, "wspd": 13, "wgst": 24, "wdir": 180, "cover": "SCT", "visib": 10.0, "fltcat": "VFR", "altim": 1010.9, "slp": 1009.9, "rawOb": "KIRK 201955Z AUTO 18013G24KT 10SM SCT060 32/22 A2985 RMK AO2 PK WND 22027/1915 SLP099 T03220222"}, "geometry": {"type": "Point", "coordinates": [-92.544, 40.092]}}, {"type": "Feature", "properties": {"id": "KJST", "site": "Johnstown/Murtha Arp", "prior": "3", "obsTime": "2018-09-20T19:54:00Z", "temp": 26.7, "dewp": 17.8, "wspd": 0, "wdir": 0, "ceil": 42, "cover": "BKN", "visib": 10.0, "fltcat": "VFR", "altim": 1022.1, "slp": 1020.7, "rawOb": "KJST 201954Z AUTO 00000KT 10SM BKN042 BKN055 27/18 A3018 RMK AO2 SLP207 T02670178"}, "geometry": {"type": "Point", "coordinates": [-78.834, 40.315]}}, {"type": "Feature", "properties": {"id": "KCOU", "site": "Columbia Rgnl", "prior": "3", "obsTime": "2018-09-20T19:54:00Z", "temp": 33.3, "dewp": 22.2, "wspd": 14, "wgst": 21, "wdir": 190, "cover": "SCT", "visib": 10.0, "fltcat": "VFR", "altim": 1012.3, "slp": 1011.2, "rawOb": "KCOU 201954Z 19014G21KT 10SM SCT050 SCT060 33/22 A2989 RMK AO2 LTG DSNT W SLP112 T03330222"}, "geometry": {"type": "Point", "coordinates": [-92.219, 38.815]}}, {"type": "Feature", "properties": {"id": "KALO", "site": "Waterloo Rgnl", "prior": "3", "obsTime": "2018-09-20T19:54:00Z", "temp": 31.7, "dewp": 20.0, "wspd": 18, "wgst": 27, "wdir": 190, "cover": "SCT", "visib": 10.0, "fltcat": "VFR", "altim": 1005.8, "slp": 1004.9, "rawOb": "KALO 201954Z 19018G27KT 10SM SCT060 32/20 A2970 RMK AO2 PK WND 18028/1932 SLP049 T03170200"}, "geometry": {"type": "Point", "coordinates": [-92.4, 42.553]}}, {"type": "Feature", "properties": {"id": "TNCE", "site": "St Eustatius/Rooseve", "prior": "3", "obsTime": "2018-09-20T19:55:00Z", "temp": 30.0, "dewp": 25.0, "wspd": 12, "wdir": 60, "altim": 1015.0, "rawOb": "TNCE 201955Z AUTO 06012KT 010V100 //// // ///////// 30/25 Q1015 RE//"}, "geometry": {"type": "Point", "coordinates": [-62.98, 17.496]}}]}