{"type": "FeatureCollection", "features": [{"type": "Feature", "properties": {"id": "YFRT", "site": "Forrest Arpt", "prior": "0", "obsTime": "2018-09-20T20:00:00Z", "temp": 6.0, "dewp": 5.0, "wspd": 5, "wdir": 90, "altim": 1024.0, "rawOb": "YFRT 202000Z AUTO 09005KT //// // ////// 06/05 Q1024"}, "geometry": {"type": "Point", "coordinates": [128.113, -30.837]}}, {"type": "Feature", "properties": {"id": "YSSY", "site": "Sydney Intl", "prior": "0", "obsTime": "2018-09-20T20:00:00Z", "temp": 9.0, "dewp": 5.0, "wspd": 8, "wdir": 320, "cover": "FEW", "visib": 6.21, "fltcat": "VFR", "altim": 1026.0, "rawOb": "YSSY 202000Z 32008KT 9999 FEW020 09/05 Q1026"}, "geometry": {"type": "Point", "coordinates": [151.175, -33.941]}}, {"type": "Feature", "properties": {"id": "FACT", "site": "Capetown Intl", "prior": "0", "obsTime": "2018-09-20T19:00:00Z", "temp": 11.0, "dewp": 6.0, "wspd": 5, "wdir": 200, "cover": "CAVOK", "visib": 6.21, "fltcat": "VFR", "altim": 1026.0, "rawOb": "FACT 201900Z 20005KT 130V230 CAVOK 11/06 Q1026 NOSIG"}, "geometry": {"type": "Point", "coordinates": [18.604, -33.975]}}, {"type": "Feature", "properties": {"id": "YBAS", "site": "Alice Springs Arpt", "prior": "0", "obsTime": "2018-09-20T20:00:00Z", "temp": 15.0, "dewp": -4.0, "wspd": 5, "wdir": 140, "cover": "CLR", "visib": 6.21, "fltcat": "VFR", "altim": 1024.0, "rawOb": "YBAS 202000Z AUTO 14005KT 9999 // NCD 15/M04 Q1024"}, "geometry": {"type": "Point", "coordinates": [133.902, -23.806]}}, {"type": "Feature", "properties": {"id": "YBRK", "site": "Rockhampton Arpt", "prior": "0", "obsTime": "2018-09-20T20:00:00Z", "temp": 17.0, "dewp": -5.0, "wspd": 7, "wdir": 140, "cover": "CLR", "visib": 6.21, "fltcat": "VFR", "altim": 1021.0, "rawOb": "YBRK 202000Z AUTO 14007KT 9999 // NCD 17/M05 Q1021"}, "geometry": {"type": "Point", "coordinates": [150.475, -23.38]}}, {"type": "Feature", "properties": {"id": "SBBV", "site": "Boa Vista Arpt", "prior": "0", "obsTime": "2018-09-20T20:00:00Z", "temp": 33.0, "dewp": 23.0, "wspd": 6, "wdir": 110, "ceil": 30, "cover": "BKN", "visib": 6.21, "fltcat": "MVFR", "altim": 1008.0, "rawOb": "SBBV 202000Z 11006KT 9999 BKN030 FEW035TCU 33/23 Q1008"}, "geometry": {"type": "Point", "coordinates": [-60.69, 2.847]}}, {"type": "Feature", "properties": {"id": "SBPV", "site": "Porto Velho Intl", "prior": "0", "obsTime": "2018-09-20T20:00:00Z", "temp": 33.0, "dewp": 22.0, "wspd": 2, "wdir": 320, "cover": "SCT", "visib": 6.21, "fltcat": "VFR", "altim": 1007.0, "rawOb": "SBPV 202000Z 32002KT 9999 SCT040 33/22 Q1007"}, "geometry": {"type": "Point", "coordinates": [-63.902, -8.708]}}, {"type": "Feature", "properties": {"id": "FNLU", "site": "Luanda/Fevereiro Int", "prior": "0", "obsTime": "2018-09-20T19:00:00Z", "temp": 23.0, "dewp": 20.0, "wspd": 9, "wdir": 230, "cover": "FEW", "visib": 6.21, "fltcat": "VFR", "altim": 1011.0, "rawOb": "FNLU 201900Z 23009KT 9999 FEW021 23/20 Q1011 NOSIG"}, "geometry": {"type": "Point", "coordinates": [13.235, -8.854]}}, {"type": "Feature", "properties": {"id": "WAAA", "site": "Hasanuddin Intl", "prior": "0", "obsTime": "2018-09-20T20:00:00Z", "temp": 20.0, "dewp": 18.0, "wspd": 1, "wdir": 0, "cover": "FEW", "visib": 4.97, "fltcat": "MVFR", "altim": 1011.0, "rawOb": "WAAA 202000Z VRB01KT 8000 FEW020 20/18 Q1011 NOSIG"}, "geometry": {"type": "Point", "coordinates": [119.556, -5.067]}}, {"type": "Feature", "properties": {"id": "SAEZ", "site": "Buenos Aires/Pistari", "prior": "0", "obsTime": "2018-09-20T20:00:00Z", "temp": 21.0, "dewp": 5.0, "wspd": 12, "wdir": 30, "cover": "CAVOK", "visib": 6.21, "fltcat": "VFR", "altim": 1013.0, "rawOb": "SAEZ 202000Z 03012KT CAVOK 21/05 Q1013 NOSIG"}, "geometry": {"type": "Point", "coordinates": [-58.53, -34.82]}}, {"type": "Feature", "properties": {"id": "YPLM", "site": "Learmonth Arpt", "prior": "0", "obsTime": "2018-09-20T20:00:00Z", "temp": 17.0, "dewp": 1.0, "wspd": 10, "wdir": 230, "cover": "CLR", "visib": 6.21, "fltcat": "VFR", "altim": 1015.0, "rawOb": "YPLM 202000Z AUTO 23010KT 9999 // NCD 17/01 Q1015"}, "geometry": {"type": "Point", "coordinates": [114.09, -22.233]}}, {"type": "Feature", "properties": {"id": "AGGH", "site": "Honiara/Henderson Ar", "prior": "0", "obsTime": "2018-09-20T20:00:00Z", "temp": 25.0, "dewp": 24.0, "wspd": 0, "wdir": 0, "cover": "SCT", "visib": 6.21, "fltcat": "VFR", "altim": 1010.0, "wx": "HZ", "rawOb": "AGGH 202000Z 00000KT 9999 HZ FEW017 SCT300 25/24 Q1010"}, "geometry": {"type": "Point", "coordinates": [160.052, -9.429]}}, {"type": "Feature", "properties": {"id": "NWWW", "site": "La Tontouta Arpt", "prior": "0", "obsTime": "2018-09-20T20:00:00Z", "temp": 16.0, "dewp": 13.0, "wspd": 0, "wdir": 0, "ceil": 50, "cover": "OVC", "visib": 6.21, "fltcat": "VFR", "altim": 1016.0, "rawOb": "NWWW 202000Z AUTO 00000KT 9999 OVC050 16/13 Q1016 TEMPO RA"}, "geometry": {"type": "Point", "coordinates": [166.214, -22.015]}}, {"type": "Feature", "properties": {"id": "SCEL", "site": "Santiago/Benitez Int", "prior": "0", "obsTime": "2018-09-20T20:00:00Z", "temp": 18.0, "dewp": 4.0, "wspd": 6, "wdir": 150, "ceil": 150, "cover": "BKN", "visib": 4.97, "fltcat": "MVFR", "altim": 1018.0, "rawOb": "SCEL 202000Z 15006KT 8000 BKN150 BKN230 18/04 Q1018 NOSIG"}, "geometry": {"type": "Point", "coordinates": [-70.794, -33.389]}}, {"type": "Feature", "properties": {"id": "SBMQ", "site": "Macapa Intl", "prior": "0", "obsTime": "2018-09-20T19:00:00Z", "temp": 33.0, "dewp": 24.0, "wspd": 13, "wdir": 60, "cover": "SCT", "visib": 6.21, "fltcat": "VFR", "altim": 1009.0, "rawOb": "SBMQ 201900Z 06013KT 9999 SCT025 33/24 Q1009"}, "geometry": {"type": "Point", "coordinates": [-51.071, 0.051]}}, {"type": "Feature", "properties": {"id": "YPWR", "site": "Woomera Airfld", "prior": "0", "obsTime": "2018-09-20T19:30:00Z", "temp": 10.0, "dewp": 4.0, "wspd": 7, "wdir": 140, "cover": "CLR", "visib": 6.21, "fltcat": "VFR", "altim": 1026.0, "rawOb": "YPWR 201930Z AUTO 14007KT 9999 // NCD 10/04 Q1026 RF00.0/000.0"}, "geometry": {"type": "Point", "coordinates": [136.812, -31.146]}}, {"type": "Feature", "properties": {"id": "FOOG", "site": "Port Gentil Intl", "prior": "0", "obsTime": "2018-09-20T19:00:00Z", "temp": 27.0, "dewp": 24.0, "wspd": 13, "wdir": 210, "ceil": 30, "cover": "BKN", "visib": 6.21, "fltcat": "MVFR", "altim": 1010.0, "rawOb": "FOOG 201900Z 21013KT 9999 SCT008 BKN030 27/24 Q1010"}, "geometry": {"type": "Point", "coordinates": [8.753, -0.714]}}, {"type": "Feature", "properties": {"id": "YSNF", "site": "Norfolk Island Arpt", "prior": "0", "obsTime": "2018-09-20T20:00:00Z", "temp": 16.0, "dewp": 12.0, "wspd": 12, "wdir": 300, "cover": "SCT", "visib": 6.21, "fltcat": "VFR", "altim": 1014.0, "rawOb": "YSNF 202000Z AUTO 30012KT 9999 // SCT049 16/12 Q1014"}, "geometry": {"type": "Point", "coordinates": [167.94, -29.042]}}, {"type": "Feature", "properties": {"id": "WABB", "site": "Biak/Kaisiepo Arpt", "prior": "0", "obsTime": "2018-09-20T19:00:00Z", "temp": 24.0, "dewp": 24.0, "wspd": 2, "wdir": 30, "ceil": 100, "cover": "BKN", "visib": 6.21, "fltcat": "VFR", "altim": 1008.0, "rawOb": "WABB 201900Z 03002KT 9999 SCT018 BKN100 24/24 Q1008 NOSIG"}, "geometry": {"type": "Point", "coordinates": [136.109, -1.191]}}, {"type": "Feature", "properties": {"id": "HKJK", "site": "Nairobi/Kenyatta Int", "prior": "0", "obsTime": "2018-09-20T19:30:00Z", "temp": 18.0, "dewp": 14.0, "wspd": 3, "wdir": 360, "cover": "CAVOK", "visib": 6.21, "fltcat": "VFR", "altim": 1022.0, "rawOb": "HKJK 201930Z 36003KT CAVOK 18/14 Q1022"}, "geometry": {"type": "Point", "coordinates": [36.928, -1.319]}}, {"type": "Feature", "properties": {"id": "SCIP", "site": "Easter Island Arpt", "prior": "0", "obsTime": "2018-09-20T20:00:00Z", "temp": 19.0, "dewp": 13.0, "wspd": 14, "wdir": 160, "ceil": 40, "cover": "BKN", "visib": 6.21, "fltcat": "VFR", "altim": 1020.0, "rawOb": "SCIP 202000Z 16014KT 9999 SCT020 BKN040 19/13 Q1020 NOSIG"}, "geometry": {"type": "Point", "coordinates": [-109.423, -27.164]}}, {"type": "Feature", "properties": {"id": "YPPH", "site": "Perth Intl", "prior": "0", "obsTime": "2018-09-20T20:00:00Z", "temp": 7.0, "dewp": 6.0, "wspd": 0, "wdir": 0, "cover": "CAVOK", "visib": 6.21, "fltcat": "VFR", "altim": 1019.0, "rawOb": "YPPH 202000Z 00000KT CAVOK 07/06 Q1019 NOSIG"}, "geometry": {"type": "Point", "coordinates": [115.965, -31.941]}}, {"type": "Feature", "properties": {"id": "WSSS", "site": "Singapore/Changi Int", "prior": "0", "obsTime": "2018-09-20T19:30:00Z", "temp": 25.0, "dewp": 23.0, "wspd": 6, "wdir": 290, "ceil": 160, "cover": "BKN", "visib": 4.35, "fltcat": "MVFR", "altim": 1010.0, "rawOb": "WSSS 201930Z 29006KT 260V010 7000 FEW017 SCT060 BKN160 25/23 Q1010 NOSIG"}, "geometry": {"type": "Point", "coordinates": [103.99, 1.359]}}, {"type": "Feature", "properties": {"id": "SBFZ", "site": "Fortaleza/Martins In", "prior": "0", "obsTime": "2018-09-20T20:00:00Z", "temp": 28.0, "dewp": 22.0, "wspd": 12, "wdir": 80, "cover": "CAVOK", "visib": 6.21, "fltcat": "VFR", "altim": 1011.0, "rawOb": "SBFZ 202000Z 08012KT CAVOK 28/22 Q1011"}, "geometry": {"type": "Point", "coordinates": [-38.531, -3.777]}}, {"type": "Feature", "properties": {"id": "FAOR", "site": "Johannesburg/Tambo I", "prior": "0", "obsTime": "2018-09-20T19:00:00Z", "temp": 16.0, "dewp": 10.0, "wspd": 20, "wdir": 20, "cover": "CAVOK", "visib": 6.21, "fltcat": "VFR", "altim": 1026.0, "rawOb": "FAOR 201900Z 02020KT CAVOK 16/10 Q1026 NOSIG"}, "geometry": {"type": "Point", "coordinates": [28.24, -26.13]}}, {"type": "Feature", "properties": {"id": "FSIA", "site": "Seychelles Intl", "prior": "0", "obsTime": "2018-09-20T20:00:00Z", "temp": 25.0, "dewp": 22.0, "wspd": 7, "wdir": 180, "cover": "FEW", "visib": 6.21, "fltcat": "VFR", "altim": 1013.0, "wx": "-SHRA", "rawOb": "FSIA 202000Z 18007KT 130V200 9999 -SHRA FEW012 25/22 Q1013 NOSIG"}, "geometry": {"type": "Point", "coordinates": [55.522, -4.675]}}, {"type": "Feature", "properties": {"id": "SBCT", "site": "Curitiba/Pena Intl", "prior": "0", "obsTime": "2018-09-20T19:00:00Z", "temp": 16.0, "dewp": 15.0, "wspd": 7, "wdir": 250, "ceil": 9, "cover": "OVC", "visib": 4.35, "fltcat": "IFR", "altim": 1020.0, "wx": "-RA", "rawOb": "SBCT 201900Z 25007KT 7000 -RA OVC009 16/15 Q1020"}, "geometry": {"type": "Point", "coordinates": [-49.174, -25.53]}}, {"type": "Feature", "properties": {"id": "PLCH", "site": "Christmas/Cassidy In", "prior": "0", "obsTime": "2018-09-20T19:00:00Z", "temp": 29.0, "dewp": 22.0, "wspd": 11, "wdir": 100, "cover": "SCT", "visib": 6.21, "fltcat": "VFR", "altim": 1009.0, "rawOb": "PLCH 201900Z 10011KT 9999 FEW020 SCT300 29/22 Q1009"}, "geometry": {"type": "Point", "coordinates": [-157.348, 1.986]}}, {"type": "Feature", "properties": {"id": "NCMH", "site": "Cook Isl/Manihiki Is", "prior": "0", "obsTime": "2018-09-20T20:00:00Z", "temp": 28.0, "dewp": 22.0, "wspd": 3, "wdir": 120, "altim": 1009.0, "rawOb": "NCMH 202000Z AUTO 12003KT //// ////// 28/22 Q1009"}, "geometry": {"type": "Point", "coordinates": [-161.002, -10.377]}}, {"type": "Feature", "properties": {"id": "SKBO", "site": "Bogota/El Dorado Arp", "prior": "0", "obsTime": "2018-09-20T20:00:00Z", "temp": 20.0, "dewp": 4.0, "wspd": 16, "wdir": 180, "cover": "FEW", "visib": 6.21, "fltcat": "VFR", "altim": 1024.5, "rawOb": "SKBO 202000Z 18016KT 9999 FEW023 20/04 A3025 WS ALL RWY"}, "geometry": {"type": "Point", "coordinates": [-74.146, 4.702]}}, {"type": "Feature", "properties": {"id": "YPDN", "site": "Darwin Intl", "prior": "0", "obsTime": "2018-09-20T20:00:00Z", "temp": 25.0, "dewp": 21.0, "wspd": 5, "wdir": 190, "cover": "CAVOK", "visib": 6.21, "fltcat": "VFR", "altim": 1012.0, "rawOb": "YPDN 202000Z 19005KT CAVOK 25/21 Q1012"}, "geometry": {"type": "Point", "coordinates": [130.879, -12.414]}}, {"type": "Feature", "properties": {"id": "YBRM", "site": "Broome Arpt", "prior": "0", "obsTime": "2018-09-20T20:00:00Z", "temp": 22.0, "dewp": 8.0, "wspd": 7, "wdir": 110, "cover": "CLR", "visib": 6.21, "fltcat": "VFR", "altim": 1013.0, "rawOb": "YBRM 202000Z AUTO 11007KT 9999 // NCD 22/08 Q1013"}, "geometry": {"type": "Point", "coordinates": [122.227, -17.949]}}, {"type": "Feature", "properties": {"id": "FIMP", "site": "Mauritius Intl", "prior": "0", "obsTime": "2018-09-20T20:00:00Z", "temp": 22.0, "dewp": 17.0, "wspd": 7, "wdir": 110, "ceil": 17, "cover": "BKN", "visib": 6.21, "fltcat": "MVFR", "altim": 1022.0, "rawOb": "FIMP 202000Z 11007KT 9999 BKN017 22/17 Q1022"}, "geometry": {"type": "Point", "coordinates": [57.683, -20.43]}}, {"type": "Feature", "properties": {"id": "FQQL", "site": "Quelimane Arpt", "prior": "0", "obsTime": "2018-09-20T19:00:00Z", "temp": 25.0, "dewp": 22.0, "wspd": 10, "wdir": 90, "cover": "CAVOK", "visib": 6.21, "fltcat": "VFR", "altim": 1016.0, "rawOb": "FQQL 201900Z 09010KT CAVOK 25/22 Q1016"}, "geometry": {"type": "Point", "coordinates": [36.869, -17.858]}}, {"type": "Feature", "properties": {"id": "YPCC", "site": "Cocos Isl Intl", "prior": "0", "obsTime": "2018-09-20T20:01:00Z", "temp": 25.0, "dewp": 21.0, "wspd": 8, "wdir": 110, "cover": "SCT", "visib": 2.36, "fltcat": "IFR", "altim": 1012.0, "rawOb": "YPCC 202001Z AUTO 11008KT 3800 // SCT019 25/21 Q1012"}, "geometry": {"type": "Point", "coordinates": [96.835, -12.193]}}, {"type": "Feature", "properties": {"id": "SPJC", "site": "Lima/Chavez Intl", "prior": "0", "obsTime": "2018-09-20T20:00:00Z", "temp": 17.0, "dewp": 13.0, "wspd": 3, "wdir": 270, "ceil": 18, "cover": "OVC", "visib": 6.21, "fltcat": "MVFR", "altim": 1012.0, "rawOb": "SPJC 202000Z 27003KT 190V350 9999 OVC018 17/13 Q1012 NOSIG RMK PP000"}, "geometry": {"type": "Point", "coordinates": [-77.115, -12.022]}}, {"type": "Feature", "properties": {"id": "NSTU", "site": "Pago Pago/Tafuna Int", "prior": "0", "obsTime": "2018-09-20T19:50:00Z", "temp": 27.3, "dewp": 24.0, "wspd": 9, "wdir": 100, "cover": "SCT", "visib": 10.0, "fltcat": "VFR", "altim": 1011.6, "slp": 1011.7, "rawOb": "NSTU 201950Z 10009KT 10SM FEW018 SCT040 SCT100 27/24 A2987 RMK SHRAB45E08 SLP117 T02730240"}, "geometry": {"type": "Point", "coordinates": [-170.712, -14.333]}}, {"type": "Feature", "properties": {"id": "SBBR", "site": "Brasilia Intl", "prior": "0", "obsTime": "2018-09-20T19:00:00Z", "temp": 28.0, "dewp": 14.0, "wspd": 5, "wdir": 60, "cover": "SCT", "visib": 6.21, "fltcat": "VFR", "altim": 1017.0, "rawOb": "SBBR 201900Z 06005KT 020V100 9999 SCT040 FEW045TCU 28/14 Q1017"}, "geometry": {"type": "Point", "coordinates": [-47.916, -15.87]}}, {"type": "Feature", "properties": {"id": "NFFN", "site": "Nadi Intl", "prior": "0", "obsTime": "2018-09-20T20:00:00Z", "temp": 26.0, "dewp": 18.0, "wspd": 8, "wdir": 80, "cover": "FEW", "visib": 6.21, "fltcat": "VFR", "altim": 1013.0, "rawOb": "NFFN 202000Z 08008KT 9999 FEW030 26/18 Q1013 NOSIG"}, "geometry": {"type": "Point", "coordinates": [177.444, -17.755]}}, {"type": "Feature", "properties": {"id": "YHID", "site": "Horn Island Arpt", "prior": "0", "obsTime": "2018-09-20T19:30:00Z", "temp": 25.0, "dewp": 22.0, "wspd": 9, "wdir": 110, "cover": "SCT", "visib": 6.21, "fltcat": "VFR", "altim": 1011.0, "rawOb": "YHID 201930Z AUTO 11009KT 9999 // SCT100 25/22 Q1011"}, "geometry": {"type": "Point", "coordinates": [142.292, -10.586]}}, {"type": "Feature", "properties": {"id": "FMMI", "site": "Antananarivo/Ivato I", "prior": "0", "obsTime": "2018-09-20T20:00:00Z", "temp": 12.0, "dewp": 11.0, "wspd": 8, "wdir": 100, "cover": "FEW", "visib": 6.21, "fltcat": "VFR", "altim": 1026.0, "rawOb": "FMMI 202000Z 10008KT 9999 FEW020 12/11 Q1026 NOSIG"}, "geometry": {"type": "Point", "coordinates": [47.479, -18.797]}}, {"type": "Feature", "properties": {"id": "NTAA", "site": "Tahiti Island/Faaa I", "prior": "0", "obsTime": "2018-09-20T20:00:00Z", "temp": 27.0, "dewp": 21.0, "wspd": 6, "wdir": 340, "cover": "FEW", "visib": 6.21, "fltcat": "VFR", "altim": 1013.0, "rawOb": "NTAA 202000Z 34006KT 9999 FEW021 27/21 Q1013 NOSIG"}, "geometry": {"type": "Point", "coordinates": [-149.611, -17.557]}}, {"type": "Feature", "properties": {"id": "NZAA", "site": "Auckland Intl", "prior": "0", "obsTime": "2018-09-20T19:30:00Z", "temp": 14.0, "dewp": 12.0, "wspd": 5, "wdir": 260, "ceil": 28, "cover": "BKN", "visib": 6.21, "fltcat": "MVFR", "altim": 1008.0, "rawOb": "NZAA 201930Z AUTO 26005KT 9999 BKN028/// BKN034/// 14/12 Q1008 NOSIG"}, "geometry": {"type": "Point", "coordinates": [174.789, -37.011]}}, {"type": "Feature", "properties": {"id": "YBCS", "site": "Cairns Intl", "prior": "0", "obsTime": "2018-09-20T20:00:00Z", "temp": 16.0, "dewp": 12.0, "wspd": 4, "wdir": 290, "cover": "FEW", "visib": 6.21, "fltcat": "VFR", "altim": 1015.0, "rawOb": "YBCS 202000Z 29004KT 260V340 9999 FEW028 16/12 Q1015 FM2100 15010KT 9999 FEW030"}, "geometry": {"type": "Point", "coordinates": [145.75, -16.88]}}, {"type": "Feature", "properties": {"id": "SAVC", "site": "Comodoro Rivadavia A", "prior": "0", "obsTime": "2018-09-20T20:00:00Z", "temp": 11.0, "dewp": 5.0, "wspd": 8, "wdir": 70, "ceil": 80, "cover": "BKN", "visib": 6.21, "fltcat": "VFR", "altim": 999.0, "rawOb": "SAVC 202000Z 07008KT 9999 FEW040 BKN080 11/05 Q0999"}, "geometry": {"type": "Point", "coordinates": [-67.467, -45.785]}}, {"type": "Feature", "properties": {"id": "SLVR", "site": "Santa Cruz/Viru Intl", "prior": "0", "obsTime": "2018-09-20T19:00:00Z", "temp": 34.0, "dewp": 22.0, "wspd": 15, "wgst": 25, "wdir": 340, "ceil": 22, "cover": "BKN", "visib": 6.21, "fltcat": "MVFR", "altim": 1009.0, "rawOb": "SLVR 201900Z 34015G25KT 9999 BKN022 BKN200 34/22 Q1009"}, "geometry": {"type": "Point", "coordinates": [-63.135, -17.645]}}, {"type": "Feature", "properties": {"id": "SBTT", "site": "Tabatinga Intl", "prior": "1", "obsTime": "2018-09-20T19:00:00Z", "temp": 33.0, "dewp": 27.0, "wspd": 2, "wdir": 270, "cover": "CAVOK", "visib": 6.21, "fltcat": "VFR", "altim": 1007.0, "rawOb": "SBTT 201900Z 27002KT CAVOK 33/27 Q1007"}, "geometry": {"type": "Point", "coordinates": [-69.935, -4.256]}}, {"type": "Feature", "properties": {"id": "SBEG", "site": "Manaus/Gomes Intl", "prior": "1", "obsTime": "2018-09-20T20:00:00Z", "temp": 33.0, "dewp": 22.0, "wspd": 7, "wdir": 80, "cover": "SCT", "visib": 6.21, "fltcat": "VFR", "altim": 1007.0, "rawOb": "SBEG 202000Z 08007KT 9999 SCT025 33/22 Q1007"}, "geometry": {"type": "Point", "coordinates": [-60.048, -3.039]}}, {"type": "Feature", "properties": {"id": "YMEK", "site": "Meetatharra Arpt", "prior": "1", "obsTime": "2018-09-20T19:00:00Z", "temp": 14.0, "dewp": -6.0, "wspd": 6, "wdir": 40, "cover": "CLR", "visib": 6.21, "fltcat": "VFR", "altim": 1021.0, "rawOb": "YMEK 201900Z AUTO 04006KT 9999 // NCD 14/M06 Q1021"}, "geometry": {"type": "Point", "coordinates": [118.548, -26.612]}}, {"type": "Feature", "properties": {"id": "WAPP", "site": "Ambon/Pattimura Arpt", "prior": "1", "obsTime": "2018-09-20T19:30:00Z", "temp": 23.0, "dewp": 21.0, "wspd": 5, "wdir": 340, "cover": "SCT", "visib": 6.21, "fltcat": "VFR", "altim": 1010.0, "rawOb": "WAPP 201930Z 34005KT 9999 SCT019 23/21 Q1010 NOSIG"}, "geometry": {"type": "Point", "coordinates": [128.09, -3.71]}}, {"type": "Feature", "properties": {"id": "FLKK", "site": "Lusaka/Kuanda Intl", "prior": "1", "obsTime": "2018-09-20T19:00:00Z", "temp": 22.0, "dewp": 2.0, "wspd": 5, "wdir": 50, "cover": "CLR", "visib": 3.73, "fltcat": "MVFR", "altim": 1020.0, "rawOb": "FLKK 201900Z 05005KT 6000 NSC 22/02 Q1020"}, "geometry": {"type": "Point", "coordinates": [28.457, -15.327]}}, {"type": "Feature", "properties": {"id": "FCBB", "site": "Brazzaville Arpt", "prior": "1", "obsTime": "2018-09-20T19:00:00Z", "temp": 29.0, "dewp": 22.0, "wspd": 0, "wdir": 0, "cover": "CLR", "visib": 4.97, "fltcat": "MVFR", "altim": 1010.0, "rawOb": "FCBB 201900Z 00000KT 8000 NSC 29/22 Q1010 NOSIG"}, "geometry": {"type": "Point", "coordinates": [15.252, -4.251]}}, {"type": "Feature", "properties": {"id": "SBSL", "site": "Sao Luis/Machado Int", "prior": "1", "obsTime": "2018-09-20T20:00:00Z", "temp": 29.0, "dewp": 22.0, "wspd": 14, "wdir": 40, "cover": "CAVOK", "visib": 6.21, "fltcat": "VFR", "altim": 1010.0, "rawOb": "SBSL 202000Z 04014KT CAVOK 29/22 Q1010"}, "geometry": {"type": "Point", "coordinates": [-44.235, -2.587]}}, {"type": "Feature", "properties": {"id": "SEGS", "site": "San Cristobal Arpt", "prior": "1", "obsTime": "2018-09-20T20:00:00Z", "temp": 25.0, "dewp": 16.0, "wspd": 16, "wdir": 120, "cover": "SCT", "visib": 6.21, "fltcat": "VFR", "altim": 1009.0, "rawOb": "SEGS 202000Z 12016KT 9999 SCT020 25/16 Q1009 A2981"}, "geometry": {"type": "Point", "coordinates": [-90.266, -0.454]}}, {"type": "Feature", "properties": {"id": "SBPA", "site": "Porto Alegre/Filho I", "prior": "1", "obsTime": "2018-09-20T20:00:00Z", "temp": 21.0, "dewp": 16.0, "wspd": 11, "wdir": 100, "ceil": 100, "cover": "BKN", "visib": 6.21, "fltcat": "VFR", "altim": 1015.0, "rawOb": "SBPA 202000Z 10011KT 9999 SCT035 BKN100 21/16 Q1015"}, "geometry": {"type": "Point", "coordinates": [-51.172, -29.995]}}, {"type": "Feature", "properties": {"id": "FALE", "site": "Durban/King Shaka In", "prior": "1", "obsTime": "2018-09-20T19:00:00Z", "temp": 15.0, "dewp": 10.0, "wspd": 1, "wdir": 0, "ceil": 70, "cover": "BKN", "visib": 6.21, "fltcat": "VFR", "altim": 1025.0, "rawOb": "FALE 201900Z VRB01KT 9999 FEW040 BKN070 15/10 Q1025 NOSIG"}, "geometry": {"type": "Point", "coordinates": [31.117, -29.613]}}, {"type": "Feature", "properties": {"id": "SCAT", "site": "Desierto Atacama Arp", "prior": "1", "obsTime": "2018-09-20T20:00:00Z", "temp": 19.0, "dewp": 11.0, "wspd": 9, "wdir": 320, "cover": "CAVOK", "visib": 6.21, "fltcat": "VFR", "altim": 1012.0, "rawOb": "SCAT 202000Z 32009KT 280V360 CAVOK 19/11 Q1012"}, "geometry": {"type": "Point", "coordinates": [-70.779, -27.264]}}, {"type": "Feature", "properties": {"id": "WALL", "site": "Sepinggan Intl", "prior": "1", "obsTime": "2018-09-20T19:30:00Z", "temp": 28.0, "dewp": 25.0, "wspd": 7, "wdir": 220, "cover": "FEW", "visib": 5.59, "fltcat": "VFR", "altim": 1009.0, "rawOb": "WALL 201930Z 22007KT 9000 FEW020 28/25 Q1009"}, "geometry": {"type": "Point", "coordinates": [116.896, -1.268]}}, {"type": "Feature", "properties": {"id": "SBCY", "site": "Cuiaba/Rondon Arpt", "prior": "1", "obsTime": "2018-09-20T19:00:00Z", "temp": 35.0, "dewp": 16.0, "wspd": 7, "wdir": 280, "cover": "CAVOK", "visib": 6.21, "fltcat": "VFR", "altim": 1009.0, "rawOb": "SBCY 201900Z 28007KT CAVOK 35/16 Q1009"}, "geometry": {"type": "Point", "coordinates": [-56.116, -15.654]}}, {"type": "Feature", "properties": {"id": "FAUP", "site": "Upington Arpt", "prior": "1", "obsTime": "2018-09-20T19:00:00Z", "temp": 15.0, "dewp": -7.0, "wspd": 4, "wdir": 220, "altim": 1021.0, "rawOb": "FAUP 201900Z AUTO 22004KT //// // ////// 15/M07 Q1021"}, "geometry": {"type": "Point", "coordinates": [21.264, -28.401]}}, {"type": "Feature", "properties": {"id": "HRYR", "site": "Kigali Intl", "prior": "1", "obsTime": "2018-09-20T19:30:00Z", "temp": 18.0, "dewp": 16.0, "wspd": 4, "wdir": 360, "cover": "SCT", "visib": 6.21, "fltcat": "VFR", "altim": 1021.0, "rawOb": "HRYR 201930Z 36004KT 9999 SCT025 SCT100 18/16 Q1021 NOSIG"}, "geometry": {"type": "Point", "coordinates": [30.137, -1.968]}}, {"type": "Feature", "properties": {"id": "SBUA", "site": "Sao Gabriel da Cacho", "prior": "1", "obsTime": "2018-09-20T19:00:00Z", "temp": 30.0, "dewp": 24.0, "wspd": 8, "wdir": 50, "cover": "SCT", "visib": 4.97, "fltcat": "MVFR", "altim": 1007.0, "wx": "TSRA", "rawOb": "SBUA 201900Z 05008KT 8000 TSRA SCT020 FEW025CB 30/24 Q1007"}, "geometry": {"type": "Point", "coordinates": [-66.987, -0.15]}}, {"type": "Feature", "properties": {"id": "YBBN", "site": "Brisbane Intl", "prior": "1", "obsTime": "2018-09-20T20:00:00Z", "temp": 12.0, "dewp": 9.0, "wspd": 7, "wdir": 210, "cover": "CAVOK", "visib": 6.21, "fltcat": "VFR", "altim": 1023.0, "rawOb": "YBBN 202000Z 21007KT CAVOK 12/09 Q1023"}, "geometry": {"type": "Point", "coordinates": [153.126, -27.389]}}, {"type": "Feature", "properties": {"id": "YBDV", "site": "Birdsville Arpt", "prior": "1", "obsTime": "2018-09-20T20:00:00Z", "temp": 10.0, "dewp": -2.0, "wspd": 5, "wdir": 160, "altim": 1023.0, "rawOb": "YBDV 202000Z AUTO 16005KT //// // ////// 10/M02 Q1023"}, "geometry": {"type": "Point", "coordinates": [139.347, -25.897]}}, {"type": "Feature", "properties": {"id": "SLLP", "site": "La Paz/El Alto Intl", "prior": "1", "obsTime": "2018-09-20T19:00:00Z", "temp": 18.0, "dewp": -8.0, "wspd": 7, "wdir": 150, "cover": "FEW", "visib": 6.21, "fltcat": "VFR", "altim": 1035.0, "rawOb": "SLLP 201900Z 15007KT 9999 FEW023 FEW025CB 18/M08 Q1035"}, "geometry": {"type": "Point", "coordinates": [-68.186, -16.514]}}, {"type": "Feature", "properties": {"id": "SARI", "site": "Iguazu/Cataratas Int", "prior": "1", "obsTime": "2018-09-20T20:00:00Z", "temp": 24.0, "dewp": 17.0, "wspd": 5, "wdir": 50, "cover": "SCT", "visib": 6.21, "fltcat": "VFR", "altim": 1013.0, "rawOb": "SARI 202000Z 05005KT 9999 FEW020 SCT200 24/17 Q1013"}, "geometry": {"type": "Point", "coordinates": [-54.475, -25.737]}}, {"type": "Feature", "properties": {"id": "NGFU", "site": "Funafuti Intl", "prior": "1", "obsTime": "2018-09-20T20:00:00Z", "temp": 29.0, "dewp": 24.0, "wspd": 3, "wdir": 90, "ceil": 100, "cover": "BKN", "visib": 6.21, "fltcat": "VFR", "altim": 1009.0, "rawOb": "NGFU 202000Z 09003KT 9999 FEW017TCU SCT040 BKN100 29/24 Q1009"}, "geometry": {"type": "Point", "coordinates": [179.196, -8.524]}}, {"type": "Feature", "properties": {"id": "YPGV", "site": "Nhulunbuy Arpt", "prior": "1", "obsTime": "2018-09-20T20:00:00Z", "temp": 23.0, "dewp": 21.0, "wspd": 5, "wdir": 160, "cover": "CLR", "visib": 6.21, "fltcat": "VFR", "altim": 1013.0, "rawOb": "YPGV 202000Z AUTO 16005KT 9999 // NCD 23/21 Q1013"}, "geometry": {"type": "Point", "coordinates": [136.819, -12.27]}}, {"type": "Feature", "properties": {"id": "SBGL", "site": "Rio de Janero/Galeao", "prior": "1", "obsTime": "2018-09-20T20:00:00Z", "temp": 28.0, "dewp": 21.0, "wspd": 4, "wdir": 20, "cover": "FEW", "visib": 4.97, "fltcat": "MVFR", "altim": 1013.0, "rawOb": "SBGL 202000Z 02004KT 8000 FEW025 28/21 Q1013"}, "geometry": {"type": "Point", "coordinates": [-43.257, -22.813]}}, {"type": "Feature", "properties": {"id": "WADD", "site": "Bali Intl", "prior": "1", "obsTime": "2018-09-20T19:30:00Z", "temp": 26.0, "dewp": 23.0, "wspd": 4, "wdir": 90, "cover": "FEW", "visib": 6.21, "fltcat": "VFR", "altim": 1011.0, "rawOb": "WADD 201930Z 09004KT 9999 FEW017 26/23 Q1011 NOSIG"}, "geometry": {"type": "Point", "coordinates": [115.167, -8.748]}}, {"type": "Feature", "properties": {"id": "FYWH", "site": "Windhoek/Kufako Intl", "prior": "1", "obsTime": "2018-09-20T19:00:00Z", "temp": 16.0, "dewp": -8.0, "wspd": 1, "wdir": 340, "altim": 1024.0, "rawOb": "FYWH 201900Z AUTO 34001KT //// // ////// 16/M08 Q1024"}, "geometry": {"type": "Point", "coordinates": [17.466, -22.483]}}, {"type": "Feature", "properties": {"id": "YBMA", "site": "Mount Isa Arpt", "prior": "1", "obsTime": "2018-09-20T20:00:00Z", "temp": 18.0, "dewp": -9.0, "wspd": 11, "wdir": 150, "cover": "CLR", "visib": 6.21, "fltcat": "VFR", "altim": 1019.0, "rawOb": "YBMA 202000Z AUTO 15011KT 9999 // NCD 18/M09 Q1019"}, "geometry": {"type": "Point", "coordinates": [139.488, -20.666]}}, {"type": "Feature", "properties": {"id": "FMCH", "site": "Comoros/Ibrahim Intl", "prior": "1", "obsTime": "2018-09-20T19:00:00Z", "temp": 24.0, "dewp": 23.0, "wspd": 8, "wdir": 350, "ceil": 30, "cover": "BKN", "visib": 6.21, "fltcat": "MVFR", "altim": 1018.0, "rawOb": "FMCH 201900Z 35008KT 300V030 9999 FEW020 BKN030 24/23 Q1018 NOSIG"}, "geometry": {"type": "Point", "coordinates": [43.271, -11.535]}}, {"type": "Feature", "properties": {"id": "AYPY", "site": "Port Moresby Intl", "prior": "1", "obsTime": "2018-09-20T19:00:00Z", "temp": 24.0, "dewp": 22.0, "wspd": 4, "wdir": 120, "ceil": 53, "cover": "OVC", "visib": 6.21, "fltcat": "VFR", "altim": 1010.0, "rawOb": "AYPY 201900Z 12004KT 9999 OVC053CB 24/22 Q1010"}, "geometry": {"type": "Point", "coordinates": [147.22, -9.442]}}, {"type": "Feature", "properties": {"id": "SLCO", "site": "Cobija Arpt", "prior": "1", "obsTime": "2018-09-20T19:00:00Z", "temp": 36.0, "dewp": 22.0, "wspd": 4, "wdir": 330, "ceil": 200, "cover": "BKN", "visib": 6.21, "fltcat": "VFR", "altim": 1008.0, "rawOb": "SLCO 201900Z 33004KT 9999 SCT030 BKN200 36/22 Q1008"}, "geometry": {"type": "Point", "coordinates": [-68.783, -11.039]}}, {"type": "Feature", "properties": {"id": "SBPJ", "site": "Palmas/Rodrigues Arp", "prior": "1", "obsTime": "2018-09-20T19:00:00Z", "temp": 34.0, "dewp": 18.0, "wspd": 10, "wdir": 330, "cover": "FEW", "visib": 6.21, "fltcat": "VFR", "altim": 1010.0, "rawOb": "SBPJ 201900Z 33010KT 9999 FEW020 FEW040TCU 34/18 Q1010"}, "geometry": {"type": "Point", "coordinates": [-48.356, -10.293]}}, {"type": "Feature", "properties": {"id": "NCRG", "site": "Cook Isl/Rarotongan", "prior": "1", "obsTime": "2018-09-20T20:00:00Z", "temp": 25.0, "dewp": 15.0, "wspd": 13, "wdir": 90, "cover": "SCT", "visib": 6.21, "fltcat": "VFR", "altim": 1018.0, "rawOb": "NCRG 202000Z 09013KT 9999 SCT022 25/15 Q1018"}, "geometry": {"type": "Point", "coordinates": [-159.804, -21.203]}}, {"type": "Feature", "properties": {"id": "SARE", "site": "Resistencia Arpt", "prior": "1", "obsTime": "2018-09-20T19:00:00Z", "temp": 28.0, "dewp": 18.0, "wspd": 4, "wdir": 90, "cover": "SCT", "visib": 6.21, "fltcat": "VFR", "altim": 1010.0, "rawOb": "SARE 201900Z 09004KT 9999 FEW032 SCT100 28/18 Q1010"}, "geometry": {"type": "Point", "coordinates": [-59.056, -27.449]}}, {"type": "Feature", "properties": {"id": "YLRE", "site": "Longreach Arpt", "prior": "1", "obsTime": "2018-09-20T19:00:00Z", "temp": 14.0, "dewp": -6.0, "wspd": 12, "wdir": 130, "cover": "CLR", "visib": 6.21, "fltcat": "VFR", "altim": 1020.0, "rawOb": "YLRE 201900Z AUTO 13012KT 9999 // NCD 14/M06 Q1020"}, "geometry": {"type": "Point", "coordinates": [144.28, -23.434]}}, {"type": "Feature", "properties": {"id": "SLPS", "site": "Puerto Suarez Intl", "prior": "1", "obsTime": "2018-09-20T19:00:00Z", "temp": 28.0, "dewp": 25.0, "wspd": 6, "wdir": 70, "ceil": 17, "cover": "BKN", "visib": 4.35, "fltcat": "MVFR", "altim": 1007.0, "wx": "-TSRA", "rawOb": "SLPS 201900Z 07006KT 7000 -TSRA BKN017 FEW027CB BKN200 28/25 Q1007"}, "geometry": {"type": "Point", "coordinates": [-57.821, -18.977]}}, {"type": "Feature", "properties": {"id": "SBMA", "site": "Maraba Arpt", "prior": "1", "obsTime": "2018-09-20T19:00:00Z", "temp": 38.0, "dewp": 20.0, "wspd": 5, "wdir": 70, "cover": "FEW", "visib": 6.21, "fltcat": "VFR", "altim": 1009.0, "rawOb": "SBMA 201900Z 07005KT 9999 FEW030 38/20 Q1009"}, "geometry": {"type": "Point", "coordinates": [-49.138, -5.369]}}, {"type": "Feature", "properties": {"id": "FMSD", "site": "Taolagnaro Arpt", "prior": "1", "obsTime": "2018-09-20T19:00:00Z", "temp": 22.0, "dewp": 20.0, "wspd": 4, "wdir": 40, "cover": "CAVOK", "visib": 6.21, "fltcat": "VFR", "altim": 1018.0, "rawOb": "FMSD 201900Z 04004KT CAVOK 22/20 Q1018"}, "geometry": {"type": "Point", "coordinates": [46.954, -25.04]}}, {"type": "Feature", "properties": {"id": "NIUE", "site": "Niue/Hanan Intl", "prior": "1", "obsTime": "2018-09-20T20:00:00Z", "temp": 26.0, "dewp": 23.0, "wspd": 9, "wdir": 100, "ceil": 18, "cover": "BKN", "visib": 6.21, "fltcat": "MVFR", "altim": 1014.0, "rawOb": "NIUE 202000Z 10009KT 9999 BKN018 26/23 Q1014"}, "geometry": {"type": "Point", "coordinates": [-169.926, -19.079]}}, {"type": "Feature", "properties": {"id": "YTNK", "site": "Tennant Creek Arpt", "prior": "1", "obsTime": "2018-09-20T20:00:00Z", "temp": 18.0, "dewp": -7.0, "wspd": 15, "wdir": 120, "cover": "CLR", "visib": 6.21, "fltcat": "VFR", "altim": 1019.0, "rawOb": "YTNK 202000Z AUTO 12015KT 9999 // NCD 18/M07 Q1019"}, "geometry": {"type": "Point", "coordinates": [134.18, -19.633]}}, {"type": "Feature", "properties": {"id": "SASA", "site": "Salta/Guemes Arpt", "prior": "1", "obsTime": "2018-09-20T20:00:00Z", "temp": 27.0, "dewp": 6.0, "wspd": 12, "wdir": 50, "cover": "CAVOK", "visib": 6.21, "fltcat": "VFR", "altim": 1012.0, "rawOb": "SASA 202000Z 05012KT CAVOK 27/06 Q1012"}, "geometry": {"type": "Point", "coordinates": [-65.48, -24.851]}}, {"type": "Feature", "properties": {"id": "WIII", "site": "Jakarta Intl", "prior": "1", "obsTime": "2018-09-20T19:30:00Z", "temp": 27.0, "dewp": 22.0, "wspd": 3, "wdir": 0, "cover": "FEW", "visib": 3.73, "fltcat": "MVFR", "altim": 1010.0, "rawOb": "WIII 201930Z VRB03KT 6000 FEW020 27/22 Q1010 NOSIG"}, "geometry": {"type": "Point", "coordinates": [106.658, -6.125]}}, {"type": "Feature", "properties": {"id": "SPST", "site": "Tarapoto Arpt", "prior": "1", "obsTime": "2018-09-20T20:00:00Z", "temp": 35.0, "dewp": 20.0, "wspd": 7, "wdir": 10, "cover": "SCT", "visib": 6.21, "fltcat": "VFR", "altim": 1007.0, "rawOb": "SPST 202000Z 01007KT 9999 SCT020 35/20 Q1007 RMK BIRD HAZARD RWY 17/35 PP000"}, "geometry": {"type": "Point", "coordinates": [-76.373, -6.509]}}, {"type": "Feature", "properties": {"id": "HTDA", "site": "Dar Es Salaam Arpt", "prior": "1", "obsTime": "2018-09-20T19:00:00Z", "temp": 24.0, "dewp": 23.0, "wspd": 6, "wdir": 120, "cover": "FEW", "visib": 6.21, "fltcat": "VFR", "altim": 1017.0, "rawOb": "HTDA 201900Z 12006KT 9999 FEW014 24/23 Q1017 NOSIG"}, "geometry": {"type": "Point", "coordinates": [39.201, -6.881]}}, {"type": "Feature", "properties": {"id": "SBSV", "site": "Salvador/Magalhaes I", "prior": "1", "obsTime": "2018-09-20T20:00:00Z", "temp": 27.0, "dewp": 21.0, "wspd": 10, "wdir": 100, "cover": "SCT", "visib": 6.21, "fltcat": "VFR", "altim": 1016.0, "rawOb": "SBSV 202000Z 10010KT 9999 SCT023 27/21 Q1016"}, "geometry": {"type": "Point", "coordinates": [-38.338, -12.912]}}, {"type": "Feature", "properties": {"id": "FBMN", "site": "Maun Arpt", "prior": "1", "obsTime": "2018-09-20T19:00:00Z", "temp": 23.0, "dewp": 4.0, "wspd": 2, "wdir": 0, "cover": "CAVOK", "visib": 6.21, "fltcat": "VFR", "altim": 1016.0, "rawOb": "FBMN 201900Z VRB02KT CAVOK 23/04 Q1016"}, "geometry": {"type": "Point", "coordinates": [23.43, -19.972]}}, {"type": "Feature", "properties": {"id": "SBVT", "site": "Vitoria/Salles Arpt", "prior": "1", "obsTime": "2018-09-20T19:25:00Z", "temp": 27.0, "dewp": 23.0, "wspd": 15, "wgst": 25, "wdir": 50, "cover": "FEW", "visib": 6.21, "fltcat": "VFR", "altim": 1014.0, "rawOb": "SBVT 201925Z 05015G25KT 9999 FEW030 27/23 Q1014"}, "geometry": {"type": "Point", "coordinates": [-40.287, -20.258]}}, {"type": "Feature", "properties": {"id": "SCFA", "site": "Antofagasta/Cerro Mo", "prior": "1", "obsTime": "2018-09-20T20:00:00Z", "temp": 16.0, "dewp": 10.0, "wspd": 10, "wdir": 200, "cover": "FEW", "visib": 6.21, "fltcat": "VFR", "altim": 1011.0, "rawOb": "SCFA 202000Z 20010KT 9999 FEW023 16/10 Q1011 NOSIG"}, "geometry": {"type": "Point", "coordinates": [-70.445, -23.445]}}, {"type": "Feature", "properties": {"id": "NFTF", "site": "Tonga/Fua Amotu Intl", "prior": "1", "obsTime": "2018-09-20T20:00:00Z", "temp": 26.0, "dewp": 21.0, "wspd": 6, "wdir": 80, "cover": "FEW", "visib": 6.21, "fltcat": "VFR", "altim": 1015.0, "rawOb": "NFTF 202000Z 08006KT 9999 FEW010 26/21 Q1015"}, "geometry": {"type": "Point", "coordinates": [-175.148, -21.242]}}, {"type": "Feature", "properties": {"id": "PTSA", "site": "Kosrae Intl", "prior": "1", "obsTime": "2018-09-20T19:50:00Z", "temp": 27.0, "dewp": 24.0, "wspd": 3, "wdir": 0, "ceil": 130, "cover": "OVC", "visib": 10.0, "fltcat": "VFR", "altim": 1009.2, "rawOb": "PTSA 201950Z VRB03KT 10SM SCT017 BKN130 OVC300 27/24 A2980 "}, "geometry": {"type": "Point", "coordinates": [162.957, 5.356]}}, {"type": "Feature", "properties": {"id": "SAZN", "site": "Neuquen Arpt", "prior": "1", "obsTime": "2018-09-20T19:00:00Z", "temp": 23.0, "dewp": 1.0, "wspd": 25, "wgst": 35, "wdir": 320, "cover": "CAVOK", "visib": 6.21, "fltcat": "VFR", "altim": 1004.0, "rawOb": "SAZN 201900Z 32025G35KT CAVOK 23/01 Q1004"}, "geometry": {"type": "Point", "coordinates": [-68.151, -38.949]}}, {"type": "Feature", "properties": {"id": "FKKD", "site": "Douala Intl", "prior": "1", "obsTime": "2018-09-20T19:00:00Z", "temp": 27.0, "dewp": 25.0, "wspd": 2, "wdir": 0, "cover": "SCT", "visib": 6.21, "fltcat": "VFR", "altim": 1009.0, "wx": "TS", "rawOb": "FKKD 201900Z VRB02KT 9999 TS SCT013 SCT016CB 27/25 Q1009 BECMG 4000 -TSRA BKN012 SCT014CB"}, "geometry": {"type": "Point", "coordinates": [9.714, 4.01]}}, {"type": "Feature", "properties": {"id": "SOCA", "site": "Cayenne/Rochambeau A", "prior": "1", "obsTime": "2018-09-20T20:00:00Z", "temp": 31.0, "dewp": 25.0, "wspd": 12, "wdir": 70, "cover": "CAVOK", "visib": 6.21, "fltcat": "VFR", "altim": 1009.0, "rawOb": "SOCA 202000Z AUTO 07012KT CAVOK 31/25 Q1009 NOSIG"}, "geometry": {"type": "Point", "coordinates": [-52.362, 4.819]}}, {"type": "Feature", "properties": {"id": "WBGG", "site": "Kuching Arpt", "prior": "1", "obsTime": "2018-09-20T19:30:00Z", "temp": 24.0, "dewp": 23.0, "wspd": 2, "wdir": 0, "ceil": 150, "cover": "BKN", "visib": 6.21, "fltcat": "VFR", "altim": 1011.0, "rawOb": "WBGG 201930Z VRB02KT 9999 SCT020 BKN150 24/23 Q1011 NOSIG"}, "geometry": {"type": "Point", "coordinates": [110.353, 1.487]}}, {"type": "Feature", "properties": {"id": "SCBA", "site": "Balmaceda/Vidal Arpt", "prior": "1", "obsTime": "2018-09-20T20:00:00Z", "temp": 7.0, "dewp": 5.0, "wspd": 8, "wdir": 300, "ceil": 27, "cover": "OVC", "visib": 6.21, "fltcat": "MVFR", "altim": 996.0, "wx": "-RA", "rawOb": "SCBA 202000Z 30008KT 9999 -RA FEW015 OVC027 07/05 Q0996"}, "geometry": {"type": "Point", "coordinates": [-71.691, -45.916]}}, {"type": "Feature", "properties": {"id": "YCBA", "site": "Cobar Arpt", "prior": "1", "obsTime": "2018-09-20T20:00:00Z", "temp": 2.0, "dewp": -6.0, "wspd": 3, "wdir": 50, "cover": "CLR", "visib": 6.21, "fltcat": "VFR", "altim": 1026.0, "rawOb": "YCBA 202000Z AUTO 05003KT 9999 // NCD 02/M06 Q1026"}, "geometry": {"type": "Point", "coordinates": [145.796, -31.539]}}, {"type": "Feature", "properties": {"id": "YLHI", "site": "Lord Howe Island Arp", "prior": "1", "obsTime": "2018-09-20T19:30:00Z", "temp": 16.0, "dewp": 7.0, "wspd": 11, "wdir": 200, "cover": "CLR", "visib": 6.21, "fltcat": "VFR", "altim": 1020.0, "rawOb": "YLHI 201930Z AUTO 20011KT 9999 // NCD 16/07 Q1020"}, "geometry": {"type": "Point", "coordinates": [159.077, -31.538]}}, {"type": "Feature", "properties": {"id": "YPAD", "site": "Adelaide Intl", "prior": "1", "obsTime": "2018-09-20T20:00:00Z", "temp": 13.0, "dewp": 9.0, "wspd": 6, "wdir": 270, "ceil": 22, "cover": "BKN", "visib": 6.21, "fltcat": "MVFR", "altim": 1027.0, "rawOb": "YPAD 202000Z 27006KT 9999 FEW018 BKN022 13/09 Q1027 NOSIG"}, "geometry": {"type": "Point", "coordinates": [138.533, -34.948]}}, {"type": "Feature", "properties": {"id": "SCIR", "site": "Robinson Crusoe Arpt", "prior": "1", "obsTime": "2018-09-20T20:00:00Z", "temp": 16.0, "dewp": 13.0, "wspd": 12, "wdir": 310, "ceil": 200, "cover": "BKN", "visib": 6.21, "fltcat": "VFR", "altim": 1016.0, "rawOb": "SCIR 202000Z 31012KT 9999 FEW010 BKN200 16/13 Q1016"}, "geometry": {"type": "Point", "coordinates": [-78.929, -33.666]}}, {"type": "Feature", "properties": {"id": "FAPE", "site": "Port Elizabeth Arpt", "prior": "1", "obsTime": "2018-09-20T19:00:00Z", "temp": 7.0, "dewp": 5.0, "wspd": 4, "wdir": 260, "cover": "CLR", "visib": 4.97, "fltcat": "MVFR", "altim": 1024.0, "rawOb": "FAPE 201900Z 26004KT 8000 NSC 07/05 Q1024 NOSIG"}, "geometry": {"type": "Point", "coordinates": [25.613, -33.987]}}, {"type": "Feature", "properties": {"id": "WBSB", "site": "Brunei Intl Arpt", "prior": "1", "obsTime": "2018-09-20T19:30:00Z", "temp": 26.0, "dewp": 25.0, "wspd": 3, "wdir": 200, "ceil": 140, "cover": "BKN", "visib": 6.21, "fltcat": "VFR", "altim": 1009.0, "rawOb": "WBSB 201930Z 20003KT 9999 FEW014 BKN140 26/25 Q1009 NOSIG"}, "geometry": {"type": "Point", "coordinates": [114.929, 4.946]}}, {"type": "Feature", "properties": {"id": "WAMM", "site": "Menado/Rafulangi Int", "prior": "1", "obsTime": "2018-09-20T20:00:00Z", "temp": 24.0, "dewp": 23.0, "wspd": 0, "wdir": 0, "cover": "FEW", "visib": 6.21, "fltcat": "VFR", "altim": 1010.0, "rawOb": "WAMM 202000Z 00000KT 9999 FEW024 24/23 Q1010 NOSIG"}, "geometry": {"type": "Point", "coordinates": [124.926, 1.549]}}, {"type": "Feature", "properties": {"id": "FEFF", "site": "Bangui Arpt", "prior": "1", "obsTime": "2018-09-20T19:00:00Z", "temp": 23.0, "dewp": 21.0, "wspd": 4, "wdir": 150, "cover": "SCT", "visib": 4.97, "fltcat": "MVFR", "altim": 1009.0, "wx": "TS", "rawOb": "FEFF 201900Z 15004KT 8000 TS SCT010 SCT033CB 23/21 Q1009 NOSIG"}, "geometry": {"type": "Point", "coordinates": [18.519, 4.398]}}, {"type": "Feature", "properties": {"id": "DIAP", "site": "Abidjan/Port Boet Ar", "prior": "1", "obsTime": "2018-09-20T19:30:00Z", "temp": 26.0, "dewp": 24.0, "wspd": 9, "wdir": 230, "cover": "SCT", "visib": 6.21, "fltcat": "VFR", "altim": 1010.0, "rawOb": "DIAP 201930Z 23009KT 9999 SCT011 26/24 Q1010 NOSIG"}, "geometry": {"type": "Point", "coordinates": [-3.926, 5.26]}}, {"type": "Feature", "properties": {"id": "YMML", "site": "Melbourne Intl", "prior": "1", "obsTime": "2018-09-20T20:00:00Z", "temp": 6.0, "dewp": 4.0, "wspd": 9, "wdir": 360, "cover": "FEW", "visib": 6.21, "fltcat": "VFR", "altim": 1025.0, "rawOb": "YMML 202000Z 36009KT 9999 FEW028 06/04 Q1025 NOSIG"}, "geometry": {"type": "Point", "coordinates": [144.838, -37.671]}}, {"type": "Feature", "properties": {"id": "YPKG", "site": "Kalgoorlie/Boulder A", "prior": "1", "obsTime": "2018-09-20T20:00:00Z", "temp": 14.0, "dewp": 1.0, "wspd": 7, "wdir": 10, "cover": "CLR", "visib": 6.21, "fltcat": "VFR", "altim": 1021.0, "rawOb": "YPKG 202000Z AUTO 01007KT 9999 // NCD 14/01 Q1021"}, "geometry": {"type": "Point", "coordinates": [121.463, -30.791]}}, {"type": "Feature", "properties": {"id": "SCTE", "site": "Puerto Montt/Tepual", "prior": "1", "obsTime": "2018-09-20T20:00:00Z", "temp": 12.0, "dewp": 10.0, "wspd": 10, "wdir": 330, "ceil": 30, "cover": "BKN", "visib": 4.97, "fltcat": "MVFR", "altim": 1005.0, "wx": "-SHRA", "rawOb": "SCTE 202000Z 33010KT 8000 -SHRA BKN030 BKN040 12/10 Q1005 NOSIG"}, "geometry": {"type": "Point", "coordinates": [-73.094, -41.438]}}, {"type": "Feature", "properties": {"id": "SACO", "site": "Cordoba/Taravella In", "prior": "1", "obsTime": "2018-09-20T20:00:00Z", "temp": 25.0, "dewp": 2.0, "wspd": 19, "wdir": 40, "cover": "CAVOK", "visib": 6.21, "fltcat": "VFR", "altim": 1010.0, "rawOb": "SACO 202000Z 04019KT CAVOK 25/02 Q1010 NOSIG"}, "geometry": {"type": "Point", "coordinates": [-64.208, -31.315]}}, {"type": "Feature", "properties": {"id": "SEQM", "site": "Quito/New Intl", "prior": "1", "obsTime": "2018-09-20T20:00:00Z", "temp": 25.0, "dewp": 2.0, "wspd": 11, "wdir": 110, "cover": "SCT", "visib": 6.21, "fltcat": "VFR", "altim": 1019.0, "rawOb": "SEQM 202000Z 11011KT 9999 SCT050 25/02 Q1019 NOSIG RMK A3010"}, "geometry": {"type": "Point", "coordinates": [-78.354, -0.124]}}, {"type": "Feature", "properties": {"id": "YMHB", "site": "Hobart Intl", "prior": "1", "obsTime": "2018-09-20T20:00:00Z", "temp": 12.0, "dewp": 5.0, "wspd": 7, "wdir": 340, "ceil": 250, "cover": "BKN", "visib": 6.21, "fltcat": "VFR", "altim": 1017.0, "rawOb": "YMHB 202000Z 34007KT 9999 FEW040 BKN250 12/05 Q1017"}, "geometry": {"type": "Point", "coordinates": [147.512, -42.836]}}, {"type": "Feature", "properties": {"id": "NZCH", "site": "Christchurch Intl", "prior": "1", "obsTime": "2018-09-20T19:30:00Z", "temp": 8.0, "dewp": 7.0, "wspd": 10, "wdir": 230, "cover": "SCT", "visib": 6.21, "fltcat": "VFR", "altim": 1005.0, "rawOb": "NZCH 201930Z AUTO 23010KT 9999 SCT009/// 08/07 Q1005 NOSIG"}, "geometry": {"type": "Point", "coordinates": [172.533, -43.488]}}, {"type": "Feature", "properties": {"id": "VRMM", "site": "Male/Nasir Intl", "prior": "1", "obsTime": "2018-09-20T19:00:00Z", "temp": 29.0, "dewp": 24.0, "wspd": 11, "wdir": 300, "ceil": 260, "cover": "BKN", "visib": 6.21, "fltcat": "VFR", "altim": 1010.0, "rawOb": "VRMM 201900Z 30011KT 9999 FEW018TCU BKN260 29/24 Q1010 TEMPO 5000 -SHRA"}, "geometry": {"type": "Point", "coordinates": [73.529, 4.19]}}, {"type": "Feature", "properties": {"id": "FAGG", "site": "George Arpt", "prior": "2", "obsTime": "2018-09-20T19:00:00Z", "temp": 8.0, "dewp": 6.0, "wspd": 3, "wdir": 300, "cover": "CAVOK", "visib": 6.21, "fltcat": "VFR", "altim": 1025.0, "rawOb": "FAGG 201900Z AUTO 30003KT 270V330 CAVOK 08/06 Q1025"}, "geometry": {"type": "Point", "coordinates": [22.379, -34.005]}}, {"type": "Feature", "properties": {"id": "SBCI", "site": "Carolina Arpt", "prior": "2", "obsTime": "2018-09-20T19:00:00Z", "temp": 36.0, "dewp": 21.0, "wspd": 3, "wdir": 130, "cover": "CAVOK", "visib": 6.21, "fltcat": "VFR", "altim": 1010.0, "rawOb": "SBCI 201900Z 13003KT CAVOK 36/21 Q1010"}, "geometry": {"type": "Point", "coordinates": [-47.459, -7.32]}}, {"type": "Feature", "properties": {"id": "YMIA", "site": "Mildura Arpt", "prior": "2", "obsTime": "2018-09-20T19:00:00Z", "temp": 5.0, "dewp": 4.0, "wspd": 3, "wdir": 180, "cover": "CLR", "visib": 6.21, "fltcat": "VFR", "altim": 1026.0, "rawOb": "YMIA 201900Z AUTO 18003KT 9999 // NCD 05/04 Q1026"}, "geometry": {"type": "Point", "coordinates": [142.086, -34.229]}}, {"type": "Feature", "properties": {"id": "SLSA", "site": "Santa Ana de Yacuma", "prior": "2", "obsTime": "2018-09-20T19:00:00Z", "temp": 35.0, "dewp": 22.0, "wspd": 14, "wdir": 300, "ceil": 20, "cover": "BKN", "visib": 4.97, "fltcat": "MVFR", "altim": 1007.0, "rawOb": "SLSA 201900Z 30014KT 8000 BKN020 FEW023CB BKN200 35/22 Q1007"}, "geometry": {"type": "Point", "coordinates": [-65.434, -13.764]}}, {"type": "Feature", "properties": {"id": "SBGR", "site": "Sao Paulo Intl", "prior": "2", "obsTime": "2018-09-20T20:00:00Z", "temp": 20.0, "dewp": 18.0, "wspd": 5, "wdir": 60, "cover": "CAVOK", "visib": 6.21, "fltcat": "VFR", "altim": 1018.0, "rawOb": "SBGR 202000Z 06005KT CAVOK 20/18 Q1018"}, "geometry": {"type": "Point", "coordinates": [-46.47, -23.432]}}, {"type": "Feature", "properties": {"id": "WARR", "site": "Surabaya/Juanda Intl", "prior": "2", "obsTime": "2018-09-20T19:00:00Z", "temp": 26.0, "dewp": 22.0, "wspd": 6, "wdir": 260, "cover": "FEW", "visib": 3.11, "fltcat": "MVFR", "altim": 1010.0, "wx": "HZ", "rawOb": "WARR 201900Z 26006KT 5000 HZ FEW020 26/22 Q1010 NOSIG"}, "geometry": {"type": "Point", "coordinates": [112.786, -7.377]}}, {"type": "Feature", "properties": {"id": "YGTH", "site": "Griffith Arpt", "prior": "2", "obsTime": "2018-09-20T19:00:00Z", "temp": 3.0, "dewp": -3.0, "wspd": 3, "wdir": 210, "cover": "CLR", "visib": 6.21, "fltcat": "VFR", "altim": 1026.0, "rawOb": "YGTH 201900Z AUTO 21003KT 9999 // NCD 03/M03 Q1026"}, "geometry": {"type": "Point", "coordinates": [146.07, -34.249]}}, {"type": "Feature", "properties": {"id": "SBCZ", "site": "Cruzeiro Do Sul Intl", "prior": "2", "obsTime": "2018-09-20T19:00:00Z", "temp": 23.0, "dewp": 22.0, "wspd": 0, "wdir": 0, "ceil": 100, "cover": "OVC", "visib": 6.21, "fltcat": "VFR", "altim": 1010.0, "rawOb": "SBCZ 201900Z 00000KT 9999 SCT030 OVC100 23/22 Q1010"}, "geometry": {"type": "Point", "coordinates": [-72.772, -7.601]}}, {"type": "Feature", "properties": {"id": "YPBO", "site": "Paraburdoo Arpt", "prior": "2", "obsTime": "2018-09-20T19:00:00Z", "temp": 14.0, "dewp": -10.0, "wspd": 10, "wdir": 30, "cover": "CLR", "visib": 6.21, "fltcat": "VFR", "altim": 1018.0, "rawOb": "YPBO 201900Z AUTO 03010KT 9999 // NCD 14/M10 Q1018"}, "geometry": {"type": "Point", "coordinates": [117.749, -23.173]}}, {"type": "Feature", "properties": {"id": "YBUD", "site": "Bundaberg Arpt", "prior": "2", "obsTime": "2018-09-20T20:00:00Z", "temp": 14.0, "dewp": -3.0, "wspd": 8, "wdir": 210, "cover": "SCT", "visib": 6.21, "fltcat": "VFR", "altim": 1021.0, "rawOb": "YBUD 202000Z AUTO 21008KT 9999 // SCT038 14/M03 Q1021"}, "geometry": {"type": "Point", "coordinates": [152.321, -24.901]}}, {"type": "Feature", "properties": {"id": "YCAR", "site": "Carnarvon Arpt", "prior": "2", "obsTime": "2018-09-20T20:00:00Z", "temp": 15.0, "dewp": 7.0, "wspd": 8, "wdir": 180, "ceil": 57, "cover": "OVC", "visib": 6.21, "fltcat": "VFR", "altim": 1016.0, "rawOb": "YCAR 202000Z AUTO 18008KT 9999 // BKN057 OVC115 15/07 Q1016"}, "geometry": {"type": "Point", "coordinates": [113.665, -24.883]}}, {"type": "Feature", "properties": {"id": "YESP", "site": "Esperance Arpt", "prior": "2", "obsTime": "2018-09-20T19:00:00Z", "temp": 10.0, "dewp": 7.0, "wspd": 9, "wdir": 360, "cover": "CLR", "visib": 6.21, "fltcat": "VFR", "altim": 1019.0, "rawOb": "YESP 201900Z AUTO 36009KT 9999 // NCD 10/07 Q1019"}, "geometry": {"type": "Point", "coordinates": [121.827, -33.683]}}, {"type": "Feature", "properties": {"id": "YAYE", "site": "Ayers Rock Arpt", "prior": "2", "obsTime": "2018-09-20T20:00:00Z", "temp": 13.0, "dewp": 9.0, "wspd": 3, "wdir": 30, "ceil": 37, "cover": "OVC", "visib": 6.21, "fltcat": "VFR", "altim": 1024.0, "rawOb": "YAYE 202000Z AUTO 03003KT 9999 // OVC037 OVC053 13/09 Q1024"}, "geometry": {"type": "Point", "coordinates": [130.976, -25.186]}}, {"type": "Feature", "properties": {"id": "YBTL", "site": "Townsville Arpt", "prior": "2", "obsTime": "2018-09-20T20:00:00Z", "temp": 18.0, "dewp": 17.0, "wspd": 0, "wdir": 0, "cover": "CLR", "visib": 6.21, "fltcat": "VFR", "altim": 1016.0, "rawOb": "YBTL 202000Z AUTO 00000KT 9999 // NCD 18/17 Q1016"}, "geometry": {"type": "Point", "coordinates": [146.77, -19.246]}}, {"type": "Feature", "properties": {"id": "SPZO", "site": "Cuzco/Velazco Arpt", "prior": "2", "obsTime": "2018-09-20T19:30:00Z", "temp": 23.0, "dewp": -1.0, "wspd": 6, "wdir": 360, "cover": "SCT", "visib": 6.21, "fltcat": "VFR", "altim": 1026.0, "rawOb": "SPZO 201930Z 36006KT 280V090 9999 SCT050 23/M01 Q1026 NOSIG RMK BIRD HAZARD RWY 28"}, "geometry": {"type": "Point", "coordinates": [-71.941, -13.535]}}, {"type": "Feature", "properties": {"id": "SGAS", "site": "Asuncion/Pettriossi", "prior": "2", "obsTime": "2018-09-20T19:00:00Z", "temp": 25.0, "dewp": 19.0, "wspd": 6, "wdir": 60, "ceil": 80, "cover": "BKN", "visib": 6.21, "fltcat": "VFR", "altim": 1010.0, "rawOb": "SGAS 201900Z 06006KT 9999 SCT033 BKN080 25/19 Q1010"}, "geometry": {"type": "Point", "coordinates": [-57.52, -25.245]}}, {"type": "Feature", "properties": {"id": "SBMY", "site": "Manicore Arpt", "prior": "2", "obsTime": "2018-09-20T19:00:00Z", "temp": 34.0, "dewp": 24.0, "wspd": 6, "wdir": 50, "cover": "FEW", "visib": 6.21, "fltcat": "VFR", "altim": 1008.0, "rawOb": "SBMY 201900Z 05006KT 9999 FEW020 34/24 Q1008"}, "geometry": {"type": "Point", "coordinates": [-61.279, -5.812]}}, {"type": "Feature", "properties": {"id": "SBEK", "site": "Jacareacanga Arpt", "prior": "2", "obsTime": "2018-09-20T19:00:00Z", "temp": 35.0, "dewp": 25.0, "wspd": 5, "wdir": 130, "cover": "FEW", "visib": 6.21, "fltcat": "VFR", "altim": 1008.0, "rawOb": "SBEK 201900Z 13005KT 9999 FEW020 35/25 Q1008"}, "geometry": {"type": "Point", "coordinates": [-57.777, -6.234]}}, {"type": "Feature", "properties": {"id": "AYNZ", "site": "Nadzab Arpt", "prior": "2", "obsTime": "2018-09-20T19:00:00Z", "temp": 24.0, "dewp": 21.0, "wspd": 3, "wdir": 0, "cover": "SCT", "visib": 6.21, "fltcat": "VFR", "altim": 1011.0, "rawOb": "AYNZ 201900Z VRB03KT 9999 SCT035 24/21 Q1011"}, "geometry": {"type": "Point", "coordinates": [146.726, -6.57]}}, {"type": "Feature", "properties": {"id": "FQLC", "site": "Lichinga Arpt", "prior": "2", "obsTime": "2018-09-20T19:00:00Z", "temp": 20.0, "dewp": 12.0, "wspd": 5, "wdir": 70, "cover": "CAVOK", "visib": 6.21, "fltcat": "VFR", "altim": 1024.0, "rawOb": "FQLC 201900Z 07005KT CAVOK 20/12 Q1024"}, "geometry": {"type": "Point", "coordinates": [35.265, -13.274]}}, {"type": "Feature", "properties": {"id": "NZWN", "site": "Wellington Intl", "prior": "2", "obsTime": "2018-09-20T19:30:00Z", "temp": 12.0, "dewp": 9.0, "wspd": 12, "wdir": 20, "cover": "CLR", "visib": 6.21, "fltcat": "VFR", "altim": 1005.0, "rawOb": "NZWN 201930Z AUTO 02012KT 9999 NCD 12/09 Q1005 NOSIG"}, "geometry": {"type": "Point", "coordinates": [174.807, -41.326]}}, {"type": "Feature", "properties": {"id": "SBCF", "site": "Belo Horizonte/Neves", "prior": "2", "obsTime": "2018-09-20T19:00:00Z", "temp": 24.0, "dewp": 16.0, "wspd": 5, "wdir": 150, "ceil": 90, "cover": "BKN", "visib": 6.21, "fltcat": "VFR", "altim": 1018.0, "rawOb": "SBCF 201900Z 15005KT 9999 SCT033 BKN090 24/16 Q1018"}, "geometry": {"type": "Point", "coordinates": [-43.966, -19.635]}}, {"type": "Feature", "properties": {"id": "SPRU", "site": "Trujillo Aprt", "prior": "2", "obsTime": "2018-09-20T19:00:00Z", "temp": 19.0, "dewp": 14.0, "wspd": 10, "wdir": 180, "cover": "CAVOK", "visib": 6.21, "fltcat": "VFR", "altim": 1011.0, "rawOb": "SPRU 201900Z 18010KT CAVOK 19/14 Q1011 RMK PP000"}, "geometry": {"type": "Point", "coordinates": [-79.109, -8.083]}}, {"type": "Feature", "properties": {"id": "YSCB", "site": "Canberra Intl", "prior": "2", "obsTime": "2018-09-20T20:00:00Z", "temp": -3.0, "dewp": -5.0, "wspd": 0, "wdir": 0, "cover": "CAVOK", "visib": 6.21, "fltcat": "VFR", "altim": 1026.0, "rawOb": "YSCB 202000Z 00000KT CAVOK M03/M05 Q1026 NOSIG"}, "geometry": {"type": "Point", "coordinates": [149.194, -35.307]}}, {"type": "Feature", "properties": {"id": "HTMT", "site": "Mtwara Arpt", "prior": "2", "obsTime": "2018-09-20T19:00:00Z", "temp": 23.0, "dewp": 22.0, "wspd": 0, "wdir": 0, "cover": "FEW", "visib": 6.21, "fltcat": "VFR", "altim": 1017.0, "rawOb": "HTMT 201900Z 00000KT 9999 FEW019 23/22 Q1017"}, "geometry": {"type": "Point", "coordinates": [40.183, -10.267]}}, {"type": "Feature", "properties": {"id": "SLTJ", "site": "Tarija/Plaza Arpt", "prior": "2", "obsTime": "2018-09-20T19:00:00Z", "temp": 27.0, "dewp": 12.0, "wspd": 16, "wdir": 130, "cover": "FEW", "visib": 6.21, "fltcat": "VFR", "altim": 1013.0, "rawOb": "SLTJ 201900Z 13016KT 9999 FEW040 27/12 Q1013"}, "geometry": {"type": "Point", "coordinates": [-64.702, -21.555]}}, {"type": "Feature", "properties": {"id": "YPPD", "site": "Port Hedland Intl", "prior": "2", "obsTime": "2018-09-20T20:00:00Z", "temp": 15.0, "dewp": 11.0, "wspd": 4, "wdir": 180, "cover": "CLR", "visib": 6.21, "fltcat": "VFR", "altim": 1015.0, "rawOb": "YPPD 202000Z AUTO 18004KT 9999 // NCD 15/11 Q1015"}, "geometry": {"type": "Point", "coordinates": [118.629, -20.381]}}, {"type": "Feature", "properties": {"id": "YPXM", "site": "Christmas Isl Arpt", "prior": "2", "obsTime": "2018-09-20T20:00:00Z", "temp": 22.0, "dewp": 19.0, "wspd": 9, "wdir": 120, "ceil": 5, "cover": "OVC", "visib": 6.21, "fltcat": "IFR", "altim": 1013.0, "rawOb": "YPXM 202000Z AUTO 12009KT 9999 // OVC005 22/19 Q1013"}, "geometry": {"type": "Point", "coordinates": [105.691, -10.451]}}, {"type": "Feature", "properties": {"id": "SCIE", "site": "Concepcion/Sur Intl", "prior": "2", "obsTime": "2018-09-20T20:00:00Z", "temp": 13.0, "dewp": 12.0, "wspd": 8, "wdir": 10, "ceil": 4, "cover": "BKN", "visib": 4.97, "fltcat": "LIFR", "altim": 1015.0, "rawOb": "SCIE 202000Z 01008KT 330V030 8000 BKN004 BKN083 13/12 Q1015"}, "geometry": {"type": "Point", "coordinates": [-73.064, -36.773]}}, {"type": "Feature", "properties": {"id": "FBFT", "site": "Francistown Arpt", "prior": "2", "obsTime": "2018-09-20T19:00:00Z", "temp": 22.0, "dewp": 14.0, "wspd": 13, "wdir": 100, "cover": "CAVOK", "visib": 6.21, "fltcat": "VFR", "altim": 1021.0, "rawOb": "FBFT 201900Z 10013KT CAVOK 22/14 Q1021"}, "geometry": {"type": "Point", "coordinates": [27.478, -21.16]}}, {"type": "Feature", "properties": {"id": "SAZM", "site": "Mar Del Plata Arpt", "prior": "2", "obsTime": "2018-09-20T20:00:00Z", "temp": 20.0, "dewp": 5.0, "wspd": 14, "wdir": 340, "cover": "CAVOK", "visib": 6.21, "fltcat": "VFR", "altim": 1011.0, "rawOb": "SAZM 202000Z 34014KT CAVOK 20/05 Q1011"}, "geometry": {"type": "Point", "coordinates": [-57.575, -37.934]}}, {"type": "Feature", "properties": {"id": "SLRI", "site": "Riberalta Arpt", "prior": "2", "obsTime": "2018-09-20T19:00:00Z", "temp": 28.0, "dewp": 24.0, "wspd": 10, "wdir": 360, "ceil": 17, "cover": "BKN", "visib": 3.11, "fltcat": "MVFR", "altim": 1010.0, "wx": "TS VCSH", "rawOb": "SLRI 201900Z 36010KT 5000 TS VCSH BKN017 FEW020CB BKN200 28/24 Q1010"}, "geometry": {"type": "Point", "coordinates": [-66.076, -11.008]}}, {"type": "Feature", "properties": {"id": "YMTG", "site": "Mt Gambier Arpt", "prior": "2", "obsTime": "2018-09-20T19:52:00Z", "temp": 9.0, "dewp": 9.0, "wspd": 5, "wdir": 350, "cover": "SCT", "visib": 6.21, "fltcat": "VFR", "altim": 1025.0, "wx": "-SHRA", "rawOb": "YMTG 201952Z AUTO 35005KT 9999 -SHRA SCT005 SCT016 SCT026 09/09 Q1025"}, "geometry": {"type": "Point", "coordinates": [140.785, -37.746]}}, {"type": "Feature", "properties": {"id": "YBWP", "site": "Weipa Aprt", "prior": "2", "obsTime": "2018-09-20T20:00:00Z", "temp": 23.0, "dewp": 15.0, "wspd": 5, "wdir": 70, "ceil": 115, "cover": "OVC", "visib": 6.21, "fltcat": "VFR", "altim": 1012.0, "rawOb": "YBWP 202000Z AUTO 07005KT 9999 // OVC115 23/15 Q1012"}, "geometry": {"type": "Point", "coordinates": [141.924, -12.678]}}, {"type": "Feature", "properties": {"id": "WIMM", "site": "Medan/Polonia Intl", "prior": "2", "obsTime": "2018-09-20T19:00:00Z", "temp": 25.0, "dewp": 23.0, "wspd": 0, "wdir": 0, "cover": "SCT", "visib": 6.21, "fltcat": "VFR", "altim": 1009.0, "rawOb": "WIMM 201900Z 00000KT 9999 SCT018 25/23 Q1009 NOSIG"}, "geometry": {"type": "Point", "coordinates": [98.672, 3.559]}}, {"type": "Feature", "properties": {"id": "SBVH", "site": "Vilhena Arpt", "prior": "2", "obsTime": "2018-09-20T19:00:00Z", "temp": 32.0, "dewp": 20.0, "wspd": 6, "wdir": 290, "ceil": 70, "cover": "BKN", "visib": 6.21, "fltcat": "VFR", "altim": 1012.0, "rawOb": "SBVH 201900Z 29006KT 220V320 9999 SCT040 BKN070 32/20 Q1012 RETS"}, "geometry": {"type": "Point", "coordinates": [-60.098, -12.695]}}, {"type": "Feature", "properties": {"id": "SBRF", "site": "Recife Arpt", "prior": "2", "obsTime": "2018-09-20T19:00:00Z", "temp": 26.0, "dewp": 21.0, "wspd": 10, "wdir": 140, "ceil": 20, "cover": "BKN", "visib": 6.21, "fltcat": "MVFR", "altim": 1014.0, "wx": "VCSH", "rawOb": "SBRF 201900Z 14010KT 9999 VCSH BKN020 BKN050 26/21 Q1014"}, "geometry": {"type": "Point", "coordinates": [-34.923, -8.127]}}, {"type": "Feature", "properties": {"id": "FYWB", "site": "Walvis Bay Arpt", "prior": "2", "obsTime": "2018-09-20T19:00:00Z", "temp": 14.0, "dewp": 8.0, "wspd": 5, "wdir": 60, "altim": 1014.0, "rawOb": "FYWB 201900Z AUTO 06005KT //// // ////// 14/08 Q1014"}, "geometry": {"type": "Point", "coordinates": [14.643, -22.981]}}, {"type": "Feature", "properties": {"id": "SBUR", "site": "Uberaba Arpt", "prior": "2", "obsTime": "2018-09-20T19:00:00Z", "temp": 25.0, "dewp": 16.0, "wspd": 3, "wdir": 80, "ceil": 80, "cover": "OVC", "visib": 6.21, "fltcat": "VFR", "altim": 1017.0, "rawOb": "SBUR 201900Z 08003KT 030V130 9999 FEW033 FEW040TCU OVC080 25/16 Q1017"}, "geometry": {"type": "Point", "coordinates": [-47.965, -19.765]}}, {"type": "Feature", "properties": {"id": "FQPB", "site": "Pemba Arpt", "prior": "2", "obsTime": "2018-09-20T19:00:00Z", "temp": 25.0, "dewp": 22.0, "wspd": 4, "wdir": 140, "cover": "SCT", "visib": 6.21, "fltcat": "VFR", "altim": 1018.0, "rawOb": "FQPB 201900Z 14004KT 9999 SCT020 25/22 Q1018"}, "geometry": {"type": "Point", "coordinates": [40.524, -12.992]}}, {"type": "Feature", "properties": {"id": "WBGB", "site": "Bintulu Arpt", "prior": "2", "obsTime": "2018-09-20T19:00:00Z", "temp": 25.0, "dewp": 24.0, "wspd": 3, "wdir": 150, "ceil": 150, "cover": "BKN", "visib": 6.21, "fltcat": "VFR", "altim": 1009.0, "rawOb": "WBGB 201900Z 15003KT 110V200 9999 SCT016 BKN150 25/24 Q1009"}, "geometry": {"type": "Point", "coordinates": [113.02, 3.124]}}, {"type": "Feature", "properties": {"id": "WMSA", "site": "Kuala Lumpur/Shah Ar", "prior": "2", "obsTime": "2018-09-20T19:00:00Z", "temp": 24.0, "dewp": 23.0, "wspd": 2, "wdir": 0, "ceil": 260, "cover": "BKN", "visib": 5.59, "fltcat": "VFR", "altim": 1010.0, "rawOb": "WMSA 201900Z VRB02KT 9000 FEW008 SCT024 BKN260 24/23 Q1010"}, "geometry": {"type": "Point", "coordinates": [101.55, 3.129]}}, {"type": "Feature", "properties": {"id": "SBPP", "site": "Ponta Pora Intl", "prior": "2", "obsTime": "2018-09-20T19:00:00Z", "temp": 21.0, "dewp": 17.0, "wspd": 16, "wdir": 300, "ceil": 70, "cover": "BKN", "visib": 6.21, "fltcat": "VFR", "altim": 1015.0, "rawOb": "SBPP 201900Z 30016KT 9999 FEW015 BKN070 21/17 Q1015"}, "geometry": {"type": "Point", "coordinates": [-55.703, -22.551]}}, {"type": "Feature", "properties": {"id": "SKCL", "site": "Cali/Aragon Arpt", "prior": "2", "obsTime": "2018-09-20T20:00:00Z", "temp": 32.0, "dewp": 19.0, "wspd": 8, "wdir": 340, "cover": "SCT", "visib": 6.21, "fltcat": "VFR", "altim": 1008.9, "rawOb": "SKCL 202000Z 34008KT 250V020 9999 SCT040 32/19 A2979"}, "geometry": {"type": "Point", "coordinates": [-76.382, 3.543]}}, {"type": "Feature", "properties": {"id": "NCPY", "site": "Cook Isl/Tongareva A", "prior": "2", "obsTime": "2018-09-20T20:00:00Z", "temp": 28.0, "dewp": 23.0, "wspd": 9, "wdir": 90, "altim": 1009.0, "rawOb": "NCPY 202000Z AUTO 09009KT //// ////// 28/23 Q1009"}, "geometry": {"type": "Point", "coordinates": [-158.036, -9.006]}}, {"type": "Feature", "properties": {"id": "SULS", "site": "Capitan Corbeta Intl", "prior": "2", "obsTime": "2018-09-20T19:00:00Z", "temp": 20.0, "dewp": 4.0, "wspd": 7, "wdir": 170, "cover": "CAVOK", "visib": 6.21, "fltcat": "VFR", "altim": 1015.0, "rawOb": "SULS 201900Z 17007KT CAVOK 20/04 Q1015"}, "geometry": {"type": "Point", "coordinates": [-55.098, -34.856]}}, {"type": "Feature", "properties": {"id": "YABA", "site": "Albany Rgnl", "prior": "2", "obsTime": "2018-09-20T20:00:00Z", "temp": 11.0, "dewp": 11.0, "wspd": 0, "wdir": 0, "cover": "SCT", "visib": 1.93, "fltcat": "IFR", "altim": 1019.0, "rawOb": "YABA 202000Z AUTO 00000KT 3100 // SCT016 11/11 Q1019"}, "geometry": {"type": "Point", "coordinates": [117.802, -34.941]}}, {"type": "Feature", "properties": {"id": "SBPL", "site": "Petrolina Arpt", "prior": "2", "obsTime": "2018-09-20T19:00:00Z", "temp": 34.0, "dewp": 13.0, "wspd": 12, "wdir": 120, "cover": "CAVOK", "visib": 6.21, "fltcat": "VFR", "altim": 1012.0, "rawOb": "SBPL 201900Z 12012KT CAVOK 34/13 Q1012"}, "geometry": {"type": "Point", "coordinates": [-40.565, -9.364]}}, {"type": "Feature", "properties": {"id": "SBDN", "site": "Presidente Prudente", "prior": "2", "obsTime": "2018-09-20T19:00:00Z", "temp": 18.0, "dewp": 17.0, "wspd": 7, "wdir": 120, "cover": "CLR", "visib": 6.21, "fltcat": "VFR", "altim": 1017.0, "wx": "-RA", "rawOb": "SBDN 201900Z 12007KT 9999 -RA NSC 18/17 Q1017"}, "geometry": {"type": "Point", "coordinates": [-51.424, -22.176]}}, {"type": "Feature", "properties": {"id": "YRMD", "site": "Richmond Arpt", "prior": "2", "obsTime": "2018-09-20T19:00:00Z", "temp": 14.0, "dewp": -9.0, "wspd": 12, "wdir": 130, "cover": "CLR", "visib": 6.21, "fltcat": "VFR", "altim": 1018.0, "rawOb": "YRMD 201900Z AUTO 13012KT 9999 // NCD 14/M09 Q1018"}, "geometry": {"type": "Point", "coordinates": [143.117, -20.702]}}, {"type": "Feature", "properties": {"id": "YCFS", "site": "Coffs Harbour Arpt", "prior": "2", "obsTime": "2018-09-20T19:30:00Z", "temp": 11.0, "dewp": 7.0, "wspd": 10, "wdir": 240, "cover": "CLR", "visib": 6.21, "fltcat": "VFR", "altim": 1025.0, "rawOb": "YCFS 201930Z AUTO 24010KT 9999 // NCD 11/07 Q1025 RF00.0/002.0"}, "geometry": {"type": "Point", "coordinates": [153.116, -30.328]}}, {"type": "Feature", "properties": {"id": "YNTN", "site": "Normanton Arpt", "prior": "2", "obsTime": "2018-09-20T19:00:00Z", "temp": 24.0, "dewp": -8.0, "wspd": 13, "wdir": 160, "cover": "CLR", "visib": 6.21, "fltcat": "VFR", "altim": 1013.0, "rawOb": "YNTN 201900Z AUTO 16013KT 9999 // NCD 24/M08 Q1013"}, "geometry": {"type": "Point", "coordinates": [141.073, -17.687]}}, {"type": "Feature", "properties": {"id": "SBFL", "site": "Florianopolis/Luiz A", "prior": "2", "obsTime": "2018-09-20T20:00:00Z", "temp": 22.0, "dewp": 20.0, "wspd": 7, "wdir": 160, "ceil": 100, "cover": "BKN", "visib": 6.21, "fltcat": "VFR", "altim": 1014.0, "rawOb": "SBFL 202000Z 16007KT 9999 SCT020 BKN100 22/20 Q1014"}, "geometry": {"type": "Point", "coordinates": [-48.544, -27.67]}}, {"type": "Feature", "properties": {"id": "NVVV", "site": "Efate/Bauerfield Int", "prior": "2", "obsTime": "2018-09-20T19:00:00Z", "temp": 23.0, "dewp": 21.0, "wspd": 5, "wdir": 90, "ceil": 20, "cover": "OVC", "visib": 6.21, "fltcat": "MVFR", "altim": 1013.0, "rawOb": "NVVV 201900Z 09005KT 9999 BKN020 OVC110 23/21 Q1013 RMK NIL"}, "geometry": {"type": "Point", "coordinates": [168.316, -17.697]}}, {"type": "Feature", "properties": {"id": "YTEF", "site": "Telfer Arpt", "prior": "2", "obsTime": "2018-09-20T20:00:00Z", "temp": 14.0, "dewp": -5.0, "wspd": 9, "wdir": 130, "cover": "CLR", "visib": 6.21, "fltcat": "VFR", "altim": 1018.0, "rawOb": "YTEF 202000Z AUTO 13009KT 9999 // NCD 14/M05 Q1018"}, "geometry": {"type": "Point", "coordinates": [122.231, -21.715]}}, {"type": "Feature", "properties": {"id": "SBSN", "site": "Santarem Intl", "prior": "2", "obsTime": "2018-09-20T19:00:00Z", "temp": 32.0, "dewp": 24.0, "wspd": 13, "wdir": 60, "cover": "FEW", "visib": 6.21, "fltcat": "VFR", "altim": 1009.0, "rawOb": "SBSN 201900Z 06013KT 9999 FEW030 32/24 Q1009"}, "geometry": {"type": "Point", "coordinates": [-54.793, -2.423]}}, {"type": "Feature", "properties": {"id": "SBBW", "site": "Berra Do Garcas Arpt", "prior": "2", "obsTime": "2018-09-20T19:00:00Z", "temp": 31.0, "dewp": 19.0, "wspd": 6, "wdir": 350, "ceil": 97, "cover": "BKN", "visib": 6.21, "fltcat": "VFR", "altim": 1012.0, "rawOb": "SBBW 201900Z 35006KT 9999 FEW020 SCT080 BKN097 31/19 Q1012"}, "geometry": {"type": "Point", "coordinates": [-52.389, -15.862]}}, {"type": "Feature", "properties": {"id": "YPKU", "site": "Kununurra Arpt", "prior": "2", "obsTime": "2018-09-20T20:00:00Z", "temp": 22.0, "dewp": 18.0, "wspd": 4, "wdir": 130, "cover": "CLR", "visib": 6.21, "fltcat": "VFR", "altim": 1013.0, "rawOb": "YPKU 202000Z AUTO 13004KT 9999 // NCD 22/18 Q1013"}, "geometry": {"type": "Point", "coordinates": [128.71, -15.778]}}, {"type": "Feature", "properties": {"id": "FMNM", "site": "Mahajanga Arpt", "prior": "2", "obsTime": "2018-09-20T19:00:00Z", "temp": 26.0, "dewp": 18.0, "wspd": 0, "wdir": 0, "cover": "CAVOK", "visib": 6.21, "fltcat": "VFR", "altim": 1017.0, "rawOb": "FMNM 201900Z 00000KT CAVOK 26/18 Q1017"}, "geometry": {"type": "Point", "coordinates": [46.352, -15.667]}}, {"type": "Feature", "properties": {"id": "SMJP", "site": "Paramaribo/Pengel In", "prior": "2", "obsTime": "2018-09-20T19:00:00Z", "temp": 34.0, "dewp": 21.0, "wspd": 6, "wdir": 130, "cover": "SCT", "visib": 6.21, "fltcat": "VFR", "altim": 1009.0, "rawOb": "SMJP 201900Z 13006KT 9999 SCT040 34/21 Q1009 NOSIG"}, "geometry": {"type": "Point", "coordinates": [-55.191, 5.453]}}, {"type": "Feature", "properties": {"id": "WMKN", "site": "Kuala Terengganu Arp", "prior": "2", "obsTime": "2018-09-20T19:00:00Z", "temp": 27.0, "dewp": 25.0, "wspd": 3, "wdir": 240, "ceil": 300, "cover": "BKN", "visib": 6.21, "fltcat": "VFR", "altim": 1009.0, "rawOb": "WMKN 201900Z 24003KT 200V260 9999 FEW024 SCT150 BKN300 27/25 Q1009"}, "geometry": {"type": "Point", "coordinates": [103.103, 5.383]}}, {"type": "Feature", "properties": {"id": "WIPP", "site": "Palembang/Badaruddin", "prior": "2", "obsTime": "2018-09-20T19:00:00Z", "temp": 23.0, "dewp": 22.0, "wspd": 3, "wdir": 210, "cover": "SCT", "visib": 6.21, "fltcat": "VFR", "altim": 1010.0, "rawOb": "WIPP 201900Z 21003KT 9999 SCT010 23/22 Q1010 NOSIG"}, "geometry": {"type": "Point", "coordinates": [104.701, -2.897]}}, {"type": "Feature", "properties": {"id": "YBHI", "site": "Broken Hill Arpt", "prior": "2", "obsTime": "2018-09-20T19:00:00Z", "temp": 8.0, "dewp": -4.0, "wspd": 3, "wdir": 50, "cover": "CLR", "visib": 6.21, "fltcat": "VFR", "altim": 1026.0, "rawOb": "YBHI 201900Z AUTO 05003KT 9999 // NCD 08/M04 Q1026"}, "geometry": {"type": "Point", "coordinates": [141.469, -32.001]}}, {"type": "Feature", "properties": {"id": "SANT", "site": "Tucuman/Matlenzo Int", "prior": "2", "obsTime": "2018-09-20T20:00:00Z", "temp": 27.0, "dewp": 9.0, "wspd": 4, "wdir": 90, "cover": "CLR", "visib": 4.35, "fltcat": "MVFR", "altim": 1010.0, "rawOb": "SANT 202000Z 09004KT 7000 NSC 27/09 Q1010"}, "geometry": {"type": "Point", "coordinates": [-65.104, -26.837]}}, {"type": "Feature", "properties": {"id": "SBBE", "site": "Belem/Val de Cans Ar", "prior": "2", "obsTime": "2018-09-20T19:00:00Z", "temp": 33.0, "dewp": 21.0, "wspd": 6, "wdir": 90, "cover": "CAVOK", "visib": 6.21, "fltcat": "VFR", "altim": 1009.0, "rawOb": "SBBE 201900Z 09006KT CAVOK 33/21 Q1009"}, "geometry": {"type": "Point", "coordinates": [-48.476, -1.379]}}, {"type": "Feature", "properties": {"id": "HUEN", "site": "Entebbe Intl", "prior": "2", "obsTime": "2018-09-20T19:30:00Z", "temp": 22.0, "dewp": 19.0, "wspd": 5, "wdir": 180, "cover": "FEW", "visib": 6.21, "fltcat": "VFR", "altim": 1016.0, "rawOb": "HUEN 201930Z 18005KT 9999 FEW020 FEW022CB 22/19 Q1016"}, "geometry": {"type": "Point", "coordinates": [32.443, 0.043]}}, {"type": "Feature", "properties": {"id": "SCSE", "site": "La Serena/La Florida", "prior": "2", "obsTime": "2018-09-20T20:00:00Z", "temp": 19.0, "dewp": 11.0, "wspd": 10, "wdir": 270, "cover": "CAVOK", "visib": 6.21, "fltcat": "VFR", "altim": 1012.0, "rawOb": "SCSE 202000Z 27010KT CAVOK 19/11 Q1012"}, "geometry": {"type": "Point", "coordinates": [-71.2, -29.916]}}, {"type": "Feature", "properties": {"id": "SBUG", "site": "Uruguaiana/Berta Int", "prior": "2", "obsTime": "2018-09-20T19:00:00Z", "temp": 25.0, "dewp": 16.0, "wspd": 12, "wdir": 70, "cover": "CAVOK", "visib": 6.21, "fltcat": "VFR", "altim": 1012.0, "rawOb": "SBUG 201900Z 07012KT CAVOK 25/16 Q1012"}, "geometry": {"type": "Point", "coordinates": [-57.037, -29.782]}}, {"type": "Feature", "properties": {"id": "SBMK", "site": "Montes Claros Arpt", "prior": "2", "obsTime": "2018-09-20T19:00:00Z", "temp": 30.0, "dewp": 13.0, "wspd": 9, "wdir": 0, "cover": "SCT", "visib": 6.21, "fltcat": "VFR", "altim": 1014.0, "rawOb": "SBMK 201900Z VRB09KT 9999 SCT050TCU SCT100 30/13 Q1014"}, "geometry": {"type": "Point", "coordinates": [-43.819, -16.707]}}, {"type": "Feature", "properties": {"id": "SBPS", "site": "Porto Seguro Arpt", "prior": "2", "obsTime": "2018-09-20T20:00:00Z", "temp": 26.0, "dewp": 20.0, "wspd": 11, "wdir": 40, "cover": "CAVOK", "visib": 6.21, "fltcat": "VFR", "altim": 1016.0, "rawOb": "SBPS 202000Z 04011KT CAVOK 26/20 Q1016"}, "geometry": {"type": "Point", "coordinates": [-39.081, -16.438]}}, {"type": "Feature", "properties": {"id": "YMOR", "site": "Moree Arpt", "prior": "2", "obsTime": "2018-09-20T19:00:00Z", "temp": 5.0, "dewp": -7.0, "wspd": 4, "wdir": 120, "cover": "CLR", "visib": 6.21, "fltcat": "VFR", "altim": 1024.0, "rawOb": "YMOR 201900Z AUTO 12004KT 070V160 9999 // NCD 05/M07 Q1024"}, "geometry": {"type": "Point", "coordinates": [149.848, -29.497]}}, {"type": "Feature", "properties": {"id": "WIEE", "site": "Padang/Minangkabau I", "prior": "2", "obsTime": "2018-09-20T19:00:00Z", "temp": 24.0, "dewp": 23.0, "wspd": 3, "wdir": 50, "ceil": 170, "cover": "BKN", "visib": 6.21, "fltcat": "VFR", "altim": 1009.0, "rawOb": "WIEE 201900Z AUTO 05003KT 9999 BKN170 24/23 Q1009"}, "geometry": {"type": "Point", "coordinates": [100.286, -0.788]}}, {"type": "Feature", "properties": {"id": "FABL", "site": "Bloemfontein Intl", "prior": "2", "obsTime": "2018-09-20T19:00:00Z", "temp": 16.0, "dewp": -7.0, "wspd": 9, "wdir": 230, "visib": 6.21, "altim": 1023.0, "rawOb": "FABL 201900Z AUTO 23009KT 9999 ///////// 16/M07 Q1023"}, "geometry": {"type": "Point", "coordinates": [26.303, -29.094]}}, {"type": "Feature", "properties": {"id": "FPST", "site": "Sao Tome Intl", "prior": "2", "obsTime": "2018-09-20T19:00:00Z", "temp": 27.0, "dewp": 24.0, "wspd": 2, "wdir": 180, "ceil": 40, "cover": "BKN", "visib": 6.21, "fltcat": "VFR", "altim": 1011.0, "rawOb": "FPST 201900Z 18002KT 9999 FEW020 BKN040 27/24 Q1011 NOSIG"}, "geometry": {"type": "Point", "coordinates": [6.71, 0.379]}}, {"type": "Feature", "properties": {"id": "YCBP", "site": "Coober Pedy Arpt", "prior": "2", "obsTime": "2018-09-20T20:00:00Z", "temp": 12.0, "dewp": 2.0, "wspd": 9, "wdir": 100, "cover": "CLR", "visib": 6.21, "fltcat": "VFR", "altim": 1025.0, "rawOb": "YCBP 202000Z AUTO 10009KT 9999 // NCD 12/02 Q1025"}, "geometry": {"type": "Point", "coordinates": [134.722, -29.035]}}, {"type": "Feature", "properties": {"id": "SLCB", "site": "Cochabamba/Wilsterma", "prior": "2", "obsTime": "2018-09-20T19:00:00Z", "temp": 26.0, "dewp": 7.0, "wspd": 8, "wdir": 10, "cover": "SCT", "visib": 6.21, "fltcat": "VFR", "altim": 1020.0, "rawOb": "SLCB 201900Z 01008KT 9999 FEW033 FEW036CB SCT200 26/07 Q1020"}, "geometry": {"type": "Point", "coordinates": [-66.178, -17.42]}}, {"type": "Feature", "properties": {"id": "YGEL", "site": "Geraldton Arpt", "prior": "2", "obsTime": "2018-09-20T19:30:00Z", "temp": 8.0, "dewp": 6.0, "wspd": 9, "wdir": 30, "cover": "CLR", "visib": 6.21, "fltcat": "VFR", "altim": 1018.0, "rawOb": "YGEL 201930Z AUTO 03009KT 9999 // NCD 08/06 Q1018 RF00.0/000.0"}, "geometry": {"type": "Point", "coordinates": [114.707, -28.796]}}, {"type": "Feature", "properties": {"id": "SBTF", "site": "Tefe Arpt", "prior": "2", "obsTime": "2018-09-20T19:30:00Z", "temp": 26.0, "dewp": 22.0, "wspd": 14, "wdir": 30, "cover": "SCT", "visib": 3.11, "fltcat": "MVFR", "altim": 1008.0, "wx": "TSRA", "rawOb": "SBTF 201930Z 03014KT 5000 TSRA SCT013 SCT025CB 26/22 Q1008"}, "geometry": {"type": "Point", "coordinates": [-64.724, -3.384]}}, {"type": "Feature", "properties": {"id": "YSDU", "site": "Dubbo Rgnl", "prior": "2", "obsTime": "2018-09-20T20:00:00Z", "temp": 3.0, "dewp": -2.0, "wspd": 5, "wdir": 160, "cover": "CLR", "visib": 6.21, "fltcat": "VFR", "altim": 1026.0, "rawOb": "YSDU 202000Z AUTO 16005KT 9999 // NCD 03/M02 Q1026"}, "geometry": {"type": "Point", "coordinates": [148.576, -32.218]}}, {"type": "Feature", "properties": {"id": "HTTB", "site": "Tabora Arpt", "prior": "2", "obsTime": "2018-09-20T19:00:00Z", "temp": 25.0, "dewp": 10.0, "wspd": 10, "wdir": 140, "cover": "CAVOK", "visib": 6.21, "fltcat": "VFR", "altim": 1018.0, "rawOb": "HTTB 201900Z 14010KT CAVOK 25/10 Q1018"}, "geometry": {"type": "Point", "coordinates": [32.834, -5.078]}}, {"type": "Feature", "properties": {"id": "FAMM", "site": "Mmabatho/MAfikeng In", "prior": "2", "obsTime": "2018-09-20T19:00:00Z", "temp": 19.0, "dewp": -6.0, "wspd": 5, "wdir": 180, "altim": 1022.0, "rawOb": "FAMM 201900Z AUTO 18005KT //// // ////// 19/M06 Q1022"}, "geometry": {"type": "Point", "coordinates": [25.545, -25.804]}}, {"type": "Feature", "properties": {"id": "YBCV", "site": "Charleville Arpt", "prior": "2", "obsTime": "2018-09-20T20:00:00Z", "temp": 7.0, "dewp": -8.0, "wspd": 5, "wdir": 140, "cover": "CLR", "visib": 6.21, "fltcat": "VFR", "altim": 1024.0, "rawOb": "YBCV 202000Z AUTO 14005KT 9999 // NCD 07/M08 Q1024"}, "geometry": {"type": "Point", "coordinates": [146.26, -26.41]}}, {"type": "Feature", "properties": {"id": "SPQT", "site": "Iquitos/Vignetta Arp", "prior": "2", "obsTime": "2018-09-20T19:00:00Z", "temp": 34.0, "dewp": 24.0, "wspd": 2, "wdir": 0, "ceil": 20, "cover": "BKN", "visib": 6.21, "fltcat": "MVFR", "altim": 1007.0, "rawOb": "SPQT 201900Z VRB02KT 9999 BKN020 34/24 Q1007 NOSIG RMK BIRD HAZARD RWY 06/24 PP000"}, "geometry": {"type": "Point", "coordinates": [-73.308, -3.784]}}, {"type": "Feature", "properties": {"id": "SBTE", "site": "Teresina Arpt", "prior": "2", "obsTime": "2018-09-20T19:00:00Z", "temp": 39.0, "dewp": 13.0, "wspd": 6, "wdir": 100, "cover": "FEW", "visib": 6.21, "fltcat": "VFR", "altim": 1007.0, "rawOb": "SBTE 201900Z 10006KT 9999 FEW030 39/13 Q1007"}, "geometry": {"type": "Point", "coordinates": [-42.824, -5.06]}}, {"type": "Feature", "properties": {"id": "SCAR", "site": "Arica/Chacalluta Arp", "prior": "2", "obsTime": "2018-09-20T20:00:00Z", "temp": 18.0, "dewp": 10.0, "wspd": 9, "wdir": 230, "cover": "CAVOK", "visib": 6.21, "fltcat": "VFR", "altim": 1011.0, "rawOb": "SCAR 202000Z 23009KT 180V260 CAVOK 18/10 Q1011"}, "geometry": {"type": "Point", "coordinates": [-70.338, -18.349]}}, {"type": "Feature", "properties": {"id": "YPTN", "site": "Tindal Arpt(RAAF)", "prior": "2", "obsTime": "2018-09-20T20:00:00Z", "temp": 20.0, "dewp": 12.0, "wspd": 9, "wdir": 110, "cover": "CLR", "visib": 6.21, "fltcat": "VFR", "altim": 1014.0, "rawOb": "YPTN 202000Z AUTO 11009KT 9999 // NCD 20/12 Q1014"}, "geometry": {"type": "Point", "coordinates": [132.377, -14.521]}}, {"type": "Feature", "properties": {"id": "HKMO", "site": "Mombasa/Moi Intl", "prior": "2", "obsTime": "2018-09-20T19:00:00Z", "temp": 24.0, "dewp": 23.0, "wspd": 6, "wdir": 210, "ceil": 21, "cover": "BKN", "visib": 6.21, "fltcat": "MVFR", "altim": 1016.0, "rawOb": "HKMO 201900Z 21006KT 9999 BKN021 BKN080 24/23 Q1016 NOSIG"}, "geometry": {"type": "Point", "coordinates": [39.599, -4.027]}}, {"type": "Feature", "properties": {"id": "FCPP", "site": "Pointe-Noire Arpt", "prior": "2", "obsTime": "2018-09-20T19:00:00Z", "temp": 24.0, "dewp": 22.0, "wspd": 6, "wdir": 210, "cover": "SCT", "visib": 4.97, "fltcat": "MVFR", "altim": 1010.0, "rawOb": "FCPP 201900Z 21006KT 8000 SCT008 24/22 Q1010 NOSIG"}, "geometry": {"type": "Point", "coordinates": [11.886, -4.814]}}, {"type": "Feature", "properties": {"id": "SAME", "site": "Mendoza/Plumerillo A", "prior": "2", "obsTime": "2018-09-20T20:00:00Z", "temp": 25.0, "dewp": 13.0, "wspd": 10, "wdir": 360, "cover": "CAVOK", "visib": 6.21, "fltcat": "VFR", "altim": 1007.0, "rawOb": "SAME 202000Z 36010KT CAVOK 25/13 Q1007"}, "geometry": {"type": "Point", "coordinates": [-68.793, -32.828]}}, {"type": "Feature", "properties": {"id": "SAAR", "site": "Rosario Intl", "prior": "2", "obsTime": "2018-09-20T20:00:00Z", "temp": 23.0, "dewp": 6.0, "wspd": 12, "wdir": 20, "cover": "CAVOK", "visib": 6.21, "fltcat": "VFR", "altim": 1011.0, "rawOb": "SAAR 202000Z 02012KT CAVOK 23/06 Q1011"}, "geometry": {"type": "Point", "coordinates": [-60.785, -32.906]}}, {"type": "Feature", "properties": {"id": "NGTA", "site": "Kiribati/Tarawa Intl", "prior": "2", "obsTime": "2018-09-20T20:00:00Z", "temp": 29.0, "dewp": 23.0, "wspd": 4, "wdir": 130, "cover": "SCT", "visib": 6.21, "fltcat": "VFR", "altim": 1008.0, "rawOb": "NGTA 202000Z 13004KT 9999 FEW020 SCT300 29/23 Q1008"}, "geometry": {"type": "Point", "coordinates": [173.145, 1.382]}}, {"type": "Feature", "properties": {"id": "HTKJ", "site": "Kilimanjaro Intl", "prior": "2", "obsTime": "2018-09-20T19:00:00Z", "temp": 22.0, "dewp": 17.0, "wspd": 10, "wdir": 90, "ceil": 28, "cover": "BKN", "visib": 6.21, "fltcat": "MVFR", "altim": 1018.0, "rawOb": "HTKJ 201900Z 09010KT 9999 BKN028 22/17 Q1018 NOSIG"}, "geometry": {"type": "Point", "coordinates": [37.074, -3.429]}}, {"type": "Feature", "properties": {"id": "SPME", "site": "Tumbes Arpt", "prior": "2", "obsTime": "2018-09-20T20:00:00Z", "temp": 26.0, "dewp": 19.0, "wspd": 3, "wdir": 330, "cover": "SCT", "visib": 6.21, "fltcat": "VFR", "altim": 1008.0, "rawOb": "SPME 202000Z 33003KT 9999 SCT015 26/19 Q1008 RMK BIRD HAZARD RWY 32/14 PP000"}, "geometry": {"type": "Point", "coordinates": [-80.381, -3.553]}}, {"type": "Feature", "properties": {"id": "YCDU", "site": "Ceduna Arpt", "prior": "2", "obsTime": "2018-09-20T20:00:00Z", "temp": 4.0, "dewp": 4.0, "wspd": 0, "wdir": 0, "cover": "SCT", "visib": 4.35, "fltcat": "MVFR", "altim": 1026.0, "rawOb": "YCDU 202000Z AUTO 00000KT 7000 // SCT001 04/04 Q1026"}, "geometry": {"type": "Point", "coordinates": [133.708, -32.131]}}, {"type": "Feature", "properties": {"id": "SBFN", "site": "Fernando de Noronha", "prior": "2", "obsTime": "2018-09-20T20:00:00Z", "temp": 26.0, "dewp": 22.0, "wspd": 12, "wdir": 130, "cover": "SCT", "visib": 6.21, "fltcat": "VFR", "altim": 1013.0, "rawOb": "SBFN 202000Z 13012KT 9999 SCT020 26/22 Q1013"}, "geometry": {"type": "Point", "coordinates": [-32.424, -3.855]}}, {"type": "Feature", "properties": {"id": "YWHA", "site": "Whyalla Arpt", "prior": "2", "obsTime": "2018-09-20T20:00:00Z", "temp": 5.0, "dewp": 4.0, "wspd": 5, "wdir": 300, "cover": "CLR", "visib": 6.21, "fltcat": "VFR", "altim": 1027.0, "rawOb": "YWHA 202000Z AUTO 30005KT 9999 // NCD 05/04 Q1027"}, "geometry": {"type": "Point", "coordinates": [137.519, -33.057]}}, {"type": "Feature", "properties": {"id": "WAOO", "site": "Syamsudin Noor Arpt", "prior": "2", "obsTime": "2018-09-20T19:00:00Z", "temp": 23.0, "dewp": 21.0, "wspd": 2, "wdir": 100, "visib": 1.49, "fltcat": "IFR", "altim": 1009.0, "wx": "BR", "rawOb": "WAOO 201900Z AUTO 10002KT 2400 BR ////// 23/21 Q1009"}, "geometry": {"type": "Point", "coordinates": [114.76, -3.442]}}, {"type": "Feature", "properties": {"id": "SPQU", "site": "Arequipa/Ballon Intl", "prior": "3", "obsTime": "2018-09-20T19:00:00Z", "temp": 23.0, "dewp": -15.0, "wspd": 9, "wdir": 250, "cover": "CAVOK", "visib": 6.21, "fltcat": "VFR", "altim": 1024.0, "rawOb": "SPQU 201900Z 25009KT 190V290 CAVOK 23/M15 Q1024 NOSIG RMK PP000"}, "geometry": {"type": "Point", "coordinates": [-71.568, -16.341]}}, {"type": "Feature", "properties": {"id": "SPSO", "site": "Pisco Intl Arpt", "prior": "3", "obsTime": "2018-09-20T19:00:00Z", "temp": 18.0, "dewp": 14.0, "wspd": 6, "wdir": 290, "ceil": 23, "cover": "OVC", "visib": 6.21, "fltcat": "MVFR", "altim": 1012.0, "rawOb": "SPSO 201900Z 29006KT 9999 SCT020 OVC023 18/14 Q1012 RMK BIRD HAZARD RWY 22/04 PP000"}, "geometry": {"type": "Point", "coordinates": [-76.219, -13.743]}}, {"type": "Feature", "properties": {"id": "SBLE", "site": "Chapada/Diamantina", "prior": "3", "obsTime": "2018-09-20T19:00:00Z", "temp": 32.0, "dewp": 13.0, "wspd": 9, "wdir": 10, "cover": "CAVOK", "visib": 6.21, "fltcat": "VFR", "altim": 1016.0, "rawOb": "SBLE 201900Z 01009KT CAVOK 32/13 Q1016"}, "geometry": {"type": "Point", "coordinates": [-41.277, -12.482]}}, {"type": "Feature", "properties": {"id": "YGTE", "site": "Groote Eylandt Arpt", "prior": "3", "obsTime": "2018-09-20T19:00:00Z", "temp": 19.0, "dewp": 18.0, "wspd": 3, "wdir": 170, "cover": "CLR", "visib": 6.21, "fltcat": "VFR", "altim": 1012.0, "rawOb": "YGTE 201900Z AUTO 17003KT 9999 // NCD 19/18 Q1012"}, "geometry": {"type": "Point", "coordinates": [136.463, -13.975]}}, {"type": "Feature", "properties": {"id": "SLSI", "site": "San Ignacio de Velas", "prior": "3", "obsTime": "2018-09-20T19:00:00Z", "temp": 36.0, "dewp": 20.0, "wspd": 6, "wdir": 320, "cover": "SCT", "visib": 6.21, "fltcat": "VFR", "altim": 1009.0, "rawOb": "SLSI 201900Z 32006KT 9999 SCT020 36/20 Q1009"}, "geometry": {"type": "Point", "coordinates": [-60.963, -16.385]}}, {"type": "Feature", "properties": {"id": "SLRY", "site": "Reyes Arpt", "prior": "3", "obsTime": "2018-09-20T19:00:00Z", "temp": 32.0, "dewp": 24.0, "wspd": 10, "wdir": 340, "ceil": 200, "cover": "BKN", "visib": 6.21, "fltcat": "VFR", "altim": 1011.0, "rawOb": "SLRY 201900Z 34010KT 9999 FEW020 BKN200 32/24 Q1011"}, "geometry": {"type": "Point", "coordinates": [-67.354, -14.306]}}, {"type": "Feature", "properties": {"id": "SKUI", "site": "Quibdo/El Carano Arp", "prior": "3", "obsTime": "2018-09-20T19:00:00Z", "temp": 32.0, "dewp": 23.0, "wspd": 0, "wdir": 0, "ceil": 30, "cover": "BKN", "visib": 6.21, "fltcat": "MVFR", "altim": 1006.2, "rawOb": "SKUI 201900Z 00000KT 9999 BKN030 32/23 A2971"}, "geometry": {"type": "Point", "coordinates": [-76.641, 5.691]}}, {"type": "Feature", "properties": {"id": "SLCP", "site": "Concepcion Arpt", "prior": "3", "obsTime": "2018-09-20T19:00:00Z", "temp": 33.0, "dewp": 24.0, "wspd": 18, "wdir": 330, "ceil": 200, "cover": "BKN", "visib": 6.21, "fltcat": "VFR", "altim": 1012.0, "rawOb": "SLCP 201900Z 33018KT 9999 SCT017 FEW027CB BKN200 33/24 Q1012"}, "geometry": {"type": "Point", "coordinates": [-62.027, -16.143]}}, {"type": "Feature", "properties": {"id": "SLMG", "site": "Magdalena Arpt", "prior": "3", "obsTime": "2018-09-20T19:00:00Z", "temp": 35.0, "dewp": 22.0, "wspd": 0, "wdir": 0, "ceil": 200, "cover": "BKN", "visib": 6.21, "fltcat": "VFR", "altim": 1009.0, "rawOb": "SLMG 201900Z 00000KT 9999 SCT017 BKN200 35/22 Q1009"}, "geometry": {"type": "Point", "coordinates": [-64.061, -13.26]}}, {"type": "Feature", "properties": {"id": "FQNP", "site": "Nampula Arpt", "prior": "3", "obsTime": "2018-09-20T19:00:00Z", "temp": 24.0, "dewp": 16.0, "wspd": 4, "wdir": 100, "cover": "CAVOK", "visib": 6.21, "fltcat": "VFR", "altim": 1020.0, "rawOb": "FQNP 201900Z 10004KT CAVOK 24/16 Q1020"}, "geometry": {"type": "Point", "coordinates": [39.282, -15.105]}}, {"type": "Feature", "properties": {"id": "SPJL", "site": "Juliaca Arpt", "prior": "3", "obsTime": "2018-09-20T20:00:00Z", "temp": 19.0, "dewp": -15.0, "wspd": 3, "wdir": 0, "cover": "FEW", "visib": 6.21, "fltcat": "VFR", "altim": 1030.0, "rawOb": "SPJL 202000Z VRB03KT 9999 FEW015 19/M15 Q1030 RMK PP000"}, "geometry": {"type": "Point", "coordinates": [-70.156, -15.468]}}, {"type": "Feature", "properties": {"id": "SPHO", "site": "Ayacucho/Corone Arpt", "prior": "3", "obsTime": "2018-09-20T20:00:00Z", "temp": 27.0, "dewp": 8.0, "wspd": 9, "wdir": 320, "cover": "FEW", "visib": 6.21, "fltcat": "VFR", "altim": 1022.0, "rawOb": "SPHO 202000Z 32009KT 250V360 9999 FEW050 FEW055TCU 27/08 Q1022 RMK PP000"}, "geometry": {"type": "Point", "coordinates": [-74.205, -13.156]}}, {"type": "Feature", "properties": {"id": "FMCZ", "site": "Dzaoudzi/Pamandzi In", "prior": "3", "obsTime": "2018-09-20T20:00:00Z", "temp": 23.0, "dewp": 22.0, "wspd": 4, "wdir": 250, "cover": "CLR", "visib": 4.35, "fltcat": "MVFR", "altim": 1017.0, "rawOb": "FMCZ 202000Z AUTO 25004KT 7000 NSC 23/22 Q1017 NOSIG"}, "geometry": {"type": "Point", "coordinates": [45.282, -12.809]}}, {"type": "Feature", "properties": {"id": "SPTU", "site": "Puerto Maldonad Arpt", "prior": "3", "obsTime": "2018-09-20T20:00:00Z", "temp": 27.0, "dewp": 23.0, "wspd": 7, "wdir": 180, "cover": "CAVOK", "visib": 6.21, "fltcat": "VFR", "altim": 1006.0, "rawOb": "SPTU 202000Z 18007KT CAVOK 27/23 Q1006 RMK BKN100 BIRD HAZARD RWY 01/19 PP000"}, "geometry": {"type": "Point", "coordinates": [-69.229, -12.617]}}, {"type": "Feature", "properties": {"id": "SLTR", "site": "Trinidad/Arauz Arpt", "prior": "3", "obsTime": "2018-09-20T19:00:00Z", "temp": 36.0, "dewp": 23.0, "wspd": 10, "wdir": 320, "cover": "SCT", "visib": 6.21, "fltcat": "VFR", "altim": 1007.0, "rawOb": "SLTR 201900Z 32010KT 9999 FEW020 FEW023CB SCT200 36/23 Q1007"}, "geometry": {"type": "Point", "coordinates": [-64.917, -14.819]}}, {"type": "Feature", "properties": {"id": "WMKP", "site": "Penang Intl", "prior": "3", "obsTime": "2018-09-20T19:30:00Z", "temp": 26.0, "dewp": 24.0, "wspd": 2, "wdir": 0, "ceil": 270, "cover": "BKN", "visib": 4.97, "fltcat": "MVFR", "altim": 1009.0, "rawOb": "WMKP 201930Z VRB02KT 8000 FEW025 SCT140 BKN270 26/24 Q1009 NOSIG"}, "geometry": {"type": "Point", "coordinates": [100.276, 5.296]}}, {"type": "Feature", "properties": {"id": "SBQV", "site": "Vitoria da Conquista", "prior": "3", "obsTime": "2018-09-20T19:00:00Z", "temp": 28.0, "dewp": 12.0, "wspd": 9, "wdir": 70, "cover": "FEW", "visib": 6.21, "fltcat": "VFR", "altim": 1019.0, "rawOb": "SBQV 201900Z 07009KT 9999 FEW040 28/12 Q1019"}, "geometry": {"type": "Point", "coordinates": [-40.863, -14.863]}}, {"type": "Feature", "properties": {"id": "WBGY", "site": "Sri Aman/Simanggang?", "prior": "3", "obsTime": "2018-09-20T19:00:00Z", "temp": 23.0, "dewp": 23.0, "wspd": 0, "wdir": 0, "altim": 1011.0, "rawOb": "WBGY 201900Z AUTO 00000KT //// // 23/23 Q1011"}, "geometry": {"type": "Point", "coordinates": [111.45, 1.22]}}, {"type": "Feature", "properties": {"id": "SBHT", "site": "Altamira Arpt", "prior": "3", "obsTime": "2018-09-20T19:00:00Z", "temp": 34.0, "dewp": 24.0, "wspd": 4, "wdir": 100, "cover": "SCT", "visib": 6.21, "fltcat": "VFR", "altim": 1009.0, "rawOb": "SBHT 201900Z 10004KT 9999 SCT030 34/24 Q1009"}, "geometry": {"type": "Point", "coordinates": [-52.255, -3.254]}}]}