{"type": "FeatureCollection", "features": [{"type": "Feature", "properties": {"id": "SBFZ", "site": "Fortaleza/Martins In", "prior": "0", "obsTime": "2018-09-20T20:00:00Z", "temp": 28.0, "dewp": 22.0, "wspd": 12, "wdir": 80, "cover": "CAVOK", "visib": 6.21, "fltcat": "VFR", "altim": 1011.0, "rawOb": "SBFZ 202000Z 08012KT CAVOK 28/22 Q1011"}, "geometry": {"type": "Point", "coordinates": [-38.531, -3.777]}}, {"type": "Feature", "properties": {"id": "SBBV", "site": "Boa Vista Arpt", "prior": "0", "obsTime": "2018-09-20T20:00:00Z", "temp": 33.0, "dewp": 23.0, "wspd": 6, "wdir": 110, "ceil": 30, "cover": "BKN", "visib": 6.21, "fltcat": "MVFR", "altim": 1008.0, "rawOb": "SBBV 202000Z 11006KT 9999 BKN030 FEW035TCU 33/23 Q1008"}, "geometry": {"type": "Point", "coordinates": [-60.69, 2.847]}}, {"type": "Feature", "properties": {"id": "TJSJ", "site": "San Juan/Marin Intl", "prior": "0", "obsTime": "2018-09-20T19:56:00Z", "temp": 31.7, "dewp": 23.3, "wspd": 15, "wgst": 21, "wdir": 90, "cover": "SCT", "visib": 5.0, "fltcat": "MVFR", "altim": 1014.6, "slp": 1014.5, "wx": "HZ", "rawOb": "TJSJ 201956Z 09015G21KT 5SM HZ SCT039 32/23 A2996 RMK AO2 SLP145 T03170233"}, "geometry": {"type": "Point", "coordinates": [-66.004, 18.438]}}, {"type": "Feature", "properties": {"id": "SBPV", "site": "Porto Velho Intl", "prior": "0", "obsTime": "2018-09-20T20:00:00Z", "temp": 33.0, "dewp": 22.0, "wspd": 2, "wdir": 320, "cover": "SCT", "visib": 6.21, "fltcat": "VFR", "altim": 1007.0, "rawOb": "SBPV 202000Z 32002KT 9999 SCT040 33/22 Q1007"}, "geometry": {"type": "Point", "coordinates": [-63.902, -8.708]}}, {"type": "Feature", "properties": {"id": "MROC", "site": "San Jose/Santamaria", "prior": "0", "obsTime": "2018-09-20T20:00:00Z", "temp": 24.0, "dewp": 21.0, "wspd": 9, "wdir": 230, "ceil": 140, "cover": "OVC", "visib": 6.21, "fltcat": "VFR", "altim": 1012.3, "rawOb": "MROC 202000Z 23009KT 9999 SCT020 OVC140 24/21 A2989 NOSIG"}, "geometry": {"type": "Point", "coordinates": [-84.207, 9.994]}}, {"type": "Feature", "properties": {"id": "SKBO", "site": "Bogota/El Dorado Arp", "prior": "0", "obsTime": "2018-09-20T20:00:00Z", "temp": 20.0, "dewp": 4.0, "wspd": 16, "wdir": 180, "cover": "FEW", "visib": 6.21, "fltcat": "VFR", "altim": 1024.5, "rawOb": "SKBO 202000Z 18016KT 9999 FEW023 20/04 A3025 WS ALL RWY"}, "geometry": {"type": "Point", "coordinates": [-74.146, 4.702]}}, {"type": "Feature", "properties": {"id": "SAVC", "site": "Comodoro Rivadavia A", "prior": "0", "obsTime": "2018-09-20T20:00:00Z", "temp": 11.0, "dewp": 5.0, "wspd": 8, "wdir": 70, "ceil": 80, "cover": "BKN", "visib": 6.21, "fltcat": "VFR", "altim": 999.0, "rawOb": "SAVC 202000Z 07008KT 9999 FEW040 BKN080 11/05 Q0999"}, "geometry": {"type": "Point", "coordinates": [-67.467, -45.785]}}, {"type": "Feature", "properties": {"id": "SBBR", "site": "Brasilia Intl", "prior": "0", "obsTime": "2018-09-20T19:00:00Z", "temp": 28.0, "dewp": 14.0, "wspd": 5, "wdir": 60, "cover": "SCT", "visib": 6.21, "fltcat": "VFR", "altim": 1017.0, "rawOb": "SBBR 201900Z 06005KT 020V100 9999 SCT040 FEW045TCU 28/14 Q1017"}, "geometry": {"type": "Point", "coordinates": [-47.916, -15.87]}}, {"type": "Feature", "properties": {"id": "SAEZ", "site": "Buenos Aires/Pistari", "prior": "0", "obsTime": "2018-09-20T20:00:00Z", "temp": 21.0, "dewp": 5.0, "wspd": 12, "wdir": 30, "cover": "CAVOK", "visib": 6.21, "fltcat": "VFR", "altim": 1013.0, "rawOb": "SAEZ 202000Z 03012KT CAVOK 21/05 Q1013 NOSIG"}, "geometry": {"type": "Point", "coordinates": [-58.53, -34.82]}}, {"type": "Feature", "properties": {"id": "SLVR", "site": "Santa Cruz/Viru Intl", "prior": "0", "obsTime": "2018-09-20T19:00:00Z", "temp": 34.0, "dewp": 22.0, "wspd": 15, "wgst": 25, "wdir": 340, "ceil": 22, "cover": "BKN", "visib": 6.21, "fltcat": "MVFR", "altim": 1009.0, "rawOb": "SLVR 201900Z 34015G25KT 9999 BKN022 BKN200 34/22 Q1009"}, "geometry": {"type": "Point", "coordinates": [-63.135, -17.645]}}, {"type": "Feature", "properties": {"id": "SBMQ", "site": "Macapa Intl", "prior": "0", "obsTime": "2018-09-20T19:00:00Z", "temp": 33.0, "dewp": 24.0, "wspd": 13, "wdir": 60, "cover": "SCT", "visib": 6.21, "fltcat": "VFR", "altim": 1009.0, "rawOb": "SBMQ 201900Z 06013KT 9999 SCT025 33/24 Q1009"}, "geometry": {"type": "Point", "coordinates": [-51.071, 0.051]}}, {"type": "Feature", "properties": {"id": "SCEL", "site": "Santiago/Benitez Int", "prior": "0", "obsTime": "2018-09-20T20:00:00Z", "temp": 18.0, "dewp": 4.0, "wspd": 6, "wdir": 150, "ceil": 150, "cover": "BKN", "visib": 4.97, "fltcat": "MVFR", "altim": 1018.0, "rawOb": "SCEL 202000Z 15006KT 8000 BKN150 BKN230 18/04 Q1018 NOSIG"}, "geometry": {"type": "Point", "coordinates": [-70.794, -33.389]}}, {"type": "Feature", "properties": {"id": "SBCT", "site": "Curitiba/Pena Intl", "prior": "0", "obsTime": "2018-09-20T19:00:00Z", "temp": 16.0, "dewp": 15.0, "wspd": 7, "wdir": 250, "ceil": 9, "cover": "OVC", "visib": 4.35, "fltcat": "IFR", "altim": 1020.0, "wx": "-RA", "rawOb": "SBCT 201900Z 25007KT 7000 -RA OVC009 16/15 Q1020"}, "geometry": {"type": "Point", "coordinates": [-49.174, -25.53]}}, {"type": "Feature", "properties": {"id": "SPJC", "site": "Lima/Chavez Intl", "prior": "0", "obsTime": "2018-09-20T20:00:00Z", "temp": 17.0, "dewp": 13.0, "wspd": 3, "wdir": 270, "ceil": 18, "cover": "OVC", "visib": 6.21, "fltcat": "MVFR", "altim": 1012.0, "rawOb": "SPJC 202000Z 27003KT 190V350 9999 OVC018 17/13 Q1012 NOSIG RMK PP000"}, "geometry": {"type": "Point", "coordinates": [-77.115, -12.022]}}, {"type": "Feature", "properties": {"id": "SVMI", "site": "Caracas/Bolivar Intl", "prior": "0", "obsTime": "2018-09-20T20:02:00Z", "temp": 30.0, "dewp": 23.0, "cover": "FEW", "visib": 6.21, "fltcat": "VFR", "altim": 1011.0, "rawOb": "SVMI 202002Z /////KT 9999 FEW016 30/23 Q1011"}, "geometry": {"type": "Point", "coordinates": [-67.001, 10.603]}}, {"type": "Feature", "properties": {"id": "EGYP", "site": "Mount Pleasant Arpt", "prior": "0", "obsTime": "2018-09-20T19:50:00Z", "temp": 3.0, "dewp": 1.0, "wspd": 23, "wdir": 210, "cover": "SCT", "visib": 6.21, "fltcat": "VFR", "altim": 994.0, "wx": "-SHRA", "rawOb": "EGYP 201950Z 21023KT 9999 -SHRA SCT013 SCT020 03/01 Q0994 GRN"}, "geometry": {"type": "Point", "coordinates": [-58.459, -51.82]}}, {"type": "Feature", "properties": {"id": "SBPA", "site": "Porto Alegre/Filho I", "prior": "1", "obsTime": "2018-09-20T20:00:00Z", "temp": 21.0, "dewp": 16.0, "wspd": 11, "wdir": 100, "ceil": 100, "cover": "BKN", "visib": 6.21, "fltcat": "VFR", "altim": 1015.0, "rawOb": "SBPA 202000Z 10011KT 9999 SCT035 BKN100 21/16 Q1015"}, "geometry": {"type": "Point", "coordinates": [-51.172, -29.995]}}, {"type": "Feature", "properties": {"id": "TFFR", "site": "Guadeloupe/Pitre Int", "prior": "1", "obsTime": "2018-09-20T20:00:00Z", "temp": 30.0, "dewp": 23.0, "wspd": 11, "wdir": 80, "ceil": 33, "cover": "BKN", "visib": 6.21, "fltcat": "VFR", "altim": 1014.0, "rawOb": "TFFR 202000Z AUTO 08011KT 9999 BKN033 BKN042 30/23 Q1014 NOSIG"}, "geometry": {"type": "Point", "coordinates": [-61.533, 16.265]}}, {"type": "Feature", "properties": {"id": "SBSV", "site": "Salvador/Magalhaes I", "prior": "1", "obsTime": "2018-09-20T20:00:00Z", "temp": 27.0, "dewp": 21.0, "wspd": 10, "wdir": 100, "cover": "SCT", "visib": 6.21, "fltcat": "VFR", "altim": 1016.0, "rawOb": "SBSV 202000Z 10010KT 9999 SCT023 27/21 Q1016"}, "geometry": {"type": "Point", "coordinates": [-38.338, -12.912]}}, {"type": "Feature", "properties": {"id": "SBSL", "site": "Sao Luis/Machado Int", "prior": "1", "obsTime": "2018-09-20T20:00:00Z", "temp": 29.0, "dewp": 22.0, "wspd": 14, "wdir": 40, "cover": "CAVOK", "visib": 6.21, "fltcat": "VFR", "altim": 1010.0, "rawOb": "SBSL 202000Z 04014KT CAVOK 29/22 Q1010"}, "geometry": {"type": "Point", "coordinates": [-44.235, -2.587]}}, {"type": "Feature", "properties": {"id": "SOCA", "site": "Cayenne/Rochambeau A", "prior": "1", "obsTime": "2018-09-20T20:00:00Z", "temp": 31.0, "dewp": 25.0, "wspd": 12, "wdir": 70, "cover": "CAVOK", "visib": 6.21, "fltcat": "VFR", "altim": 1009.0, "rawOb": "SOCA 202000Z AUTO 07012KT CAVOK 31/25 Q1009 NOSIG"}, "geometry": {"type": "Point", "coordinates": [-52.362, 4.819]}}, {"type": "Feature", "properties": {"id": "SBEG", "site": "Manaus/Gomes Intl", "prior": "1", "obsTime": "2018-09-20T20:00:00Z", "temp": 33.0, "dewp": 22.0, "wspd": 7, "wdir": 80, "cover": "SCT", "visib": 6.21, "fltcat": "VFR", "altim": 1007.0, "rawOb": "SBEG 202000Z 08007KT 9999 SCT025 33/22 Q1007"}, "geometry": {"type": "Point", "coordinates": [-60.048, -3.039]}}, {"type": "Feature", "properties": {"id": "MDSD", "site": "La Caleta/Americas I", "prior": "1", "obsTime": "2018-09-20T20:00:00Z", "temp": 28.0, "dewp": 25.0, "wspd": 6, "wdir": 120, "ceil": 300, "cover": "BKN", "visib": 6.21, "fltcat": "VFR", "altim": 1013.0, "rawOb": "MDSD 202000Z 12006KT 9999 FEW018CB SCT020 BKN300 28/25 Q1013 CB/W/NW"}, "geometry": {"type": "Point", "coordinates": [-69.669, 18.429]}}, {"type": "Feature", "properties": {"id": "SBGL", "site": "Rio de Janero/Galeao", "prior": "1", "obsTime": "2018-09-20T20:00:00Z", "temp": 28.0, "dewp": 21.0, "wspd": 4, "wdir": 20, "cover": "FEW", "visib": 4.97, "fltcat": "MVFR", "altim": 1013.0, "rawOb": "SBGL 202000Z 02004KT 8000 FEW025 28/21 Q1013"}, "geometry": {"type": "Point", "coordinates": [-43.257, -22.813]}}, {"type": "Feature", "properties": {"id": "SBCY", "site": "Cuiaba/Rondon Arpt", "prior": "1", "obsTime": "2018-09-20T19:00:00Z", "temp": 35.0, "dewp": 16.0, "wspd": 7, "wdir": 280, "cover": "CAVOK", "visib": 6.21, "fltcat": "VFR", "altim": 1009.0, "rawOb": "SBCY 201900Z 28007KT CAVOK 35/16 Q1009"}, "geometry": {"type": "Point", "coordinates": [-56.116, -15.654]}}, {"type": "Feature", "properties": {"id": "SACO", "site": "Cordoba/Taravella In", "prior": "1", "obsTime": "2018-09-20T20:00:00Z", "temp": 25.0, "dewp": 2.0, "wspd": 19, "wdir": 40, "cover": "CAVOK", "visib": 6.21, "fltcat": "VFR", "altim": 1010.0, "rawOb": "SACO 202000Z 04019KT CAVOK 25/02 Q1010 NOSIG"}, "geometry": {"type": "Point", "coordinates": [-64.208, -31.315]}}, {"type": "Feature", "properties": {"id": "SKBQ", "site": "Barranquilla/Cortiss", "prior": "1", "obsTime": "2018-09-20T20:00:00Z", "temp": 31.0, "dewp": 27.0, "wspd": 10, "wdir": 360, "ceil": 200, "cover": "BKN", "visib": 6.21, "fltcat": "VFR", "altim": 1006.9, "rawOb": "SKBQ 202000Z 36010KT 9999 FEW015 BKN200 31/27 A2973"}, "geometry": {"type": "Point", "coordinates": [-74.781, 10.89]}}, {"type": "Feature", "properties": {"id": "SLLP", "site": "La Paz/El Alto Intl", "prior": "1", "obsTime": "2018-09-20T19:00:00Z", "temp": 18.0, "dewp": -8.0, "wspd": 7, "wdir": 150, "cover": "FEW", "visib": 6.21, "fltcat": "VFR", "altim": 1035.0, "rawOb": "SLLP 201900Z 15007KT 9999 FEW023 FEW025CB 18/M08 Q1035"}, "geometry": {"type": "Point", "coordinates": [-68.186, -16.514]}}, {"type": "Feature", "properties": {"id": "SBMA", "site": "Maraba Arpt", "prior": "1", "obsTime": "2018-09-20T19:00:00Z", "temp": 38.0, "dewp": 20.0, "wspd": 5, "wdir": 70, "cover": "FEW", "visib": 6.21, "fltcat": "VFR", "altim": 1009.0, "rawOb": "SBMA 201900Z 07005KT 9999 FEW030 38/20 Q1009"}, "geometry": {"type": "Point", "coordinates": [-49.138, -5.369]}}, {"type": "Feature", "properties": {"id": "SCCI", "site": "Punta Arenas Arpt", "prior": "1", "obsTime": "2018-09-20T20:00:00Z", "temp": 5.0, "dewp": 0.0, "wspd": 12, "wdir": 140, "cover": "SCT", "visib": 6.21, "fltcat": "VFR", "altim": 1003.0, "rawOb": "SCCI 202000Z 14012KT 9999 FEW024 SCT042 05/M00 Q1003 NOSIG"}, "geometry": {"type": "Point", "coordinates": [-70.849, -53.001]}}, {"type": "Feature", "properties": {"id": "SBVT", "site": "Vitoria/Salles Arpt", "prior": "1", "obsTime": "2018-09-20T19:25:00Z", "temp": 27.0, "dewp": 23.0, "wspd": 15, "wgst": 25, "wdir": 50, "cover": "FEW", "visib": 6.21, "fltcat": "VFR", "altim": 1014.0, "rawOb": "SBVT 201925Z 05015G25KT 9999 FEW030 27/23 Q1014"}, "geometry": {"type": "Point", "coordinates": [-40.287, -20.258]}}, {"type": "Feature", "properties": {"id": "SARE", "site": "Resistencia Arpt", "prior": "1", "obsTime": "2018-09-20T19:00:00Z", "temp": 28.0, "dewp": 18.0, "wspd": 4, "wdir": 90, "cover": "SCT", "visib": 6.21, "fltcat": "VFR", "altim": 1010.0, "rawOb": "SARE 201900Z 09004KT 9999 FEW032 SCT100 28/18 Q1010"}, "geometry": {"type": "Point", "coordinates": [-59.056, -27.449]}}, {"type": "Feature", "properties": {"id": "MSLP", "site": "El Salvador Intl", "prior": "1", "obsTime": "2018-09-20T19:50:00Z", "temp": 26.0, "dewp": 21.0, "wspd": 7, "wdir": 340, "ceil": 68, "cover": "BKN", "visib": 6.21, "fltcat": "VFR", "altim": 1008.0, "wx": "-TSRA", "rawOb": "MSLP 201950Z 34007KT 310V050 9999 -TSRA FEW034 SCT037CB BKN068 26/21 Q1008 A2977 WS RWY25 NOSIG"}, "geometry": {"type": "Point", "coordinates": [-89.055, 13.442]}}, {"type": "Feature", "properties": {"id": "SCFA", "site": "Antofagasta/Cerro Mo", "prior": "1", "obsTime": "2018-09-20T20:00:00Z", "temp": 16.0, "dewp": 10.0, "wspd": 10, "wdir": 200, "cover": "FEW", "visib": 6.21, "fltcat": "VFR", "altim": 1011.0, "rawOb": "SCFA 202000Z 20010KT 9999 FEW023 16/10 Q1011 NOSIG"}, "geometry": {"type": "Point", "coordinates": [-70.445, -23.445]}}, {"type": "Feature", "properties": {"id": "SCBA", "site": "Balmaceda/Vidal Arpt", "prior": "1", "obsTime": "2018-09-20T20:00:00Z", "temp": 7.0, "dewp": 5.0, "wspd": 8, "wdir": 300, "ceil": 27, "cover": "OVC", "visib": 6.21, "fltcat": "MVFR", "altim": 996.0, "wx": "-RA", "rawOb": "SCBA 202000Z 30008KT 9999 -RA FEW015 OVC027 07/05 Q0996"}, "geometry": {"type": "Point", "coordinates": [-71.691, -45.916]}}, {"type": "Feature", "properties": {"id": "MPTO", "site": "Tocumen Intl", "prior": "1", "obsTime": "2018-09-20T20:00:00Z", "temp": 31.0, "dewp": 25.0, "wspd": 5, "wdir": 160, "ceil": 90, "cover": "BKN", "visib": 5.59, "fltcat": "VFR", "altim": 1007.0, "wx": "VCSH", "rawOb": "MPTO 202000Z 16005KT 9000 VCSH SCT017CB BKN090 31/25 Q1007 TEMPO 6000 TSRA"}, "geometry": {"type": "Point", "coordinates": [-79.383, 9.069]}}, {"type": "Feature", "properties": {"id": "SASA", "site": "Salta/Guemes Arpt", "prior": "1", "obsTime": "2018-09-20T20:00:00Z", "temp": 27.0, "dewp": 6.0, "wspd": 12, "wdir": 50, "cover": "CAVOK", "visib": 6.21, "fltcat": "VFR", "altim": 1012.0, "rawOb": "SASA 202000Z 05012KT CAVOK 27/06 Q1012"}, "geometry": {"type": "Point", "coordinates": [-65.48, -24.851]}}, {"type": "Feature", "properties": {"id": "SCTE", "site": "Puerto Montt/Tepual", "prior": "1", "obsTime": "2018-09-20T20:00:00Z", "temp": 12.0, "dewp": 10.0, "wspd": 10, "wdir": 330, "ceil": 30, "cover": "BKN", "visib": 4.97, "fltcat": "MVFR", "altim": 1005.0, "wx": "-SHRA", "rawOb": "SCTE 202000Z 33010KT 8000 -SHRA BKN030 BKN040 12/10 Q1005 NOSIG"}, "geometry": {"type": "Point", "coordinates": [-73.094, -41.438]}}, {"type": "Feature", "properties": {"id": "SEQM", "site": "Quito/New Intl", "prior": "1", "obsTime": "2018-09-20T20:00:00Z", "temp": 25.0, "dewp": 2.0, "wspd": 11, "wdir": 110, "cover": "SCT", "visib": 6.21, "fltcat": "VFR", "altim": 1019.0, "rawOb": "SEQM 202000Z 11011KT 9999 SCT050 25/02 Q1019 NOSIG RMK A3010"}, "geometry": {"type": "Point", "coordinates": [-78.354, -0.124]}}, {"type": "Feature", "properties": {"id": "SARI", "site": "Iguazu/Cataratas Int", "prior": "1", "obsTime": "2018-09-20T20:00:00Z", "temp": 24.0, "dewp": 17.0, "wspd": 5, "wdir": 50, "cover": "SCT", "visib": 6.21, "fltcat": "VFR", "altim": 1013.0, "rawOb": "SARI 202000Z 05005KT 9999 FEW020 SCT200 24/17 Q1013"}, "geometry": {"type": "Point", "coordinates": [-54.475, -25.737]}}, {"type": "Feature", "properties": {"id": "SCAT", "site": "Desierto Atacama Arp", "prior": "1", "obsTime": "2018-09-20T20:00:00Z", "temp": 19.0, "dewp": 11.0, "wspd": 9, "wdir": 320, "cover": "CAVOK", "visib": 6.21, "fltcat": "VFR", "altim": 1012.0, "rawOb": "SCAT 202000Z 32009KT 280V360 CAVOK 19/11 Q1012"}, "geometry": {"type": "Point", "coordinates": [-70.779, -27.264]}}, {"type": "Feature", "properties": {"id": "SAZN", "site": "Neuquen Arpt", "prior": "1", "obsTime": "2018-09-20T19:00:00Z", "temp": 23.0, "dewp": 1.0, "wspd": 25, "wgst": 35, "wdir": 320, "cover": "CAVOK", "visib": 6.21, "fltcat": "VFR", "altim": 1004.0, "rawOb": "SAZN 201900Z 32025G35KT CAVOK 23/01 Q1004"}, "geometry": {"type": "Point", "coordinates": [-68.151, -38.949]}}, {"type": "Feature", "properties": {"id": "SYCJ", "site": "Georgetown/Jagan Int", "prior": "1", "obsTime": "2018-09-20T19:00:00Z", "temp": 27.0, "dewp": 25.0, "wspd": 6, "wdir": 70, "cover": "SCT", "visib": 6.21, "fltcat": "VFR", "altim": 1009.0, "wx": "TSRA", "rawOb": "SYCJ 201900Z 07006KT 9999 TSRA FEW015CB SCT016 27/25 Q1009 CB S/W/N NOSIG"}, "geometry": {"type": "Point", "coordinates": [-58.253, 6.5]}}, {"type": "Feature", "properties": {"id": "TGPY", "site": "St Georges/Pt Saline", "prior": "1", "obsTime": "2018-09-20T19:00:00Z", "temp": 31.0, "dewp": 24.0, "wspd": 18, "wdir": 80, "cover": "FEW", "visib": 6.21, "fltcat": "VFR", "altim": 1011.0, "rawOb": "TGPY 201900Z 08018KT 9999 FEW019 31/24 Q1011 NOSIG"}, "geometry": {"type": "Point", "coordinates": [-61.785, 12.003]}}, {"type": "Feature", "properties": {"id": "MZBZ", "site": "Belize/Goldson Intl", "prior": "1", "obsTime": "2018-09-20T20:00:00Z", "temp": 32.0, "dewp": 26.0, "wspd": 10, "wdir": 80, "ceil": 21, "cover": "BKN", "visib": 6.21, "fltcat": "MVFR", "altim": 1011.0, "rawOb": "MZBZ 202000Z 08010KT 9999 BKN021 32/26 A2987 Q1011 NOSIG"}, "geometry": {"type": "Point", "coordinates": [-88.305, 17.54]}}, {"type": "Feature", "properties": {"id": "SPST", "site": "Tarapoto Arpt", "prior": "1", "obsTime": "2018-09-20T20:00:00Z", "temp": 35.0, "dewp": 20.0, "wspd": 7, "wdir": 10, "cover": "SCT", "visib": 6.21, "fltcat": "VFR", "altim": 1007.0, "rawOb": "SPST 202000Z 01007KT 9999 SCT020 35/20 Q1007 RMK BIRD HAZARD RWY 17/35 PP000"}, "geometry": {"type": "Point", "coordinates": [-76.373, -6.509]}}, {"type": "Feature", "properties": {"id": "SLPS", "site": "Puerto Suarez Intl", "prior": "1", "obsTime": "2018-09-20T19:00:00Z", "temp": 28.0, "dewp": 25.0, "wspd": 6, "wdir": 70, "ceil": 17, "cover": "BKN", "visib": 4.35, "fltcat": "MVFR", "altim": 1007.0, "wx": "-TSRA", "rawOb": "SLPS 201900Z 07006KT 7000 -TSRA BKN017 FEW027CB BKN200 28/25 Q1007"}, "geometry": {"type": "Point", "coordinates": [-57.821, -18.977]}}, {"type": "Feature", "properties": {"id": "SLCO", "site": "Cobija Arpt", "prior": "1", "obsTime": "2018-09-20T19:00:00Z", "temp": 36.0, "dewp": 22.0, "wspd": 4, "wdir": 330, "ceil": 200, "cover": "BKN", "visib": 6.21, "fltcat": "VFR", "altim": 1008.0, "rawOb": "SLCO 201900Z 33004KT 9999 SCT030 BKN200 36/22 Q1008"}, "geometry": {"type": "Point", "coordinates": [-68.783, -11.039]}}, {"type": "Feature", "properties": {"id": "SBTT", "site": "Tabatinga Intl", "prior": "1", "obsTime": "2018-09-20T19:00:00Z", "temp": 33.0, "dewp": 27.0, "wspd": 2, "wdir": 270, "cover": "CAVOK", "visib": 6.21, "fltcat": "VFR", "altim": 1007.0, "rawOb": "SBTT 201900Z 27002KT CAVOK 33/27 Q1007"}, "geometry": {"type": "Point", "coordinates": [-69.935, -4.256]}}, {"type": "Feature", "properties": {"id": "SEGS", "site": "San Cristobal Arpt", "prior": "1", "obsTime": "2018-09-20T20:00:00Z", "temp": 25.0, "dewp": 16.0, "wspd": 16, "wdir": 120, "cover": "SCT", "visib": 6.21, "fltcat": "VFR", "altim": 1009.0, "rawOb": "SEGS 202000Z 12016KT 9999 SCT020 25/16 Q1009 A2981"}, "geometry": {"type": "Point", "coordinates": [-90.266, -0.454]}}, {"type": "Feature", "properties": {"id": "MMMT", "site": "Minatitlan Arpt", "prior": "1", "obsTime": "2018-09-20T19:42:00Z", "temp": 31.0, "dewp": 23.0, "wspd": 10, "wdir": 360, "cover": "SCT", "visib": 7.0, "fltcat": "VFR", "altim": 1010.2, "rawOb": "MMMT 201942Z 36010KT 7SM SCT120 31/23 A2983 RMK 8/020"}, "geometry": {"type": "Point", "coordinates": [-94.581, 18.103]}}, {"type": "Feature", "properties": {"id": "MHPL", "site": "Puerto Lempira Arpt", "prior": "1", "obsTime": "2018-09-20T20:00:00Z", "rawOb": "MHPL 202000Z METAR "}, "geometry": {"type": "Point", "coordinates": [-83.782, 15.263]}}, {"type": "Feature", "properties": {"id": "SBPJ", "site": "Palmas/Rodrigues Arp", "prior": "1", "obsTime": "2018-09-20T19:00:00Z", "temp": 34.0, "dewp": 18.0, "wspd": 10, "wdir": 330, "cover": "FEW", "visib": 6.21, "fltcat": "VFR", "altim": 1010.0, "rawOb": "SBPJ 201900Z 33010KT 9999 FEW020 FEW040TCU 34/18 Q1010"}, "geometry": {"type": "Point", "coordinates": [-48.356, -10.293]}}, {"type": "Feature", "properties": {"id": "SBUA", "site": "Sao Gabriel da Cacho", "prior": "1", "obsTime": "2018-09-20T19:00:00Z", "temp": 30.0, "dewp": 24.0, "wspd": 8, "wdir": 50, "cover": "SCT", "visib": 4.97, "fltcat": "MVFR", "altim": 1007.0, "wx": "TSRA", "rawOb": "SBUA 201900Z 05008KT 8000 TSRA SCT020 FEW025CB 30/24 Q1007"}, "geometry": {"type": "Point", "coordinates": [-66.987, -0.15]}}, {"type": "Feature", "properties": {"id": "SCIR", "site": "Robinson Crusoe Arpt", "prior": "1", "obsTime": "2018-09-20T20:00:00Z", "temp": 16.0, "dewp": 13.0, "wspd": 12, "wdir": 310, "ceil": 200, "cover": "BKN", "visib": 6.21, "fltcat": "VFR", "altim": 1016.0, "rawOb": "SCIR 202000Z 31012KT 9999 FEW010 BKN200 16/13 Q1016"}, "geometry": {"type": "Point", "coordinates": [-78.929, -33.666]}}, {"type": "Feature", "properties": {"id": "SBFL", "site": "Florianopolis/Luiz A", "prior": "2", "obsTime": "2018-09-20T20:00:00Z", "temp": 22.0, "dewp": 20.0, "wspd": 7, "wdir": 160, "ceil": 100, "cover": "BKN", "visib": 6.21, "fltcat": "VFR", "altim": 1014.0, "rawOb": "SBFL 202000Z 16007KT 9999 SCT020 BKN100 22/20 Q1014"}, "geometry": {"type": "Point", "coordinates": [-48.544, -27.67]}}, {"type": "Feature", "properties": {"id": "SBPS", "site": "Porto Seguro Arpt", "prior": "2", "obsTime": "2018-09-20T20:00:00Z", "temp": 26.0, "dewp": 20.0, "wspd": 11, "wdir": 40, "cover": "CAVOK", "visib": 6.21, "fltcat": "VFR", "altim": 1016.0, "rawOb": "SBPS 202000Z 04011KT CAVOK 26/20 Q1016"}, "geometry": {"type": "Point", "coordinates": [-39.081, -16.438]}}, {"type": "Feature", "properties": {"id": "SBRF", "site": "Recife Arpt", "prior": "2", "obsTime": "2018-09-20T19:00:00Z", "temp": 26.0, "dewp": 21.0, "wspd": 10, "wdir": 140, "ceil": 20, "cover": "BKN", "visib": 6.21, "fltcat": "MVFR", "altim": 1014.0, "wx": "VCSH", "rawOb": "SBRF 201900Z 14010KT 9999 VCSH BKN020 BKN050 26/21 Q1014"}, "geometry": {"type": "Point", "coordinates": [-34.923, -8.127]}}, {"type": "Feature", "properties": {"id": "SBGR", "site": "Sao Paulo Intl", "prior": "2", "obsTime": "2018-09-20T20:00:00Z", "temp": 20.0, "dewp": 18.0, "wspd": 5, "wdir": 60, "cover": "CAVOK", "visib": 6.21, "fltcat": "VFR", "altim": 1018.0, "rawOb": "SBGR 202000Z 06005KT CAVOK 20/18 Q1018"}, "geometry": {"type": "Point", "coordinates": [-46.47, -23.432]}}, {"type": "Feature", "properties": {"id": "MGGT", "site": "Guatemala/Aurora Arp", "prior": "2", "obsTime": "2018-09-20T20:00:00Z", "temp": 26.0, "dewp": 17.0, "wspd": 14, "wdir": 360, "cover": "SCT", "visib": 6.21, "fltcat": "VFR", "altim": 1022.0, "wx": "SS", "rawOb": "MGGT 202000Z 36014KT 9999 SCT020TCU FEW024CB SCT200 26/17 Q1022 A3018 CB/PCPN SSW CB S TCU SE"}, "geometry": {"type": "Point", "coordinates": [-90.528, 14.582]}}, {"type": "Feature", "properties": {"id": "SAAR", "site": "Rosario Intl", "prior": "2", "obsTime": "2018-09-20T20:00:00Z", "temp": 23.0, "dewp": 6.0, "wspd": 12, "wdir": 20, "cover": "CAVOK", "visib": 6.21, "fltcat": "VFR", "altim": 1011.0, "rawOb": "SAAR 202000Z 02012KT CAVOK 23/06 Q1011"}, "geometry": {"type": "Point", "coordinates": [-60.785, -32.906]}}, {"type": "Feature", "properties": {"id": "SBBE", "site": "Belem/Val de Cans Ar", "prior": "2", "obsTime": "2018-09-20T19:00:00Z", "temp": 33.0, "dewp": 21.0, "wspd": 6, "wdir": 90, "cover": "CAVOK", "visib": 6.21, "fltcat": "VFR", "altim": 1009.0, "rawOb": "SBBE 201900Z 09006KT CAVOK 33/21 Q1009"}, "geometry": {"type": "Point", "coordinates": [-48.476, -1.379]}}, {"type": "Feature", "properties": {"id": "SAME", "site": "Mendoza/Plumerillo A", "prior": "2", "obsTime": "2018-09-20T20:00:00Z", "temp": 25.0, "dewp": 13.0, "wspd": 10, "wdir": 360, "cover": "CAVOK", "visib": 6.21, "fltcat": "VFR", "altim": 1007.0, "rawOb": "SAME 202000Z 36010KT CAVOK 25/13 Q1007"}, "geometry": {"type": "Point", "coordinates": [-68.793, -32.828]}}, {"type": "Feature", "properties": {"id": "TBPB", "site": "Bridgetown/Adams Int", "prior": "2", "obsTime": "2018-09-20T20:00:00Z", "temp": 30.0, "dewp": 24.0, "wspd": 18, "wdir": 80, "cover": "SCT", "visib": 6.21, "fltcat": "VFR", "altim": 1012.0, "rawOb": "TBPB 202000Z 08018KT 9999 SCT022 30/24 Q1012 NOSIG"}, "geometry": {"type": "Point", "coordinates": [-59.491, 13.075]}}, {"type": "Feature", "properties": {"id": "SLCB", "site": "Cochabamba/Wilsterma", "prior": "2", "obsTime": "2018-09-20T19:00:00Z", "temp": 26.0, "dewp": 7.0, "wspd": 8, "wdir": 10, "cover": "SCT", "visib": 6.21, "fltcat": "VFR", "altim": 1020.0, "rawOb": "SLCB 201900Z 01008KT 9999 FEW033 FEW036CB SCT200 26/07 Q1020"}, "geometry": {"type": "Point", "coordinates": [-66.178, -17.42]}}, {"type": "Feature", "properties": {"id": "SBSN", "site": "Santarem Intl", "prior": "2", "obsTime": "2018-09-20T19:00:00Z", "temp": 32.0, "dewp": 24.0, "wspd": 13, "wdir": 60, "cover": "FEW", "visib": 6.21, "fltcat": "VFR", "altim": 1009.0, "rawOb": "SBSN 201900Z 06013KT 9999 FEW030 32/24 Q1009"}, "geometry": {"type": "Point", "coordinates": [-54.793, -2.423]}}, {"type": "Feature", "properties": {"id": "SKCL", "site": "Cali/Aragon Arpt", "prior": "2", "obsTime": "2018-09-20T20:00:00Z", "temp": 32.0, "dewp": 19.0, "wspd": 8, "wdir": 340, "cover": "SCT", "visib": 6.21, "fltcat": "VFR", "altim": 1008.9, "rawOb": "SKCL 202000Z 34008KT 250V020 9999 SCT040 32/19 A2979"}, "geometry": {"type": "Point", "coordinates": [-76.382, 3.543]}}, {"type": "Feature", "properties": {"id": "SBCF", "site": "Belo Horizonte/Neves", "prior": "2", "obsTime": "2018-09-20T19:00:00Z", "temp": 24.0, "dewp": 16.0, "wspd": 5, "wdir": 150, "ceil": 90, "cover": "BKN", "visib": 6.21, "fltcat": "VFR", "altim": 1018.0, "rawOb": "SBCF 201900Z 15005KT 9999 SCT033 BKN090 24/16 Q1018"}, "geometry": {"type": "Point", "coordinates": [-43.966, -19.635]}}, {"type": "Feature", "properties": {"id": "SCIE", "site": "Concepcion/Sur Intl", "prior": "2", "obsTime": "2018-09-20T20:00:00Z", "temp": 13.0, "dewp": 12.0, "wspd": 8, "wdir": 10, "ceil": 4, "cover": "BKN", "visib": 4.97, "fltcat": "LIFR", "altim": 1015.0, "rawOb": "SCIE 202000Z 01008KT 330V030 8000 BKN004 BKN083 13/12 Q1015"}, "geometry": {"type": "Point", "coordinates": [-73.064, -36.773]}}, {"type": "Feature", "properties": {"id": "TTPP", "site": "Port of Spain/Piarco", "prior": "2", "obsTime": "2018-09-20T19:00:00Z", "temp": 29.0, "dewp": 26.0, "wspd": 6, "wdir": 150, "ceil": 16, "cover": "BKN", "visib": 3.73, "fltcat": "MVFR", "altim": 1011.0, "wx": "VCSH", "rawOb": "TTPP 201900Z 15006KT 6000 VCSH FEW012CB BKN016TCU 29/26 Q1011 NOSIG RMK CB- WSW/W TCU- SE"}, "geometry": {"type": "Point", "coordinates": [-61.336, 10.595]}}, {"type": "Feature", "properties": {"id": "SANT", "site": "Tucuman/Matlenzo Int", "prior": "2", "obsTime": "2018-09-20T20:00:00Z", "temp": 27.0, "dewp": 9.0, "wspd": 4, "wdir": 90, "cover": "CLR", "visib": 4.35, "fltcat": "MVFR", "altim": 1010.0, "rawOb": "SANT 202000Z 09004KT 7000 NSC 27/09 Q1010"}, "geometry": {"type": "Point", "coordinates": [-65.104, -26.837]}}, {"type": "Feature", "properties": {"id": "MKJP", "site": "Kingston/Manley Intl", "prior": "2", "obsTime": "2018-09-20T20:00:00Z", "temp": 33.0, "dewp": 22.0, "wspd": 22, "wdir": 130, "cover": "SCT", "visib": 6.21, "fltcat": "VFR", "altim": 1010.0, "rawOb": "MKJP 202000Z 13022KT 9999 SCT022 33/22 Q1010"}, "geometry": {"type": "Point", "coordinates": [-76.787, 17.936]}}, {"type": "Feature", "properties": {"id": "SCAR", "site": "Arica/Chacalluta Arp", "prior": "2", "obsTime": "2018-09-20T20:00:00Z", "temp": 18.0, "dewp": 10.0, "wspd": 9, "wdir": 230, "cover": "CAVOK", "visib": 6.21, "fltcat": "VFR", "altim": 1011.0, "rawOb": "SCAR 202000Z 23009KT 180V260 CAVOK 18/10 Q1011"}, "geometry": {"type": "Point", "coordinates": [-70.338, -18.349]}}, {"type": "Feature", "properties": {"id": "SGAS", "site": "Asuncion/Pettriossi", "prior": "2", "obsTime": "2018-09-20T19:00:00Z", "temp": 25.0, "dewp": 19.0, "wspd": 6, "wdir": 60, "ceil": 80, "cover": "BKN", "visib": 6.21, "fltcat": "VFR", "altim": 1010.0, "rawOb": "SGAS 201900Z 06006KT 9999 SCT033 BKN080 25/19 Q1010"}, "geometry": {"type": "Point", "coordinates": [-57.52, -25.245]}}, {"type": "Feature", "properties": {"id": "SAZM", "site": "Mar Del Plata Arpt", "prior": "2", "obsTime": "2018-09-20T20:00:00Z", "temp": 20.0, "dewp": 5.0, "wspd": 14, "wdir": 340, "cover": "CAVOK", "visib": 6.21, "fltcat": "VFR", "altim": 1011.0, "rawOb": "SAZM 202000Z 34014KT CAVOK 20/05 Q1011"}, "geometry": {"type": "Point", "coordinates": [-57.575, -37.934]}}, {"type": "Feature", "properties": {"id": "SAWH", "site": "Ushuaia/Malvinas Arp", "prior": "2", "obsTime": "2018-09-20T20:00:00Z", "temp": 4.0, "dewp": -3.0, "wspd": 4, "wdir": 180, "ceil": 40, "cover": "BKN", "visib": 6.21, "fltcat": "VFR", "altim": 1005.0, "wx": "VCSH", "rawOb": "SAWH 202000Z 18004KT 9999 VCSH FEW025 BKN040 04/M03 Q1005"}, "geometry": {"type": "Point", "coordinates": [-68.307, -54.844]}}, {"type": "Feature", "properties": {"id": "SBPL", "site": "Petrolina Arpt", "prior": "2", "obsTime": "2018-09-20T19:00:00Z", "temp": 34.0, "dewp": 13.0, "wspd": 12, "wdir": 120, "cover": "CAVOK", "visib": 6.21, "fltcat": "VFR", "altim": 1012.0, "rawOb": "SBPL 201900Z 12012KT CAVOK 34/13 Q1012"}, "geometry": {"type": "Point", "coordinates": [-40.565, -9.364]}}, {"type": "Feature", "properties": {"id": "SBTE", "site": "Teresina Arpt", "prior": "2", "obsTime": "2018-09-20T19:00:00Z", "temp": 39.0, "dewp": 13.0, "wspd": 6, "wdir": 100, "cover": "FEW", "visib": 6.21, "fltcat": "VFR", "altim": 1007.0, "rawOb": "SBTE 201900Z 10006KT 9999 FEW030 39/13 Q1007"}, "geometry": {"type": "Point", "coordinates": [-42.824, -5.06]}}, {"type": "Feature", "properties": {"id": "SPRU", "site": "Trujillo Aprt", "prior": "2", "obsTime": "2018-09-20T19:00:00Z", "temp": 19.0, "dewp": 14.0, "wspd": 10, "wdir": 180, "cover": "CAVOK", "visib": 6.21, "fltcat": "VFR", "altim": 1011.0, "rawOb": "SPRU 201900Z 18010KT CAVOK 19/14 Q1011 RMK PP000"}, "geometry": {"type": "Point", "coordinates": [-79.109, -8.083]}}, {"type": "Feature", "properties": {"id": "SPQT", "site": "Iquitos/Vignetta Arp", "prior": "2", "obsTime": "2018-09-20T19:00:00Z", "temp": 34.0, "dewp": 24.0, "wspd": 2, "wdir": 0, "ceil": 20, "cover": "BKN", "visib": 6.21, "fltcat": "MVFR", "altim": 1007.0, "rawOb": "SPQT 201900Z VRB02KT 9999 BKN020 34/24 Q1007 NOSIG RMK BIRD HAZARD RWY 06/24 PP000"}, "geometry": {"type": "Point", "coordinates": [-73.308, -3.784]}}, {"type": "Feature", "properties": {"id": "SCSE", "site": "La Serena/La Florida", "prior": "2", "obsTime": "2018-09-20T20:00:00Z", "temp": 19.0, "dewp": 11.0, "wspd": 10, "wdir": 270, "cover": "CAVOK", "visib": 6.21, "fltcat": "VFR", "altim": 1012.0, "rawOb": "SCSE 202000Z 27010KT CAVOK 19/11 Q1012"}, "geometry": {"type": "Point", "coordinates": [-71.2, -29.916]}}, {"type": "Feature", "properties": {"id": "SKSP", "site": "San Andres Isl Arpt", "prior": "2", "obsTime": "2018-09-20T20:00:00Z", "temp": 26.0, "dewp": 24.0, "wspd": 8, "wdir": 70, "ceil": 70, "cover": "OVC", "visib": 6.21, "fltcat": "VFR", "altim": 1007.9, "rawOb": "SKSP 202000Z 07008KT 030V120 9999 FEW012 OVC070 26/24 A2976 RETSRA"}, "geometry": {"type": "Point", "coordinates": [-81.712, 12.584]}}, {"type": "Feature", "properties": {"id": "SPZO", "site": "Cuzco/Velazco Arpt", "prior": "2", "obsTime": "2018-09-20T19:30:00Z", "temp": 23.0, "dewp": -1.0, "wspd": 6, "wdir": 360, "cover": "SCT", "visib": 6.21, "fltcat": "VFR", "altim": 1026.0, "rawOb": "SPZO 201930Z 36006KT 280V090 9999 SCT050 23/M01 Q1026 NOSIG RMK BIRD HAZARD RWY 28"}, "geometry": {"type": "Point", "coordinates": [-71.941, -13.535]}}, {"type": "Feature", "properties": {"id": "SMJP", "site": "Paramaribo/Pengel In", "prior": "2", "obsTime": "2018-09-20T19:00:00Z", "temp": 34.0, "dewp": 21.0, "wspd": 6, "wdir": 130, "cover": "SCT", "visib": 6.21, "fltcat": "VFR", "altim": 1009.0, "rawOb": "SMJP 201900Z 13006KT 9999 SCT040 34/21 Q1009 NOSIG"}, "geometry": {"type": "Point", "coordinates": [-55.191, 5.453]}}, {"type": "Feature", "properties": {"id": "SULS", "site": "Capitan Corbeta Intl", "prior": "2", "obsTime": "2018-09-20T19:00:00Z", "temp": 20.0, "dewp": 4.0, "wspd": 7, "wdir": 170, "cover": "CAVOK", "visib": 6.21, "fltcat": "VFR", "altim": 1015.0, "rawOb": "SULS 201900Z 17007KT CAVOK 20/04 Q1015"}, "geometry": {"type": "Point", "coordinates": [-55.098, -34.856]}}, {"type": "Feature", "properties": {"id": "TNCC", "site": "Curacao/Hato Intl", "prior": "2", "obsTime": "2018-09-20T19:33:00Z", "temp": 33.0, "dewp": 23.0, "wspd": 15, "wdir": 110, "cover": "CLR", "visib": 6.21, "fltcat": "VFR", "altim": 1009.0, "rawOb": "TNCC 201933Z AUTO 11015KT 9999 NCD 33/23 Q1009 NOSIG "}, "geometry": {"type": "Point", "coordinates": [-68.96, 12.188]}}, {"type": "Feature", "properties": {"id": "MHLM", "site": "San Pedro Sula/Moral", "prior": "2", "obsTime": "2018-09-20T20:00:00Z", "temp": 32.0, "dewp": 25.0, "wspd": 11, "wdir": 30, "ceil": 28, "cover": "BKN", "visib": 6.21, "fltcat": "MVFR", "altim": 1009.0, "rawOb": "MHLM 202000Z 03011KT 9999 BKN028TCU SCT250 32/25 Q1009 A2980 RERA NOSIG"}, "geometry": {"type": "Point", "coordinates": [-87.923, 15.453]}}, {"type": "Feature", "properties": {"id": "MGMM", "site": "Mundo Maya Intl", "prior": "2", "obsTime": "2018-09-20T20:00:00Z", "temp": 28.0, "dewp": 25.0, "wspd": 6, "wdir": 230, "cover": "SCT", "visib": 6.21, "fltcat": "VFR", "altim": 1012.0, "wx": "TS TS", "rawOb": "MGMM 202000Z 23006KT 9999 TS SCT020 FEW025CB SCT090 28/25 Q1012 A2988 CB/TS/PCPN ENE/E/SW CB E"}, "geometry": {"type": "Point", "coordinates": [-89.866, 16.914]}}, {"type": "Feature", "properties": {"id": "MNMG", "site": "Managua Intl", "prior": "2", "obsTime": "2018-09-20T19:00:00Z", "temp": 28.0, "dewp": 25.0, "wspd": 16, "wdir": 90, "cover": "SCT", "visib": 6.21, "fltcat": "VFR", "altim": 1007.0, "rawOb": "MNMG 201900Z 09016KT 9999 SCT024 28/25 Q1007 A2976 BECMG 9000 -RA"}, "geometry": {"type": "Point", "coordinates": [-86.168, 12.142]}}, {"type": "Feature", "properties": {"id": "MHCA", "site": "Catacamas Arpt", "prior": "2", "obsTime": "2018-09-20T20:00:00Z", "temp": 25.0, "dewp": 20.0, "wspd": 8, "wdir": 60, "ceil": 70, "cover": "BKN", "visib": 6.21, "fltcat": "VFR", "wx": "-TSRA VCSH TS HZ", "rawOb": "MHCA 202000Z 06008KT 9999 -TSRA SCT028TCU SCT030CB BKN070 25/20 CB TS TCU NW W VCSH ALL HZ"}, "geometry": {"type": "Point", "coordinates": [-85.775, 14.875]}}, {"type": "Feature", "properties": {"id": "SLTJ", "site": "Tarija/Plaza Arpt", "prior": "2", "obsTime": "2018-09-20T19:00:00Z", "temp": 27.0, "dewp": 12.0, "wspd": 16, "wdir": 130, "cover": "FEW", "visib": 6.21, "fltcat": "VFR", "altim": 1013.0, "rawOb": "SLTJ 201900Z 13016KT 9999 FEW040 27/12 Q1013"}, "geometry": {"type": "Point", "coordinates": [-64.702, -21.555]}}, {"type": "Feature", "properties": {"id": "SBCZ", "site": "Cruzeiro Do Sul Intl", "prior": "2", "obsTime": "2018-09-20T19:00:00Z", "temp": 23.0, "dewp": 22.0, "wspd": 0, "wdir": 0, "ceil": 100, "cover": "OVC", "visib": 6.21, "fltcat": "VFR", "altim": 1010.0, "rawOb": "SBCZ 201900Z 00000KT 9999 SCT030 OVC100 23/22 Q1010"}, "geometry": {"type": "Point", "coordinates": [-72.772, -7.601]}}, {"type": "Feature", "properties": {"id": "SPME", "site": "Tumbes Arpt", "prior": "2", "obsTime": "2018-09-20T20:00:00Z", "temp": 26.0, "dewp": 19.0, "wspd": 3, "wdir": 330, "cover": "SCT", "visib": 6.21, "fltcat": "VFR", "altim": 1008.0, "rawOb": "SPME 202000Z 33003KT 9999 SCT015 26/19 Q1008 RMK BIRD HAZARD RWY 32/14 PP000"}, "geometry": {"type": "Point", "coordinates": [-80.381, -3.553]}}, {"type": "Feature", "properties": {"id": "TNCM", "site": "St Maarten Intl", "prior": "2", "obsTime": "2018-09-20T20:00:00Z", "temp": 31.0, "dewp": 23.0, "wspd": 8, "wdir": 90, "cover": "FEW", "visib": 6.21, "fltcat": "VFR", "altim": 1015.0, "rawOb": "TNCM 202000Z 09008KT 050V140 9999 FEW022 31/23 Q1015 NOSIG RMK A2998/ HZ ALQDS"}, "geometry": {"type": "Point", "coordinates": [-63.106, 18.041]}}, {"type": "Feature", "properties": {"id": "SBFN", "site": "Fernando de Noronha", "prior": "2", "obsTime": "2018-09-20T20:00:00Z", "temp": 26.0, "dewp": 22.0, "wspd": 12, "wdir": 130, "cover": "SCT", "visib": 6.21, "fltcat": "VFR", "altim": 1013.0, "rawOb": "SBFN 202000Z 13012KT 9999 SCT020 26/22 Q1013"}, "geometry": {"type": "Point", "coordinates": [-32.424, -3.855]}}, {"type": "Feature", "properties": {"id": "SBDN", "site": "Presidente Prudente", "prior": "2", "obsTime": "2018-09-20T19:00:00Z", "temp": 18.0, "dewp": 17.0, "wspd": 7, "wdir": 120, "cover": "CLR", "visib": 6.21, "fltcat": "VFR", "altim": 1017.0, "wx": "-RA", "rawOb": "SBDN 201900Z 12007KT 9999 -RA NSC 18/17 Q1017"}, "geometry": {"type": "Point", "coordinates": [-51.424, -22.176]}}, {"type": "Feature", "properties": {"id": "MPDA", "site": "David/Malek Intl", "prior": "2", "obsTime": "2018-09-20T20:00:00Z", "temp": 30.0, "dewp": 25.0, "wspd": 7, "wdir": 220, "cover": "SCT", "visib": 6.21, "fltcat": "VFR", "altim": 1005.0, "rawOb": "MPDA 202000Z 22007KT 9999 SCT015 SCT080 30/25 Q1005"}, "geometry": {"type": "Point", "coordinates": [-82.435, 8.391]}}, {"type": "Feature", "properties": {"id": "SLRI", "site": "Riberalta Arpt", "prior": "2", "obsTime": "2018-09-20T19:00:00Z", "temp": 28.0, "dewp": 24.0, "wspd": 10, "wdir": 360, "ceil": 17, "cover": "BKN", "visib": 3.11, "fltcat": "MVFR", "altim": 1010.0, "wx": "TS VCSH", "rawOb": "SLRI 201900Z 36010KT 5000 TS VCSH BKN017 FEW020CB BKN200 28/24 Q1010"}, "geometry": {"type": "Point", "coordinates": [-66.076, -11.008]}}, {"type": "Feature", "properties": {"id": "SLSA", "site": "Santa Ana de Yacuma", "prior": "2", "obsTime": "2018-09-20T19:00:00Z", "temp": 35.0, "dewp": 22.0, "wspd": 14, "wdir": 300, "ceil": 20, "cover": "BKN", "visib": 4.97, "fltcat": "MVFR", "altim": 1007.0, "rawOb": "SLSA 201900Z 30014KT 8000 BKN020 FEW023CB BKN200 35/22 Q1007"}, "geometry": {"type": "Point", "coordinates": [-65.434, -13.764]}}, {"type": "Feature", "properties": {"id": "SBUG", "site": "Uruguaiana/Berta Int", "prior": "2", "obsTime": "2018-09-20T19:00:00Z", "temp": 25.0, "dewp": 16.0, "wspd": 12, "wdir": 70, "cover": "CAVOK", "visib": 6.21, "fltcat": "VFR", "altim": 1012.0, "rawOb": "SBUG 201900Z 07012KT CAVOK 25/16 Q1012"}, "geometry": {"type": "Point", "coordinates": [-57.037, -29.782]}}, {"type": "Feature", "properties": {"id": "MMTG", "site": "Tuxtla Gutierre Intl", "prior": "2", "obsTime": "2018-09-20T19:46:00Z", "temp": 31.0, "dewp": 21.0, "wspd": 2, "wdir": 320, "cover": "SCT", "visib": 8.0, "fltcat": "VFR", "altim": 1011.9, "rawOb": "MMTG 201946Z 32002KT 8SM SCT025TCU SCT300 31/21 A2988 RMK 8/206"}, "geometry": {"type": "Point", "coordinates": [-93.026, 16.561]}}, {"type": "Feature", "properties": {"id": "SBVH", "site": "Vilhena Arpt", "prior": "2", "obsTime": "2018-09-20T19:00:00Z", "temp": 32.0, "dewp": 20.0, "wspd": 6, "wdir": 290, "ceil": 70, "cover": "BKN", "visib": 6.21, "fltcat": "VFR", "altim": 1012.0, "rawOb": "SBVH 201900Z 29006KT 220V320 9999 SCT040 BKN070 32/20 Q1012 RETS"}, "geometry": {"type": "Point", "coordinates": [-60.098, -12.695]}}, {"type": "Feature", "properties": {"id": "SKLC", "site": "Apartado/Betencourt", "prior": "2", "obsTime": "2018-09-20T19:00:00Z", "temp": 33.0, "dewp": 25.0, "wspd": 5, "wdir": 120, "cover": "SCT", "visib": 6.21, "fltcat": "VFR", "altim": 1006.5, "rawOb": "SKLC 201900Z 12005KT 9999 SCT020 33/25 A2972"}, "geometry": {"type": "Point", "coordinates": [-76.718, 7.814]}}, {"type": "Feature", "properties": {"id": "MMAA", "site": "Acapulco/Alvarez Int", "prior": "2", "obsTime": "2018-09-20T19:45:00Z", "temp": 31.0, "dewp": 26.0, "wspd": 5, "wdir": 190, "ceil": 300, "cover": "BKN", "visib": 8.0, "fltcat": "VFR", "altim": 1009.6, "rawOb": "MMAA 201945Z 19005KT 8SM FEW015 BKN300 31/26 A2981 RMK 8/102 HZY"}, "geometry": {"type": "Point", "coordinates": [-99.754, 16.757]}}, {"type": "Feature", "properties": {"id": "MNBL", "site": "Bluefields Arpt", "prior": "2", "obsTime": "2018-09-20T19:00:00Z", "temp": 25.0, "dewp": 24.0, "wspd": 4, "wdir": 340, "cover": "SCT", "visib": 4.97, "fltcat": "MVFR", "altim": 1009.0, "wx": "-TS RA", "rawOb": "MNBL 201900Z 34004KT 8000 -TS FEW017CB SCT070 25/24 Q1009 CBRA/N/NE/E"}, "geometry": {"type": "Point", "coordinates": [-83.773, 11.991]}}, {"type": "Feature", "properties": {"id": "SBTF", "site": "Tefe Arpt", "prior": "2", "obsTime": "2018-09-20T19:30:00Z", "temp": 26.0, "dewp": 22.0, "wspd": 14, "wdir": 30, "cover": "SCT", "visib": 3.11, "fltcat": "MVFR", "altim": 1008.0, "wx": "TSRA", "rawOb": "SBTF 201930Z 03014KT 5000 TSRA SCT013 SCT025CB 26/22 Q1008"}, "geometry": {"type": "Point", "coordinates": [-64.724, -3.384]}}, {"type": "Feature", "properties": {"id": "SBPP", "site": "Ponta Pora Intl", "prior": "2", "obsTime": "2018-09-20T19:00:00Z", "temp": 21.0, "dewp": 17.0, "wspd": 16, "wdir": 300, "ceil": 70, "cover": "BKN", "visib": 6.21, "fltcat": "VFR", "altim": 1015.0, "rawOb": "SBPP 201900Z 30016KT 9999 FEW015 BKN070 21/17 Q1015"}, "geometry": {"type": "Point", "coordinates": [-55.703, -22.551]}}, {"type": "Feature", "properties": {"id": "SBUR", "site": "Uberaba Arpt", "prior": "2", "obsTime": "2018-09-20T19:00:00Z", "temp": 25.0, "dewp": 16.0, "wspd": 3, "wdir": 80, "ceil": 80, "cover": "OVC", "visib": 6.21, "fltcat": "VFR", "altim": 1017.0, "rawOb": "SBUR 201900Z 08003KT 030V130 9999 FEW033 FEW040TCU OVC080 25/16 Q1017"}, "geometry": {"type": "Point", "coordinates": [-47.965, -19.765]}}, {"type": "Feature", "properties": {"id": "SBEK", "site": "Jacareacanga Arpt", "prior": "2", "obsTime": "2018-09-20T19:00:00Z", "temp": 35.0, "dewp": 25.0, "wspd": 5, "wdir": 130, "cover": "FEW", "visib": 6.21, "fltcat": "VFR", "altim": 1008.0, "rawOb": "SBEK 201900Z 13005KT 9999 FEW020 35/25 Q1008"}, "geometry": {"type": "Point", "coordinates": [-57.777, -6.234]}}, {"type": "Feature", "properties": {"id": "MMOX", "site": "Xoxocotlan Intl", "prior": "2", "obsTime": "2018-09-20T19:50:00Z", "temp": 24.0, "dewp": 11.0, "wspd": 0, "wdir": 0, "ceil": 25, "cover": "OVC", "visib": 10.0, "fltcat": "MVFR", "altim": 1020.7, "rawOb": "MMOX 201950Z 00000KT 10SM BKN025 OVC100 24/11 A3014 RMK 8/77/ BINOVC"}, "geometry": {"type": "Point", "coordinates": [-96.726, 17.001]}}, {"type": "Feature", "properties": {"id": "SBCI", "site": "Carolina Arpt", "prior": "2", "obsTime": "2018-09-20T19:00:00Z", "temp": 36.0, "dewp": 21.0, "wspd": 3, "wdir": 130, "cover": "CAVOK", "visib": 6.21, "fltcat": "VFR", "altim": 1010.0, "rawOb": "SBCI 201900Z 13003KT CAVOK 36/21 Q1010"}, "geometry": {"type": "Point", "coordinates": [-47.459, -7.32]}}, {"type": "Feature", "properties": {"id": "SBMK", "site": "Montes Claros Arpt", "prior": "2", "obsTime": "2018-09-20T19:00:00Z", "temp": 30.0, "dewp": 13.0, "wspd": 9, "wdir": 0, "cover": "SCT", "visib": 6.21, "fltcat": "VFR", "altim": 1014.0, "rawOb": "SBMK 201900Z VRB09KT 9999 SCT050TCU SCT100 30/13 Q1014"}, "geometry": {"type": "Point", "coordinates": [-43.819, -16.707]}}, {"type": "Feature", "properties": {"id": "MMTP", "site": "Tapachula Intl", "prior": "2", "obsTime": "2018-09-20T19:40:00Z", "temp": 33.0, "dewp": 26.0, "wspd": 8, "wdir": 270, "cover": "SCT", "visib": 12.0, "fltcat": "VFR", "altim": 1008.2, "rawOb": "MMTP 201940Z 27008KT 12SM SCT025 33/26 A2977 RMK 8/100 DSNT TCU 1ST QUAD"}, "geometry": {"type": "Point", "coordinates": [-92.371, 14.794]}}, {"type": "Feature", "properties": {"id": "SBMY", "site": "Manicore Arpt", "prior": "2", "obsTime": "2018-09-20T19:00:00Z", "temp": 34.0, "dewp": 24.0, "wspd": 6, "wdir": 50, "cover": "FEW", "visib": 6.21, "fltcat": "VFR", "altim": 1008.0, "rawOb": "SBMY 201900Z 05006KT 9999 FEW020 34/24 Q1008"}, "geometry": {"type": "Point", "coordinates": [-61.279, -5.812]}}, {"type": "Feature", "properties": {"id": "SBBW", "site": "Berra Do Garcas Arpt", "prior": "2", "obsTime": "2018-09-20T19:00:00Z", "temp": 31.0, "dewp": 19.0, "wspd": 6, "wdir": 350, "ceil": 97, "cover": "BKN", "visib": 6.21, "fltcat": "VFR", "altim": 1012.0, "rawOb": "SBBW 201900Z 35006KT 9999 FEW020 SCT080 BKN097 31/19 Q1012"}, "geometry": {"type": "Point", "coordinates": [-52.389, -15.862]}}, {"type": "Feature", "properties": {"id": "SVSA", "site": "San Antonio Arpt", "prior": "2", "obsTime": "2018-09-20T20:00:00Z", "cover": "SCT", "visib": 6.21, "fltcat": "VFR", "altim": 1008.0, "rawOb": "SVSA 202000Z /////KT 9999 FEW020 SCT300 35/// Q1008"}, "geometry": {"type": "Point", "coordinates": [-72.44, 7.84]}}, {"type": "Feature", "properties": {"id": "TFFF", "site": "Le Lamentin/Cesaire", "prior": "3", "obsTime": "2018-09-20T20:00:00Z", "temp": 30.0, "dewp": 23.0, "wspd": 13, "wdir": 90, "ceil": 29, "cover": "BKN", "visib": 6.21, "fltcat": "MVFR", "altim": 1013.0, "rawOb": "TFFF 202000Z AUTO 09013KT 9999 BKN029 BKN037 30/23 Q1013 NOSIG"}, "geometry": {"type": "Point", "coordinates": [-61.002, 14.591]}}, {"type": "Feature", "properties": {"id": "SBMO", "site": "Maceio/Palmares Arpt", "prior": "3", "obsTime": "2018-09-20T20:00:00Z", "temp": 26.0, "dewp": 21.0, "wspd": 12, "wdir": 120, "cover": "FEW", "visib": 6.21, "fltcat": "VFR", "altim": 1015.0, "rawOb": "SBMO 202000Z 12012KT 9999 FEW025 26/21 Q1015"}, "geometry": {"type": "Point", "coordinates": [-35.793, -9.511]}}, {"type": "Feature", "properties": {"id": "SBRB", "site": "Rio Branco/Medici In", "prior": "3", "obsTime": "2018-09-20T19:00:00Z", "temp": 35.0, "dewp": 19.0, "wspd": 9, "wdir": 200, "cover": "SCT", "visib": 6.21, "fltcat": "VFR", "altim": 1008.0, "rawOb": "SBRB 201900Z 20009KT 9999 SCT030 FEW035TCU 35/19 Q1008"}, "geometry": {"type": "Point", "coordinates": [-67.801, -9.991]}}, {"type": "Feature", "properties": {"id": "SBAR", "site": "Aracaju/Santa Maria", "prior": "3", "obsTime": "2018-09-20T19:00:00Z", "temp": 27.0, "dewp": 20.0, "wspd": 12, "wdir": 110, "cover": "SCT", "visib": 6.21, "fltcat": "VFR", "altim": 1015.0, "rawOb": "SBAR 201900Z 11012KT 9999 SCT023 SCT080 27/20 Q1015"}, "geometry": {"type": "Point", "coordinates": [-37.072, -10.984]}}, {"type": "Feature", "properties": {"id": "SBNT", "site": "Natal/Severo Arpt", "prior": "3", "obsTime": "2018-09-20T19:00:00Z", "temp": 29.0, "dewp": 19.0, "wspd": 19, "wdir": 120, "cover": "FEW", "visib": 6.21, "fltcat": "VFR", "altim": 1013.0, "rawOb": "SBNT 201900Z 12019KT 9999 FEW033 29/19 Q1013"}, "geometry": {"type": "Point", "coordinates": [-35.244, -5.911]}}, {"type": "Feature", "properties": {"id": "SBCG", "site": "Campo Grande Intl", "prior": "3", "obsTime": "2018-09-20T20:00:00Z", "temp": 21.0, "dewp": 17.0, "wspd": 16, "wdir": 100, "ceil": 100, "cover": "BKN", "visib": 6.21, "fltcat": "VFR", "altim": 1014.0, "wx": "VCSH", "rawOb": "SBCG 202000Z 10016KT 9999 VCSH FEW010 SCT030 FEW035TCU BKN100 21/17 Q1014"}, "geometry": {"type": "Point", "coordinates": [-54.674, -20.47]}}, {"type": "Feature", "properties": {"id": "TNCE", "site": "St Eustatius/Rooseve", "prior": "3", "obsTime": "2018-09-20T19:55:00Z", "temp": 30.0, "dewp": 25.0, "wspd": 12, "wdir": 60, "altim": 1015.0, "rawOb": "TNCE 201955Z AUTO 06012KT 010V100 //// // ///////// 30/25 Q1015 RE//"}, "geometry": {"type": "Point", "coordinates": [-62.98, 17.496]}}, {"type": "Feature", "properties": {"id": "SKRG", "site": "Rionegro/Cordova Int", "prior": "3", "obsTime": "2018-09-20T19:00:00Z", "temp": 23.0, "dewp": 12.0, "wspd": 10, "wdir": 130, "ceil": 200, "cover": "BKN", "visib": 6.21, "fltcat": "VFR", "altim": 1022.8, "rawOb": "SKRG 201900Z 13010KT 9999 FEW020 BKN200 23/12 A3020"}, "geometry": {"type": "Point", "coordinates": [-75.423, 6.166]}}, {"type": "Feature", "properties": {"id": "SUMU", "site": "Carrasco Intl", "prior": "3", "obsTime": "2018-09-20T20:00:00Z", "temp": 20.0, "dewp": 6.0, "wspd": 5, "wdir": 130, "cover": "CAVOK", "visib": 6.21, "fltcat": "VFR", "altim": 1015.0, "rawOb": "SUMU 202000Z 13005KT CAVOK 20/06 Q1015 NOSIG"}, "geometry": {"type": "Point", "coordinates": [-56.026, -34.835]}}, {"type": "Feature", "properties": {"id": "SKCG", "site": "Cartagena/Nunez Intl", "prior": "3", "obsTime": "2018-09-20T20:00:00Z", "temp": 31.0, "dewp": 26.0, "wspd": 12, "wdir": 340, "cover": "SCT", "visib": 6.21, "fltcat": "VFR", "altim": 1006.5, "rawOb": "SKCG 202000Z 34012KT 9999 SCT012TCU SCT200 31/26 A2972 RMK TCU SE/S"}, "geometry": {"type": "Point", "coordinates": [-75.513, 10.444]}}, {"type": "Feature", "properties": {"id": "TIST", "site": "St Thomas/King Arpt", "prior": "3", "obsTime": "2018-09-20T19:53:00Z", "temp": 31.1, "dewp": 24.4, "wspd": 10, "wdir": 130, "cover": "FEW", "visib": 9.0, "fltcat": "VFR", "altim": 1015.0, "slp": 1015.0, "wx": "HZ", "rawOb": "TIST 201953Z 13010KT 9SM HZ FEW030 31/24 A2997 RMK AO2 SLP150 T03110244"}, "geometry": {"type": "Point", "coordinates": [-64.973, 18.337]}}, {"type": "Feature", "properties": {"id": "SAWG", "site": "Rio Gallegos Intl", "prior": "3", "obsTime": "2018-09-20T20:00:00Z", "temp": 6.0, "dewp": -2.0, "wspd": 6, "wdir": 70, "cover": "SCT", "visib": 6.21, "fltcat": "VFR", "altim": 1001.0, "rawOb": "SAWG 202000Z 07006KT 360V110 9999 FEW020 SCT035 06/M02 Q1001"}, "geometry": {"type": "Point", "coordinates": [-69.308, -51.609]}}, {"type": "Feature", "properties": {"id": "SCDA", "site": "Iquique/Diego Aracen", "prior": "3", "obsTime": "2018-09-20T20:00:00Z", "temp": 18.0, "dewp": 11.0, "wspd": 9, "wdir": 250, "cover": "FEW", "visib": 6.21, "fltcat": "VFR", "altim": 1011.0, "rawOb": "SCDA 202000Z 25009KT 9999 FEW027 18/11 Q1011"}, "geometry": {"type": "Point", "coordinates": [-70.182, -20.537]}}, {"type": "Feature", "properties": {"id": "GVSV", "site": "San Pedro Arpt", "prior": "3", "obsTime": "2018-09-20T20:00:00Z", "temp": 28.0, "dewp": 22.0, "wspd": 11, "wdir": 60, "cover": "SCT", "visib": 4.35, "fltcat": "MVFR", "altim": 1014.0, "rawOb": "GVSV 202000Z 06011KT 7000 SCT015 SCT018 28/22 Q1014 NOSIG"}, "geometry": {"type": "Point", "coordinates": [-25.056, 16.833]}}, {"type": "Feature", "properties": {"id": "SBGO", "site": "Goiania/Genoveva Arp", "prior": "3", "obsTime": "2018-09-20T19:00:00Z", "temp": 29.0, "dewp": 17.0, "wspd": 4, "wdir": 350, "cover": "SCT", "visib": 6.21, "fltcat": "VFR", "altim": 1015.0, "wx": "VCSH", "rawOb": "SBGO 201900Z 35004KT 300V030 9999 VCSH SCT040 FEW045TCU SCT100 29/17 Q1015"}, "geometry": {"type": "Point", "coordinates": [-49.22, -16.632]}}, {"type": "Feature", "properties": {"id": "SCCF", "site": "Calama/El Loa Intl", "prior": "3", "obsTime": "2018-09-20T20:00:00Z", "temp": 25.0, "dewp": -26.0, "wspd": 17, "wdir": 270, "cover": "CAVOK", "visib": 6.21, "fltcat": "VFR", "altim": 1022.0, "rawOb": "SCCF 202000Z 27017KT CAVOK 25/M26 Q1022"}, "geometry": {"type": "Point", "coordinates": [-68.908, -22.497]}}, {"type": "Feature", "properties": {"id": "MKJS", "site": "Sangster Intl", "prior": "3", "obsTime": "2018-09-20T20:00:00Z", "temp": 32.0, "dewp": 26.0, "wspd": 20, "wdir": 70, "cover": "FEW", "visib": 6.21, "fltcat": "VFR", "altim": 1011.0, "rawOb": "MKJS 202000Z 07020KT 9999 FEW022CB 32/26 Q1011"}, "geometry": {"type": "Point", "coordinates": [-77.915, 18.503]}}, {"type": "Feature", "properties": {"id": "SBLO", "site": "Londrina Arpt", "prior": "3", "obsTime": "2018-09-20T19:00:00Z", "temp": 18.0, "dewp": 17.0, "wspd": 4, "wdir": 170, "ceil": 10, "cover": "OVC", "visib": 3.73, "fltcat": "MVFR", "altim": 1015.0, "rawOb": "SBLO 201900Z 17004KT 6000 SCT004 BKN010 OVC070 18/17 Q1015"}, "geometry": {"type": "Point", "coordinates": [-51.129, -23.334]}}, {"type": "Feature", "properties": {"id": "TNCB", "site": "Bonaire/Flamingo Arp", "prior": "3", "obsTime": "2018-09-20T18:55:00Z", "temp": 32.0, "dewp": 25.0, "wspd": 20, "wdir": 100, "cover": "SCT", "visib": 6.21, "fltcat": "VFR", "altim": 1009.0, "rawOb": "TNCB 201855Z 10020KT 080V140 9999 SCT017 SCT020 32/25 Q1009"}, "geometry": {"type": "Point", "coordinates": [-68.267, 12.131]}}, {"type": "Feature", "properties": {"id": "TAPA", "site": "St Johns/Bird Intl", "prior": "3", "obsTime": "2018-09-20T20:00:00Z", "temp": 29.0, "dewp": 24.0, "wspd": 10, "wdir": 90, "cover": "FEW", "visib": 6.21, "fltcat": "VFR", "altim": 1014.0, "rawOb": "TAPA 202000Z 09010KT 9999 FEW018 29/24 Q1014 NOSIG"}, "geometry": {"type": "Point", "coordinates": [-61.792, 17.137]}}, {"type": "Feature", "properties": {"id": "MHTG", "site": "Tegucigalpa/Tonconti", "prior": "3", "obsTime": "2018-09-20T20:00:00Z", "temp": 25.0, "dewp": 19.0, "wspd": 8, "wdir": 360, "ceil": 28, "cover": "BKN", "visib": 6.21, "fltcat": "MVFR", "altim": 1016.0, "rawOb": "MHTG 202000Z 36008KT 9999 FEW016 BKN028 25/19 Q1016 A3000 NOSIG"}, "geometry": {"type": "Point", "coordinates": [-87.217, 14.061]}}, {"type": "Feature", "properties": {"id": "SEGU", "site": "Guayaquil/Olmedo Int", "prior": "3", "obsTime": "2018-09-20T20:00:00Z", "temp": 28.0, "dewp": 19.0, "wspd": 8, "wdir": 170, "cover": "SCT", "visib": 6.21, "fltcat": "VFR", "altim": 1007.0, "rawOb": "SEGU 202000Z 17008KT 140V210 9999 SCT030 28/19 Q1007 NOSIG RMK A2973"}, "geometry": {"type": "Point", "coordinates": [-79.884, -2.157]}}, {"type": "Feature", "properties": {"id": "SBRP", "site": "Leite Lopes Arpt", "prior": "3", "obsTime": "2018-09-20T19:00:00Z", "temp": 27.0, "dewp": 16.0, "wspd": 5, "wdir": 350, "ceil": 100, "cover": "OVC", "visib": 6.21, "fltcat": "VFR", "altim": 1015.0, "rawOb": "SBRP 201900Z 35005KT 9999 SCT040 OVC100 27/16 Q1015"}, "geometry": {"type": "Point", "coordinates": [-47.774, -21.134]}}, {"type": "Feature", "properties": {"id": "SARP", "site": "Posadas Arpt", "prior": "3", "obsTime": "2018-09-20T20:00:00Z", "temp": 27.0, "dewp": 17.0, "wspd": 5, "wdir": 20, "cover": "CAVOK", "visib": 6.21, "fltcat": "VFR", "altim": 1012.0, "rawOb": "SARP 202000Z 02005KT CAVOK 27/17 Q1012"}, "geometry": {"type": "Point", "coordinates": [-55.971, -27.387]}}, {"type": "Feature", "properties": {"id": "SAZS", "site": "San Carlos de Barilo", "prior": "3", "obsTime": "2018-09-20T20:00:00Z", "temp": 10.0, "dewp": 0.0, "wspd": 24, "wdir": 290, "cover": "SCT", "visib": 6.21, "fltcat": "VFR", "altim": 1004.0, "wx": "VCSH", "rawOb": "SAZS 202000Z 29024KT 9999 VCSH FEW030 SCT040 10/00 Q1004"}, "geometry": {"type": "Point", "coordinates": [-71.159, -41.151]}}, {"type": "Feature", "properties": {"id": "SPHI", "site": "Chiclayo Arpt", "prior": "3", "obsTime": "2018-09-20T19:00:00Z", "temp": 23.0, "dewp": 15.0, "wspd": 14, "wdir": 190, "cover": "CAVOK", "visib": 6.21, "fltcat": "VFR", "altim": 1010.0, "rawOb": "SPHI 201900Z 19014KT 160V220 CAVOK 23/15 Q1010 RMK PP000"}, "geometry": {"type": "Point", "coordinates": [-79.828, -6.785]}}, {"type": "Feature", "properties": {"id": "SPCL", "site": "Pucallpa/Rengifo Int", "prior": "3", "obsTime": "2018-09-20T20:00:00Z", "temp": 31.0, "dewp": 24.0, "wspd": 12, "wdir": 20, "ceil": 25, "cover": "BKN", "visib": 6.21, "fltcat": "MVFR", "altim": 1008.0, "rawOb": "SPCL 202000Z 02012KT 9999 BKN025 31/24 Q1008 RMK BIRD HAZARD RWY 02/20 PP000"}, "geometry": {"type": "Point", "coordinates": [-74.575, -8.38]}}, {"type": "Feature", "properties": {"id": "SARF", "site": "Formosa Intl", "prior": "3", "obsTime": "2018-09-20T20:00:00Z", "temp": 25.0, "dewp": 20.0, "wspd": 4, "wdir": 360, "ceil": 25, "cover": "BKN", "visib": 6.21, "fltcat": "MVFR", "altim": 1010.0, "rawOb": "SARF 202000Z 36004KT 9999 BKN025 BKN100 25/20 Q1010"}, "geometry": {"type": "Point", "coordinates": [-58.228, -26.214]}}, {"type": "Feature", "properties": {"id": "SPQU", "site": "Arequipa/Ballon Intl", "prior": "3", "obsTime": "2018-09-20T19:00:00Z", "temp": 23.0, "dewp": -15.0, "wspd": 9, "wdir": 250, "cover": "CAVOK", "visib": 6.21, "fltcat": "VFR", "altim": 1024.0, "rawOb": "SPQU 201900Z 25009KT 190V290 CAVOK 23/M15 Q1024 NOSIG RMK PP000"}, "geometry": {"type": "Point", "coordinates": [-71.568, -16.341]}}, {"type": "Feature", "properties": {"id": "SPSO", "site": "Pisco Intl Arpt", "prior": "3", "obsTime": "2018-09-20T19:00:00Z", "temp": 18.0, "dewp": 14.0, "wspd": 6, "wdir": 290, "ceil": 23, "cover": "OVC", "visib": 6.21, "fltcat": "MVFR", "altim": 1012.0, "rawOb": "SPSO 201900Z 29006KT 9999 SCT020 OVC023 18/14 Q1012 RMK BIRD HAZARD RWY 22/04 PP000"}, "geometry": {"type": "Point", "coordinates": [-76.219, -13.743]}}, {"type": "Feature", "properties": {"id": "SECU", "site": "Cuenca/Lamar Intl", "prior": "3", "obsTime": "2018-09-20T20:00:00Z", "temp": 19.0, "dewp": 7.0, "wspd": 12, "wdir": 50, "ceil": 40, "cover": "BKN", "visib": 6.21, "fltcat": "VFR", "altim": 1023.0, "wx": "VCSH", "rawOb": "SECU 202000Z 05012KT 9999 VCSH BKN040 19/07 Q1023"}, "geometry": {"type": "Point", "coordinates": [-78.983, -2.889]}}, {"type": "Feature", "properties": {"id": "MGHT", "site": "Huehuetenango Arpt", "prior": "3", "obsTime": "2018-09-20T20:00:00Z", "temp": 26.0, "dewp": 13.0, "wspd": 10, "wdir": 120, "cover": "SCT", "visib": 6.21, "fltcat": "VFR", "rawOb": "MGHT 202000Z 12010KT 9999 SCT028TCU SCT200 26/13 TCU N/NE/SE"}, "geometry": {"type": "Point", "coordinates": [-91.505, 15.317]}}, {"type": "Feature", "properties": {"id": "TLPL", "site": "Hewanorra Intl", "prior": "3", "obsTime": "2018-09-20T20:00:00Z", "temp": 30.0, "dewp": 24.0, "wspd": 18, "wdir": 90, "cover": "FEW", "visib": 6.21, "fltcat": "VFR", "altim": 1013.0, "rawOb": "TLPL 202000Z 09018KT 9999 FEW029 30/24 Q1013 NOSIG"}, "geometry": {"type": "Point", "coordinates": [-60.951, 13.734]}}, {"type": "Feature", "properties": {"id": "SAOC", "site": "Rio Cuarto Arpt", "prior": "3", "obsTime": "2018-09-20T20:00:00Z", "temp": 25.0, "dewp": -4.0, "wspd": 25, "wdir": 360, "cover": "CLR", "visib": 6.21, "fltcat": "VFR", "altim": 1009.0, "rawOb": "SAOC 202000Z 36025KT 9999 NSC 25/M04 Q1009"}, "geometry": {"type": "Point", "coordinates": [-64.271, -33.093]}}, {"type": "Feature", "properties": {"id": "SCIC", "site": "Curico/General Frie?", "prior": "3", "obsTime": "2018-09-20T20:00:00Z", "temp": 15.0, "dewp": 9.0, "wspd": 4, "wdir": 300, "cover": "CLR", "visib": 4.97, "fltcat": "MVFR", "altim": 1018.0, "rawOb": "SCIC 202000Z 30004KT 270V340 8000 NSC 15/09 Q1018"}, "geometry": {"type": "Point", "coordinates": [-71.23, -34.97]}}, {"type": "Feature", "properties": {"id": "MGPB", "site": "Puerto Barrios Arpt", "prior": "3", "obsTime": "2018-09-20T20:00:00Z", "temp": 31.0, "dewp": 25.0, "wspd": 8, "wdir": 360, "ceil": 200, "cover": "BKN", "visib": 6.21, "fltcat": "VFR", "altim": 1010.0, "rawOb": "MGPB 202000Z 36008KT 9999 FEW020TCU BKN200 31/25 Q1010 A2983 TCU N"}, "geometry": {"type": "Point", "coordinates": [-88.586, 15.733]}}, {"type": "Feature", "properties": {"id": "TNCA", "site": "Aruba/Beatrix Intl", "prior": "3", "obsTime": "2018-09-20T20:00:00Z", "temp": 31.0, "dewp": 25.0, "wspd": 22, "wdir": 100, "cover": "SCT", "visib": 6.21, "fltcat": "VFR", "altim": 1008.0, "rawOb": "TNCA 202000Z 10022KT 9999 SCT022 31/25 Q1008 NOSIG"}, "geometry": {"type": "Point", "coordinates": [-70.014, 12.501]}}, {"type": "Feature", "properties": {"id": "SAWE", "site": "Rio Grande/Quijada I", "prior": "3", "obsTime": "2018-09-20T19:00:00Z", "temp": 5.0, "dewp": 1.0, "wspd": 8, "wdir": 70, "cover": "SCT", "visib": 6.21, "fltcat": "VFR", "altim": 1003.0, "rawOb": "SAWE 201900Z 07008KT 9999 FEW015 SCT020 05/01 Q1003"}, "geometry": {"type": "Point", "coordinates": [-67.753, -53.777]}}, {"type": "Feature", "properties": {"id": "SEMT", "site": "Manta/Alfaro Intl", "prior": "3", "obsTime": "2018-09-20T20:00:00Z", "temp": 26.0, "dewp": 22.0, "wspd": 7, "wdir": 250, "ceil": 20, "cover": "OVC", "visib": 6.21, "fltcat": "MVFR", "altim": 1008.0, "rawOb": "SEMT 202000Z 25007KT 9999 OVC020 26/22 Q1008 RMK A2977"}, "geometry": {"type": "Point", "coordinates": [-80.679, -0.946]}}, {"type": "Feature", "properties": {"id": "SCVD", "site": "Valdivia Arpt", "prior": "3", "obsTime": "2018-09-20T20:00:00Z", "temp": 13.0, "dewp": 10.0, "wspd": 11, "wdir": 330, "ceil": 21, "cover": "OVC", "visib": 4.97, "fltcat": "MVFR", "altim": 1009.0, "wx": "-RA", "rawOb": "SCVD 202000Z 33011KT 300V020 8000 -RA OVC021 13/10 Q1009"}, "geometry": {"type": "Point", "coordinates": [-73.086, -39.65]}}, {"type": "Feature", "properties": {"id": "MHLC", "site": "La Ceiba/Goloson Int", "prior": "3", "obsTime": "2018-09-20T20:00:00Z", "temp": 32.0, "dewp": 26.0, "wspd": 14, "wdir": 60, "ceil": 200, "cover": "BKN", "visib": 6.21, "fltcat": "VFR", "altim": 1010.0, "rawOb": "MHLC 202000Z 06014KT 9999 SCT024CB BKN200 32/26 Q1010 A2982 NOSIG"}, "geometry": {"type": "Point", "coordinates": [-86.85, 15.744]}}, {"type": "Feature", "properties": {"id": "MRLB", "site": "Liberia/Oduber Intl", "prior": "3", "obsTime": "2018-09-20T20:00:00Z", "temp": 27.0, "dewp": 24.0, "wspd": 4, "wdir": 170, "ceil": 140, "cover": "BKN", "visib": 6.21, "fltcat": "VFR", "altim": 1007.9, "rawOb": "MRLB 202000Z 17004KT 9999 FEW045 BKN140 27/24 A2976 NOSIG"}, "geometry": {"type": "Point", "coordinates": [-85.545, 10.592]}}, {"type": "Feature", "properties": {"id": "SKBG", "site": "Bucaramango/Palonegr", "prior": "3", "obsTime": "2018-09-20T20:00:00Z", "temp": 27.0, "dewp": 20.0, "wspd": 8, "wdir": 320, "cover": "SCT", "visib": 6.21, "fltcat": "VFR", "altim": 1011.3, "rawOb": "SKBG 202000Z 32008KT 9999 FEW015 SCT240 27/20 A2986 WS R35"}, "geometry": {"type": "Point", "coordinates": [-73.184, 7.126]}}, {"type": "Feature", "properties": {"id": "TISX", "site": "St Croix/Rohlsen Arp", "prior": "3", "obsTime": "2018-09-20T19:53:00Z", "temp": 32.2, "dewp": 24.4, "wspd": 11, "wdir": 100, "cover": "SCT", "visib": 6.0, "fltcat": "VFR", "altim": 1015.3, "slp": 1014.9, "wx": "HZ", "rawOb": "TISX 201953Z 10011KT 6SM HZ SCT036 32/24 A2998 RMK AO2 SLP149 T03220244"}, "geometry": {"type": "Point", "coordinates": [-64.799, 17.702]}}, {"type": "Feature", "properties": {"id": "MHRO", "site": "Roatan/Galvez Intl", "prior": "3", "obsTime": "2018-09-20T20:00:00Z", "temp": 29.0, "dewp": 26.0, "wspd": 11, "wdir": 80, "ceil": 70, "cover": "BKN", "visib": 6.21, "fltcat": "VFR", "altim": 1010.0, "rawOb": "MHRO 202000Z 08011KT 9999 SCT018CB BKN070 29/26 Q1010 A2983 RERA NOSIG"}, "geometry": {"type": "Point", "coordinates": [-86.522, 16.317]}}, {"type": "Feature", "properties": {"id": "TJBQ", "site": "Aquadilla/Hernandez", "prior": "3", "obsTime": "2018-09-20T19:50:00Z", "temp": 30.0, "wspd": 11, "wdir": 90, "cover": "CLR", "visib": 5.0, "fltcat": "MVFR", "altim": 1015.3, "wx": "HZ", "rawOb": "TJBQ 201950Z 09011KT 5SM HZ CLR 30/ A2998 RMK LTG DSNT W"}, "geometry": {"type": "Point", "coordinates": [-67.13, 18.495]}}, {"type": "Feature", "properties": {"id": "TVSA", "site": "Argyle", "prior": "3", "obsTime": "2018-09-20T19:00:00Z", "temp": 29.0, "dewp": 25.0, "wspd": 13, "wdir": 70, "ceil": 18, "cover": "BKN", "visib": 3.11, "fltcat": "MVFR", "altim": 1012.0, "wx": "HZ -SHRA", "rawOb": "TVSA 201900Z 07013KT 5000 HZ -SHRA BKN018 29/25 Q1012 TEMPO SHRA "}, "geometry": {"type": "Point", "coordinates": [-61.149, 13.161]}}, {"type": "Feature", "properties": {"id": "SKNV", "site": "Neiva/Salas Arpt", "prior": "3", "obsTime": "2018-09-20T19:00:00Z", "temp": 36.0, "dewp": 13.0, "wspd": 5, "wdir": 0, "cover": "SCT", "visib": 6.21, "fltcat": "VFR", "altim": 1007.5, "rawOb": "SKNV 201900Z VRB05KT 9999 SCT045 36/13 A2975"}, "geometry": {"type": "Point", "coordinates": [-75.294, 2.949]}}, {"type": "Feature", "properties": {"id": "SPJL", "site": "Juliaca Arpt", "prior": "3", "obsTime": "2018-09-20T20:00:00Z", "temp": 19.0, "dewp": -15.0, "wspd": 3, "wdir": 0, "cover": "FEW", "visib": 6.21, "fltcat": "VFR", "altim": 1030.0, "rawOb": "SPJL 202000Z VRB03KT 9999 FEW015 19/M15 Q1030 RMK PP000"}, "geometry": {"type": "Point", "coordinates": [-70.156, -15.468]}}, {"type": "Feature", "properties": {"id": "SKMR", "site": "Monteria/Jeronimo Ar", "prior": "3", "obsTime": "2018-09-20T19:00:00Z", "temp": 32.0, "dewp": 24.0, "wspd": 5, "wdir": 60, "cover": "SCT", "visib": 6.21, "fltcat": "VFR", "altim": 1006.5, "rawOb": "SKMR 201900Z 06005KT 9999 FEW012 SCT140 32/24 A2972"}, "geometry": {"type": "Point", "coordinates": [-75.826, 8.823]}}, {"type": "Feature", "properties": {"id": "SBYS", "site": "Pirassununga/Fontene", "prior": "3", "obsTime": "2018-09-20T19:00:00Z", "temp": 22.0, "dewp": 18.0, "wspd": 4, "wdir": 170, "ceil": 80, "cover": "BKN", "visib": 6.21, "fltcat": "VFR", "altim": 1016.0, "rawOb": "SBYS 201900Z 17004KT 9999 SCT040 BKN080 22/18 Q1016"}, "geometry": {"type": "Point", "coordinates": [-47.334, -21.985]}}, {"type": "Feature", "properties": {"id": "SBSM", "site": "Santa Maria Arpt", "prior": "3", "obsTime": "2018-09-20T19:00:00Z", "temp": 23.0, "dewp": 16.0, "wspd": 11, "wdir": 110, "cover": "CAVOK", "visib": 6.21, "fltcat": "VFR", "altim": 1013.0, "rawOb": "SBSM 201900Z 11011KT CAVOK 23/16 Q1013"}, "geometry": {"type": "Point", "coordinates": [-53.689, -29.711]}}, {"type": "Feature", "properties": {"id": "SLTR", "site": "Trinidad/Arauz Arpt", "prior": "3", "obsTime": "2018-09-20T19:00:00Z", "temp": 36.0, "dewp": 23.0, "wspd": 10, "wdir": 320, "cover": "SCT", "visib": 6.21, "fltcat": "VFR", "altim": 1007.0, "rawOb": "SLTR 201900Z 32010KT 9999 FEW020 FEW023CB SCT200 36/23 Q1007"}, "geometry": {"type": "Point", "coordinates": [-64.917, -14.819]}}, {"type": "Feature", "properties": {"id": "SVVA", "site": "Valencia Intl", "prior": "3", "obsTime": "2018-09-20T20:00:00Z", "temp": 31.0, "dewp": 21.0, "ceil": 16, "cover": "BKN", "visib": 6.21, "fltcat": "MVFR", "altim": 1011.0, "rawOb": "SVVA 202000Z /////KT 9999 FEW013E BKN016 31/21 Q1011"}, "geometry": {"type": "Point", "coordinates": [-67.931, 10.15]}}, {"type": "Feature", "properties": {"id": "SKUI", "site": "Quibdo/El Carano Arp", "prior": "3", "obsTime": "2018-09-20T19:00:00Z", "temp": 32.0, "dewp": 23.0, "wspd": 0, "wdir": 0, "ceil": 30, "cover": "BKN", "visib": 6.21, "fltcat": "MVFR", "altim": 1006.2, "rawOb": "SKUI 201900Z 00000KT 9999 BKN030 32/23 A2971"}, "geometry": {"type": "Point", "coordinates": [-76.641, 5.691]}}, {"type": "Feature", "properties": {"id": "SKVP", "site": "Valledupar/Pumerejo", "prior": "3", "obsTime": "2018-09-20T19:00:00Z", "temp": 33.0, "dewp": 25.0, "wspd": 8, "wdir": 80, "cover": "SCT", "visib": 6.21, "fltcat": "VFR", "altim": 1008.2, "rawOb": "SKVP 201900Z 08008KT 9999 FEW020 SCT200 33/25 A2977"}, "geometry": {"type": "Point", "coordinates": [-73.249, 10.435]}}, {"type": "Feature", "properties": {"id": "SPHO", "site": "Ayacucho/Corone Arpt", "prior": "3", "obsTime": "2018-09-20T20:00:00Z", "temp": 27.0, "dewp": 8.0, "wspd": 9, "wdir": 320, "cover": "FEW", "visib": 6.21, "fltcat": "VFR", "altim": 1022.0, "rawOb": "SPHO 202000Z 32009KT 250V360 9999 FEW050 FEW055TCU 27/08 Q1022 RMK PP000"}, "geometry": {"type": "Point", "coordinates": [-74.205, -13.156]}}, {"type": "Feature", "properties": {"id": "SLSI", "site": "San Ignacio de Velas", "prior": "3", "obsTime": "2018-09-20T19:00:00Z", "temp": 36.0, "dewp": 20.0, "wspd": 6, "wdir": 320, "cover": "SCT", "visib": 6.21, "fltcat": "VFR", "altim": 1009.0, "rawOb": "SLSI 201900Z 32006KT 9999 SCT020 36/20 Q1009"}, "geometry": {"type": "Point", "coordinates": [-60.963, -16.385]}}, {"type": "Feature", "properties": {"id": "SBHT", "site": "Altamira Arpt", "prior": "3", "obsTime": "2018-09-20T19:00:00Z", "temp": 34.0, "dewp": 24.0, "wspd": 4, "wdir": 100, "cover": "SCT", "visib": 6.21, "fltcat": "VFR", "altim": 1009.0, "rawOb": "SBHT 201900Z 10004KT 9999 SCT030 34/24 Q1009"}, "geometry": {"type": "Point", "coordinates": [-52.255, -3.254]}}, {"type": "Feature", "properties": {"id": "SLCA", "site": "Camiri Arpt", "prior": "3", "obsTime": "2018-09-20T19:00:00Z", "temp": 32.0, "dewp": 15.0, "wspd": 5, "wdir": 180, "cover": "SCT", "visib": 6.21, "fltcat": "VFR", "altim": 1011.0, "rawOb": "SLCA 201900Z 18005KT 9999 SCT033 32/15 Q1011"}, "geometry": {"type": "Point", "coordinates": [-63.527, -20.007]}}, {"type": "Feature", "properties": {"id": "SLRB", "site": "Robore Arpt", "prior": "3", "obsTime": "2018-09-20T19:00:00Z", "temp": 35.0, "dewp": 21.0, "wspd": 15, "wgst": 25, "wdir": 360, "cover": "SCT", "visib": 6.21, "fltcat": "VFR", "altim": 1009.0, "rawOb": "SLRB 201900Z 36015G25KT 9999 SCT020 35/21 Q1009"}, "geometry": {"type": "Point", "coordinates": [-59.766, -18.328]}}, {"type": "Feature", "properties": {"id": "SLMG", "site": "Magdalena Arpt", "prior": "3", "obsTime": "2018-09-20T19:00:00Z", "temp": 35.0, "dewp": 22.0, "wspd": 0, "wdir": 0, "ceil": 200, "cover": "BKN", "visib": 6.21, "fltcat": "VFR", "altim": 1009.0, "rawOb": "SLMG 201900Z 00000KT 9999 SCT017 BKN200 35/22 Q1009"}, "geometry": {"type": "Point", "coordinates": [-64.061, -13.26]}}, {"type": "Feature", "properties": {"id": "MDBH", "site": "Barahona/Montez Intl", "prior": "3", "obsTime": "2018-09-20T20:00:00Z", "temp": 26.0, "dewp": 24.0, "wspd": 6, "wdir": 130, "ceil": 70, "cover": "OVC", "visib": 4.35, "fltcat": "MVFR", "altim": 1015.0, "wx": "-RA DS", "rawOb": "MDBH 202000Z 13006KT 7000 -RA SCT014CB SCT014 OVC070 26/24 Q1015 CB/ALL QDS"}, "geometry": {"type": "Point", "coordinates": [-71.12, 18.252]}}, {"type": "Feature", "properties": {"id": "MGSJ", "site": "San Jose Arpt", "prior": "3", "obsTime": "2018-09-20T20:00:00Z", "temp": 33.0, "dewp": 24.0, "wspd": 10, "wdir": 200, "cover": "SCT", "visib": 6.21, "fltcat": "VFR", "altim": 1008.0, "wx": "TS TS", "rawOb": "MGSJ 202000Z 20010KT 9999 TS SCT028CB SCT200 33/24 Q1008 A2977 CB/TS/PCPN E CB SMC N"}, "geometry": {"type": "Point", "coordinates": [-90.836, 13.936]}}, {"type": "Feature", "properties": {"id": "MRLM", "site": "Limon Intl", "prior": "3", "obsTime": "2018-09-20T20:00:00Z", "wspd": 7, "wdir": 10, "ceil": 220, "cover": "OVC", "visib": 6.21, "fltcat": "VFR", "altim": 1007.2, "rawOb": "MRLM 202000Z 01007KT 9999 FEW020 OVC220 ///// A2974"}, "geometry": {"type": "Point", "coordinates": [-83.024, 9.961]}}, {"type": "Feature", "properties": {"id": "MGRT", "site": "Retalhuleu Arpt", "prior": "3", "obsTime": "2018-09-20T20:00:00Z", "temp": 34.0, "dewp": 23.0, "wspd": 8, "wdir": 240, "cover": "FEW", "visib": 6.21, "fltcat": "VFR", "altim": 1011.0, "wx": "SA", "rawOb": "MGRT 202000Z 24008KT 9999 FEW020 FEW025CB 34/23 Q1011 A2985 CB N/E VOL. STA. MARIA Y SANTIAGUITO EN ACTIVIDAD"}, "geometry": {"type": "Point", "coordinates": [-91.695, 14.523]}}, {"type": "Feature", "properties": {"id": "SLRY", "site": "Reyes Arpt", "prior": "3", "obsTime": "2018-09-20T19:00:00Z", "temp": 32.0, "dewp": 24.0, "wspd": 10, "wdir": 340, "ceil": 200, "cover": "BKN", "visib": 6.21, "fltcat": "VFR", "altim": 1011.0, "rawOb": "SLRY 201900Z 34010KT 9999 FEW020 BKN200 32/24 Q1011"}, "geometry": {"type": "Point", "coordinates": [-67.354, -14.306]}}, {"type": "Feature", "properties": {"id": "MGCB", "site": "Coban Arpt", "prior": "3", "obsTime": "2018-09-20T20:00:00Z", "temp": 25.0, "dewp": 19.0, "wspd": 4, "wdir": 20, "cover": "SCT", "visib": 6.21, "fltcat": "VFR", "rawOb": "MGCB 202000Z 02004KT 9999 SCT018 25/19 QFE869.7"}, "geometry": {"type": "Point", "coordinates": [-90.407, 15.469]}}, {"type": "Feature", "properties": {"id": "SETN", "site": "Tachina/Rivadeneira", "prior": "3", "obsTime": "2018-09-20T20:00:00Z", "temp": 29.0, "dewp": 24.0, "wspd": 7, "wdir": 210, "ceil": 100, "cover": "BKN", "visib": 6.21, "fltcat": "VFR", "altim": 1006.0, "rawOb": "SETN 202000Z 21007KT 9999 SCT026 BKN100 29/24 Q1006 A2972"}, "geometry": {"type": "Point", "coordinates": [-79.627, 0.978]}}, {"type": "Feature", "properties": {"id": "SLCP", "site": "Concepcion Arpt", "prior": "3", "obsTime": "2018-09-20T19:00:00Z", "temp": 33.0, "dewp": 24.0, "wspd": 18, "wdir": 330, "ceil": 200, "cover": "BKN", "visib": 6.21, "fltcat": "VFR", "altim": 1012.0, "rawOb": "SLCP 201900Z 33018KT 9999 SCT017 FEW027CB BKN200 33/24 Q1012"}, "geometry": {"type": "Point", "coordinates": [-62.027, -16.143]}}, {"type": "Feature", "properties": {"id": "SBBQ", "site": "Barbacena Arpt", "prior": "3", "obsTime": "2018-09-20T19:00:00Z", "temp": 20.0, "dewp": 17.0, "wspd": 6, "wdir": 10, "ceil": 100, "cover": "BKN", "visib": 3.73, "fltcat": "MVFR", "altim": 1022.0, "wx": "-RA", "rawOb": "SBBQ 201900Z 01006KT 6000 -RA SCT020 BKN100 20/17 Q1022"}, "geometry": {"type": "Point", "coordinates": [-43.761, -21.266]}}, {"type": "Feature", "properties": {"id": "SPTU", "site": "Puerto Maldonad Arpt", "prior": "3", "obsTime": "2018-09-20T20:00:00Z", "temp": 27.0, "dewp": 23.0, "wspd": 7, "wdir": 180, "cover": "CAVOK", "visib": 6.21, "fltcat": "VFR", "altim": 1006.0, "rawOb": "SPTU 202000Z 18007KT CAVOK 27/23 Q1006 RMK BKN100 BIRD HAZARD RWY 01/19 PP000"}, "geometry": {"type": "Point", "coordinates": [-69.229, -12.617]}}, {"type": "Feature", "properties": {"id": "SECO", "site": "Francisco de Orellan", "prior": "3", "obsTime": "2018-09-20T20:00:00Z", "temp": 33.0, "dewp": 22.0, "wspd": 4, "wdir": 170, "ceil": 30, "cover": "BKN", "visib": 6.21, "fltcat": "MVFR", "altim": 1008.0, "rawOb": "SECO 202000Z 17004KT 9999 BKN030 33/22 Q1008 RMK A2979"}, "geometry": {"type": "Point", "coordinates": [-76.988, -0.461]}}, {"type": "Feature", "properties": {"id": "SBGW", "site": "Guaratingueta Arpt", "prior": "3", "obsTime": "2018-09-20T19:00:00Z", "temp": 21.0, "dewp": 18.0, "wspd": 2, "wdir": 300, "ceil": 80, "cover": "OVC", "visib": 4.97, "fltcat": "MVFR", "altim": 1017.0, "wx": "-RA", "rawOb": "SBGW 201900Z 30002KT 8000 -RA FEW008 SCT025 OVC080 21/18 Q1017"}, "geometry": {"type": "Point", "coordinates": [-45.205, -22.791]}}, {"type": "Feature", "properties": {"id": "TRPG", "site": "Monserrat/Geralds Ar", "prior": "3", "obsTime": "2018-09-20T20:00:00Z", "temp": 29.0, "dewp": 25.0, "wspd": 11, "wdir": 100, "cover": "SCT", "visib": 6.21, "fltcat": "VFR", "altim": 1015.0, "rawOb": "TRPG 202000Z 10011KT 9999 SCT017 29/25 Q1015"}, "geometry": {"type": "Point", "coordinates": [-62.194, 16.791]}}, {"type": "Feature", "properties": {"id": "SECA", "site": "Ciudad de Catamayo", "prior": "3", "obsTime": "2018-09-20T20:00:00Z", "temp": 29.0, "dewp": 11.0, "wspd": 6, "wdir": 110, "cover": "SCT", "visib": 6.21, "fltcat": "VFR", "altim": 1014.0, "rawOb": "SECA 202000Z 11006KT 9999 SCT040 29/11 Q1014"}, "geometry": {"type": "Point", "coordinates": [-79.372, -3.995]}}, {"type": "Feature", "properties": {"id": "SESM", "site": "Shell Mera/Amazonas", "prior": "3", "obsTime": "2018-09-20T20:00:00Z", "temp": 27.0, "dewp": 16.0, "wspd": 9, "wdir": 320, "ceil": 30, "cover": "BKN", "visib": 3.73, "fltcat": "MVFR", "altim": 1014.0, "wx": "-RA", "rawOb": "SESM 202000Z 32009KT 6000 -RA BKN030 27/16 Q1014 RMK A2997"}, "geometry": {"type": "Point", "coordinates": [-78.063, -1.505]}}, {"type": "Feature", "properties": {"id": "MHSR", "site": "Santa Rosa de Copan?", "prior": "3", "obsTime": "2018-09-20T20:00:00Z", "temp": 27.0, "dewp": 17.0, "wspd": 8, "wdir": 360, "ceil": 25, "cover": "BKN", "visib": 6.21, "fltcat": "MVFR", "wx": "HZ", "rawOb": "MHSR 202000Z 36008KT 9999 BKN025TCU SCT250 27/17 TCU ALL HZ"}, "geometry": {"type": "Point", "coordinates": [-88.78, 14.78]}}, {"type": "Feature", "properties": {"id": "MHLE", "site": "La Esperanza Arpt", "prior": "3", "obsTime": "2018-09-20T19:00:00Z", "temp": 21.0, "dewp": 16.0, "wspd": 6, "wdir": 80, "ceil": 22, "cover": "BKN", "visib": 6.21, "fltcat": "MVFR", "rawOb": "MHLE 201900Z 08006KT 9999 BKN022TCU 21/16 TCU ALL"}, "geometry": {"type": "Point", "coordinates": [-88.175, 14.291]}}, {"type": "Feature", "properties": {"id": "MPSM", "site": "Scarlett Martinez In", "prior": "3", "obsTime": "2018-09-20T20:00:00Z", "temp": 31.0, "dewp": 26.0, "cover": "SCT", "visib": 6.21, "fltcat": "VFR", "altim": 1006.0, "rawOb": "MPSM 202000Z 25004KT(E) 9999 FEW018TCU SCT090 31/26 Q1006"}, "geometry": {"type": "Point", "coordinates": [-80.13, 8.38]}}, {"type": "Feature", "properties": {"id": "MPBO", "site": "Bocas Del Toro Arpt", "prior": "3", "obsTime": "2018-09-20T20:00:00Z", "cover": "SCT", "visib": 6.21, "fltcat": "VFR", "altim": 1009.0, "rawOb": "MPBO 202000Z 01005KT(E) 9999 SCT020 SCT090//// Q1009"}, "geometry": {"type": "Point", "coordinates": [-82.252, 9.341]}}, {"type": "Feature", "properties": {"id": "SBSR", "site": "Sao Jose do Rio Pret", "prior": "3", "obsTime": "2018-09-20T19:00:00Z", "temp": 25.0, "dewp": 18.0, "wspd": 3, "wdir": 200, "cover": "SCT", "visib": 6.21, "fltcat": "VFR", "altim": 1015.0, "rawOb": "SBSR 201900Z 20003KT 9999 SCT020 SCT070 25/18 Q1015"}, "geometry": {"type": "Point", "coordinates": [-49.406, -20.816]}}, {"type": "Feature", "properties": {"id": "SBCJ", "site": "Carajas Arpt", "prior": "3", "obsTime": "2018-09-20T19:00:00Z", "temp": 29.0, "dewp": 19.0, "wspd": 2, "wdir": 120, "cover": "SCT", "visib": 6.21, "fltcat": "VFR", "altim": 1014.0, "rawOb": "SBCJ 201900Z 12002KT 9999 SCT033 29/19 Q1014"}, "geometry": {"type": "Point", "coordinates": [-50.003, -6.118]}}, {"type": "Feature", "properties": {"id": "SKPS", "site": "Pasto/Narino Arpt", "prior": "3", "obsTime": "2018-09-20T19:00:00Z", "temp": 26.0, "dewp": 8.0, "wspd": 21, "wgst": 36, "wdir": 110, "cover": "SCT", "visib": 6.21, "fltcat": "VFR", "altim": 1018.4, "rawOb": "SKPS 201900Z 11021G36KT 9999 SCT028 26/08 A3007"}, "geometry": {"type": "Point", "coordinates": [-77.291, 1.396]}}, {"type": "Feature", "properties": {"id": "SBQV", "site": "Vitoria da Conquista", "prior": "3", "obsTime": "2018-09-20T19:00:00Z", "temp": 28.0, "dewp": 12.0, "wspd": 9, "wdir": 70, "cover": "FEW", "visib": 6.21, "fltcat": "VFR", "altim": 1019.0, "rawOb": "SBQV 201900Z 07009KT 9999 FEW040 28/12 Q1019"}, "geometry": {"type": "Point", "coordinates": [-40.863, -14.863]}}, {"type": "Feature", "properties": {"id": "MHYR", "site": "Yoro Arpt?", "prior": "3", "obsTime": "2018-09-20T20:00:00Z", "temp": 30.0, "dewp": 22.0, "wspd": 4, "wdir": 50, "ceil": 80, "cover": "BKN", "visib": 6.21, "fltcat": "VFR", "wx": "HZ", "rawOb": "MHYR 202000Z 05004KT 9999 SCT025TCU BKN080 30/22 TCU ALL HZ"}, "geometry": {"type": "Point", "coordinates": [-87.14, 15.13]}}, {"type": "Feature", "properties": {"id": "MNJG", "site": "Jinotega", "prior": "3", "obsTime": "2018-09-20T19:00:00Z", "temp": 22.0, "dewp": 20.0, "wspd": 8, "wdir": 360, "ceil": 10, "cover": "OVC", "visib": 0.62, "fltcat": "LIFR", "altim": 1010.0, "wx": "RA", "rawOb": "MNJG 201900Z 36008KT 1000 RA OVC010 22/20 Q1010"}, "geometry": {"type": "Point", "coordinates": [-86.0, 13.09]}}, {"type": "Feature", "properties": {"id": "SBIZ", "site": "Imperatriz Arpt", "prior": "3", "obsTime": "2018-09-20T19:00:00Z", "temp": 36.0, "dewp": 18.0, "wspd": 2, "wdir": 340, "cover": "FEW", "visib": 6.21, "fltcat": "VFR", "altim": 1008.0, "rawOb": "SBIZ 201900Z 34002KT 9999 FEW025 36/18 Q1008"}, "geometry": {"type": "Point", "coordinates": [-47.46, -5.532]}}, {"type": "Feature", "properties": {"id": "MNRS", "site": "Rivas", "prior": "3", "obsTime": "2018-09-20T19:00:00Z", "temp": 25.0, "dewp": 24.0, "wspd": 0, "wdir": 0, "ceil": 12, "cover": "BKN", "visib": 4.97, "fltcat": "MVFR", "altim": 1008.0, "wx": "RA", "rawOb": "MNRS 201900Z 00000KT 8000 RA SCT010CB BKN012 25/24 Q1008 CB/4/C"}, "geometry": {"type": "Point", "coordinates": [-85.83, 11.42]}}, {"type": "Feature", "properties": {"id": "MNPC", "site": "Puerto Cabezas Arpt", "prior": "3", "obsTime": "2018-09-20T19:00:00Z", "temp": 31.0, "dewp": 26.0, "wspd": 12, "wdir": 90, "cover": "SCT", "visib": 3.73, "fltcat": "MVFR", "altim": 1009.0, "wx": "VCRA RA RA", "rawOb": "MNPC 201900Z 09012KT 6000 VCRA FEW014CB SCT016TCU 31/26 Q1009 CBRA/SW TCURA/W/NW"}, "geometry": {"type": "Point", "coordinates": [-83.387, 14.046]}}, {"type": "Feature", "properties": {"id": "SKRH", "site": "Riohacha/Padilla Arp", "prior": "3", "obsTime": "2018-09-20T19:00:00Z", "temp": 31.0, "dewp": 26.0, "wspd": 12, "wdir": 20, "cover": "SCT", "visib": 6.21, "fltcat": "VFR", "altim": 1006.5, "rawOb": "SKRH 201900Z 02012KT 9999 SCT020TCU 31/26 A2972 RMK TCU/S"}, "geometry": {"type": "Point", "coordinates": [-72.926, 11.526]}}, {"type": "Feature", "properties": {"id": "SCNT", "site": "Puerta Natales/Galla", "prior": "3", "obsTime": "2018-09-20T20:00:00Z", "temp": 5.0, "dewp": -1.0, "wspd": 17, "wdir": 70, "ceil": 100, "cover": "OVC", "visib": 6.21, "fltcat": "VFR", "altim": 1000.0, "rawOb": "SCNT 202000Z 07017KT 9999 SCT040 OVC100 05/M01 Q1000"}, "geometry": {"type": "Point", "coordinates": [-72.53, -51.67]}}, {"type": "Feature", "properties": {"id": "SBPK", "site": "Pelotas Arpt", "prior": "3", "obsTime": "2018-09-20T19:00:00Z", "temp": 21.0, "dewp": 10.0, "wspd": 9, "wdir": 100, "cover": "FEW", "visib": 6.21, "fltcat": "VFR", "altim": 1016.0, "rawOb": "SBPK 201900Z 10009KT 9999 FEW040 21/10 Q1016"}, "geometry": {"type": "Point", "coordinates": [-52.328, -31.718]}}, {"type": "Feature", "properties": {"id": "SKUC", "site": "Arauca/Perez Arpt", "prior": "3", "obsTime": "2018-09-20T19:00:00Z", "temp": 23.0, "dewp": 23.0, "wspd": 4, "wdir": 110, "cover": "SCT", "visib": 6.21, "fltcat": "VFR", "altim": 1010.2, "rawOb": "SKUC 201900Z 11004KT 9999 SCT015 23/23 A2983"}, "geometry": {"type": "Point", "coordinates": [-70.736, 7.069]}}, {"type": "Feature", "properties": {"id": "MHAM", "site": "Amapala/Los Pelonas?", "prior": "3", "obsTime": "2018-09-20T20:00:00Z", "temp": 34.0, "dewp": 26.0, "wspd": 6, "wdir": 230, "ceil": 250, "cover": "BKN", "visib": 6.21, "fltcat": "VFR", "rawOb": "MHAM 202000Z 23006KT 9999 FEW032CB BKN250 34/26 CB NE E NW"}, "geometry": {"type": "Point", "coordinates": [-87.65, 13.267]}}, {"type": "Feature", "properties": {"id": "MNCH", "site": "Chinandega Arpt", "prior": "3", "obsTime": "2018-09-20T19:00:00Z", "temp": 31.0, "dewp": 25.0, "wspd": 6, "wdir": 200, "cover": "SCT", "visib": 6.21, "fltcat": "VFR", "altim": 1008.0, "rawOb": "MNCH 201900Z 20006KT 9999 SCT025TCU SCT090 31/25 Q1008 TCU/NE/SE"}, "geometry": {"type": "Point", "coordinates": [-87.138, 12.64]}}, {"type": "Feature", "properties": {"id": "SBPB", "site": "Parnaiba/Filho Intl", "prior": "3", "obsTime": "2018-09-20T19:00:00Z", "temp": 30.0, "dewp": 20.0, "wspd": 18, "wdir": 80, "cover": "CAVOK", "visib": 6.21, "fltcat": "VFR", "altim": 1009.0, "rawOb": "SBPB 201900Z 08018KT CAVOK 30/20 Q1009"}, "geometry": {"type": "Point", "coordinates": [-41.729, -2.892]}}, {"type": "Feature", "properties": {"id": "TDCF", "site": "Canefield Arpt", "prior": "3", "obsTime": "2018-09-20T19:00:00Z", "temp": 32.0, "dewp": 21.0, "wspd": 7, "wdir": 110, "cover": "FEW", "visib": 6.21, "fltcat": "VFR", "altim": 1012.0, "rawOb": "TDCF 201900Z 11007KT 9999 FEW022 32/21 Q1012"}, "geometry": {"type": "Point", "coordinates": [-61.392, 15.337]}}, {"type": "Feature", "properties": {"id": "SLOR", "site": "Oruro/Mendoza Arpt", "prior": "3", "obsTime": "2018-09-20T19:00:00Z", "temp": 21.0, "dewp": 6.0, "wspd": 6, "wdir": 310, "cover": "FEW", "visib": 6.21, "fltcat": "VFR", "altim": 1032.0, "rawOb": "SLOR 201900Z 31006KT 9999 FEW023 FEW025CB 21/06 Q1032"}, "geometry": {"type": "Point", "coordinates": [-67.076, -17.962]}}, {"type": "Feature", "properties": {"id": "SPYL", "site": "Talara/Anas Arpt", "prior": "3", "obsTime": "2018-09-20T20:00:00Z", "temp": 24.0, "dewp": 18.0, "wspd": 13, "wdir": 190, "cover": "CAVOK", "visib": 6.21, "fltcat": "VFR", "altim": 1009.0, "rawOb": "SPYL 202000Z 19013KT CAVOK 24/18 Q1009 RMK BIRD HAZARD RWY 17/35 PP000"}, "geometry": {"type": "Point", "coordinates": [-81.254, -4.575]}}, {"type": "Feature", "properties": {"id": "SBCC", "site": "Cachimbo Arpt(AB)", "prior": "3", "obsTime": "2018-09-20T19:00:00Z", "temp": 32.0, "dewp": 17.0, "wspd": 11, "wdir": 80, "ceil": 45, "cover": "BKN", "visib": 6.21, "fltcat": "VFR", "altim": 1011.0, "wx": "TS", "rawOb": "SBCC 201900Z 08011KT 9999 TS BKN045 FEW048CB SCT100 32/17 Q1011"}, "geometry": {"type": "Point", "coordinates": [-54.965, -9.334]}}, {"type": "Feature", "properties": {"id": "SLJE", "site": "San Jose de Chiquito", "prior": "3", "obsTime": "2018-09-20T19:00:00Z", "temp": 37.0, "dewp": 20.0, "wspd": 14, "wdir": 360, "ceil": 17, "cover": "BKN", "visib": 6.21, "fltcat": "MVFR", "altim": 1010.0, "rawOb": "SLJE 201900Z 36014KT 9999 BKN017 FEW027CB 37/20 Q1010"}, "geometry": {"type": "Point", "coordinates": [-60.743, -17.833]}}, {"type": "Feature", "properties": {"id": "SBIP", "site": "Ipatinga/Usiminas", "prior": "3", "obsTime": "2018-09-20T19:00:00Z", "temp": 30.0, "dewp": 23.0, "wspd": 5, "wdir": 180, "ceil": 40, "cover": "BKN", "visib": 6.21, "fltcat": "VFR", "altim": 1014.0, "rawOb": "SBIP 201900Z 18005KT 9999 SCT025 BKN040 BKN090 30/23 Q1014"}, "geometry": {"type": "Point", "coordinates": [-42.487, -19.471]}}, {"type": "Feature", "properties": {"id": "SBME", "site": "Macae Arpt", "prior": "3", "obsTime": "2018-09-20T19:00:00Z", "temp": 27.0, "dewp": 24.0, "wspd": 8, "wdir": 90, "cover": "FEW", "visib": 6.21, "fltcat": "VFR", "altim": 1012.0, "rawOb": "SBME 201900Z 09008KT 9999 FEW030 27/24 Q1012"}, "geometry": {"type": "Point", "coordinates": [-41.766, -22.344]}}, {"type": "Feature", "properties": {"id": "SPGM", "site": "Tingo Maria Arpt", "prior": "3", "obsTime": "2018-09-20T20:00:00Z", "temp": 32.0, "dewp": 21.0, "wspd": 5, "wdir": 360, "cover": "FEW", "visib": 6.21, "fltcat": "VFR", "altim": 1011.0, "rawOb": "SPGM 202000Z 36005KT 9999 FEW040 32/21 Q1011 RMK BIRD HAZARD RWY 19 PP000"}, "geometry": {"type": "Point", "coordinates": [-76.005, -9.292]}}, {"type": "Feature", "properties": {"id": "SLVM", "site": "Villamontes/Pabon Ar", "prior": "3", "obsTime": "2018-09-20T19:00:00Z", "temp": 30.0, "dewp": 17.0, "wspd": 7, "wdir": 180, "ceil": 70, "cover": "BKN", "visib": 6.21, "fltcat": "VFR", "altim": 1010.0, "rawOb": "SLVM 201900Z 18007KT 9999 BKN070 30/17 Q1010"}, "geometry": {"type": "Point", "coordinates": [-63.405, -21.257]}}, {"type": "Feature", "properties": {"id": "SBTU", "site": "Tucurui Arpt", "prior": "3", "obsTime": "2018-09-20T19:00:00Z", "temp": 31.0, "dewp": 22.0, "wspd": 2, "wdir": 150, "cover": "SCT", "visib": 6.21, "fltcat": "VFR", "altim": 1012.0, "rawOb": "SBTU 201900Z 15002KT 9999 SCT027 FEW030TCU 31/22 Q1012"}, "geometry": {"type": "Point", "coordinates": [-49.721, -3.786]}}, {"type": "Feature", "properties": {"id": "SBLB", "site": "Patform P-25(OIL)", "prior": "3", "obsTime": "2018-09-20T19:00:00Z", "temp": 25.0, "dewp": 24.0, "ceil": 80, "cover": "BKN", "visib": 6.21, "fltcat": "VFR", "altim": 1015.0, "rawOb": "SBLB 201900Z /////KT 9999 SCT030 BKN080 25/24 Q1015 W///S5"}, "geometry": {"type": "Point", "coordinates": [-39.92, -22.11]}}, {"type": "Feature", "properties": {"id": "SBLE", "site": "Chapada/Diamantina", "prior": "3", "obsTime": "2018-09-20T19:00:00Z", "temp": 32.0, "dewp": 13.0, "wspd": 9, "wdir": 10, "cover": "CAVOK", "visib": 6.21, "fltcat": "VFR", "altim": 1016.0, "rawOb": "SBLE 201900Z 01009KT CAVOK 32/13 Q1016"}, "geometry": {"type": "Point", "coordinates": [-41.277, -12.482]}}, {"type": "Feature", "properties": {"id": "SBIH", "site": "Itaituba Arpt", "prior": "3", "obsTime": "2018-09-20T19:00:00Z", "temp": 35.0, "dewp": 23.0, "wspd": 8, "wdir": 90, "cover": "FEW", "visib": 6.21, "fltcat": "VFR", "altim": 1008.0, "rawOb": "SBIH 201900Z 09008KT 9999 FEW027 35/23 Q1008"}, "geometry": {"type": "Point", "coordinates": [-56.001, -4.243]}}, {"type": "Feature", "properties": {"id": "SBOI", "site": "Oiapoque Arpt", "prior": "3", "obsTime": "2018-09-20T19:00:00Z", "temp": 33.0, "dewp": 22.0, "wspd": 6, "wdir": 150, "cover": "SCT", "visib": 6.21, "fltcat": "VFR", "altim": 1010.0, "rawOb": "SBOI 201900Z 15006KT 9999 SCT030 33/22 Q1010"}, "geometry": {"type": "Point", "coordinates": [-51.797, 3.854]}}, {"type": "Feature", "properties": {"id": "SBCH", "site": "Chapeco Arpt", "prior": "3", "obsTime": "2018-09-20T19:00:00Z", "temp": 24.0, "dewp": 15.0, "wspd": 6, "wdir": 290, "cover": "SCT", "visib": 6.21, "fltcat": "VFR", "altim": 1015.0, "rawOb": "SBCH 201900Z 29006KT 9999 FEW020 SCT100 24/15 Q1015"}, "geometry": {"type": "Point", "coordinates": [-52.656, -27.134]}}, {"type": "Feature", "properties": {"id": "SBBU", "site": "Bauru Arpt", "prior": "3", "obsTime": "2018-09-20T19:00:00Z", "temp": 22.0, "dewp": 20.0, "wspd": 6, "wdir": 100, "ceil": 70, "cover": "OVC", "visib": 6.21, "fltcat": "VFR", "altim": 1017.0, "rawOb": "SBBU 201900Z 10006KT 9999 SCT035 FEW040TCU OVC070 22/20 Q1017"}, "geometry": {"type": "Point", "coordinates": [-49.054, -22.345]}}, {"type": "Feature", "properties": {"id": "SBPF", "site": "Passo Fundo/Kurtz Ar", "prior": "3", "obsTime": "2018-09-20T19:00:00Z", "temp": 19.0, "dewp": 13.0, "wspd": 10, "wdir": 130, "cover": "FEW", "visib": 6.21, "fltcat": "VFR", "altim": 1015.0, "rawOb": "SBPF 201900Z 13010KT 9999 FEW040 19/13 Q1015"}, "geometry": {"type": "Point", "coordinates": [-52.329, -28.245]}}, {"type": "Feature", "properties": {"id": "SVBM", "site": "Barquisimeto Intl", "prior": "3", "obsTime": "2018-09-20T19:00:00Z", "temp": 26.0, "dewp": 21.0, "wspd": 3, "wdir": 90, "cover": "SCT", "visib": 6.21, "fltcat": "VFR", "altim": 1014.0, "rawOb": "SVBM 201900Z 09003KT 9999 SCT016 26/21 Q1014"}, "geometry": {"type": "Point", "coordinates": [-69.359, 10.045]}}, {"type": "Feature", "properties": {"id": "SBMD", "site": "Monte Dourado Arpt", "prior": "3", "obsTime": "2018-09-20T19:00:00Z", "temp": 31.0, "dewp": 25.0, "wspd": 8, "wdir": 170, "cover": "SCT", "visib": 6.21, "fltcat": "VFR", "altim": 1010.0, "rawOb": "SBMD 201900Z 17008KT 9999 SCT027 31/25 Q1010"}, "geometry": {"type": "Point", "coordinates": [-52.6, -0.888]}}, {"type": "Feature", "properties": {"id": "MMPS", "site": "Puerto Escondido Arp", "prior": "3", "obsTime": "2018-09-20T19:40:00Z", "temp": 30.0, "dewp": 24.0, "wspd": 10, "wdir": 240, "ceil": 240, "cover": "BKN", "visib": 13.0, "fltcat": "VFR", "altim": 1013.0, "rawOb": "MMPS 201940Z 24010KT 13SM FEW010TCU SCT070 BKN240 30/24 A2991 RMK 8/263 HZY"}, "geometry": {"type": "Point", "coordinates": [-97.087, 15.877]}}, {"type": "Feature", "properties": {"id": "MMVA", "site": "Villahermosa/Perez I", "prior": "3", "obsTime": "2018-09-20T19:42:00Z", "temp": 32.0, "dewp": 23.0, "wspd": 7, "wdir": 60, "ceil": 15, "cover": "BKN", "visib": 7.0, "fltcat": "MVFR", "altim": 1011.3, "rawOb": "MMVA 201942Z 06007KT 7SM BKN015TCU 32/23 A2986 RMK 8/200"}, "geometry": {"type": "Point", "coordinates": [-92.819, 17.997]}}, {"type": "Feature", "properties": {"id": "SBJU", "site": "Juazeiro do Norte/Be", "prior": "3", "obsTime": "2018-09-20T19:00:00Z", "temp": 35.0, "dewp": 12.0, "wspd": 7, "wdir": 120, "cover": "FEW", "visib": 6.21, "fltcat": "VFR", "altim": 1014.0, "rawOb": "SBJU 201900Z 12007KT 9999 FEW022 35/12 Q1014"}, "geometry": {"type": "Point", "coordinates": [-39.27, -7.219]}}, {"type": "Feature", "properties": {"id": "SVMD", "site": "Merida/Campo de Oro", "prior": "3", "obsTime": "2018-09-20T19:00:00Z", "temp": 27.0, "dewp": 13.0, "cover": "SCT", "visib": 6.21, "fltcat": "VFR", "altim": 1018.0, "rawOb": "SVMD 201900Z /////KT 9999 FEW027 SCT100 27/13 Q1018"}, "geometry": {"type": "Point", "coordinates": [-71.161, 8.582]}}, {"type": "Feature", "properties": {"id": "SBAA", "site": "Conceicao de Araguai", "prior": "3", "obsTime": "2018-09-20T19:00:00Z", "temp": 32.0, "dewp": 21.0, "wspd": 6, "wdir": 320, "cover": "SCT", "visib": 6.21, "fltcat": "VFR", "altim": 1010.0, "rawOb": "SBAA 201900Z 32006KT 9999 SCT020 32/21 Q1010"}, "geometry": {"type": "Point", "coordinates": [-49.301, -8.348]}}, {"type": "Feature", "properties": {"id": "SVGU", "site": "Guanare Arpt", "prior": "3", "obsTime": "2018-09-20T20:00:00Z", "temp": 31.0, "dewp": 25.0, "cover": "SCT", "visib": 6.21, "fltcat": "VFR", "altim": 1010.0, "rawOb": "SVGU 202000Z /////KT 9999 SCT017 SCT070 31/25 Q1010"}, "geometry": {"type": "Point", "coordinates": [-69.755, 9.027]}}, {"type": "Feature", "properties": {"id": "SVBC", "site": "Barcelona Intl", "prior": "3", "obsTime": "2018-09-20T20:00:00Z", "temp": 27.0, "dewp": 23.0, "cover": "SCT", "visib": 5.59, "fltcat": "VFR", "altim": 1010.0, "rawOb": "SVBC 202000Z /////KT 9000 FEW010CB SCT070 27/23 Q1010"}, "geometry": {"type": "Point", "coordinates": [-64.689, 10.108]}}, {"type": "Feature", "properties": {"id": "SBKP", "site": "Campinas/Viracopos A", "prior": "4", "obsTime": "2018-09-20T20:00:00Z", "temp": 22.0, "dewp": 17.0, "wspd": 3, "wdir": 100, "ceil": 50, "cover": "BKN", "visib": 6.21, "fltcat": "VFR", "altim": 1016.0, "rawOb": "SBKP 202000Z 10003KT 9999 FEW045TCU BKN050 BKN100 22/17 Q1016"}, "geometry": {"type": "Point", "coordinates": [-47.136, -23.007]}}, {"type": "Feature", "properties": {"id": "SBSJ", "site": "Sao Jose dos Campos", "prior": "4", "obsTime": "2018-09-20T20:00:00Z", "temp": 20.0, "dewp": 17.0, "wspd": 4, "wdir": 70, "cover": "SCT", "visib": 6.21, "fltcat": "VFR", "altim": 1017.0, "rawOb": "SBSJ 202000Z 07004KT 9999 SCT040 20/17 Q1017"}, "geometry": {"type": "Point", "coordinates": [-45.862, -23.229]}}, {"type": "Feature", "properties": {"id": "SCVM", "site": "Concon/Vina Del Mar", "prior": "4", "obsTime": "2018-09-20T20:00:00Z", "temp": 20.0, "dewp": 11.0, "wspd": 7, "wdir": 340, "cover": "CAVOK", "visib": 6.21, "fltcat": "VFR", "altim": 1017.0, "rawOb": "SCVM 202000Z 34007KT CAVOK 20/11 Q1017"}, "geometry": {"type": "Point", "coordinates": [-71.478, -32.95]}}, {"type": "Feature", "properties": {"id": "SASJ", "site": "Jujuy/El Cadilal Arp", "prior": "4", "obsTime": "2018-09-20T19:00:00Z", "temp": 28.0, "dewp": 11.0, "wspd": 8, "wdir": 90, "cover": "CAVOK", "visib": 6.21, "fltcat": "VFR", "altim": 1011.0, "rawOb": "SASJ 201900Z 09008KT CAVOK 28/11 Q1011"}, "geometry": {"type": "Point", "coordinates": [-65.099, -24.388]}}, {"type": "Feature", "properties": {"id": "SBJP", "site": "Joao Pessoa/Pinto Ar", "prior": "4", "obsTime": "2018-09-20T19:00:00Z", "temp": 27.0, "dewp": 21.0, "wspd": 13, "wdir": 110, "cover": "SCT", "visib": 6.21, "fltcat": "VFR", "altim": 1014.0, "rawOb": "SBJP 201900Z 11013KT 9999 SCT025 27/21 Q1014"}, "geometry": {"type": "Point", "coordinates": [-34.951, -7.148]}}, {"type": "Feature", "properties": {"id": "TTCP", "site": "Tobago/Crown Pt Arpt", "prior": "4", "obsTime": "2018-09-20T19:00:00Z", "temp": 31.0, "dewp": 23.0, "wspd": 13, "wdir": 110, "cover": "FEW", "visib": 6.21, "fltcat": "VFR", "altim": 1011.0, "rawOb": "TTCP 201900Z 11013KT 9999 FEW022 31/23 Q1011 NOSIG"}, "geometry": {"type": "Point", "coordinates": [-60.835, 11.15]}}, {"type": "Feature", "properties": {"id": "SKLT", "site": "Leticia/Cobo Intl", "prior": "4", "obsTime": "2018-09-20T20:00:00Z", "temp": 35.0, "dewp": 25.0, "wspd": 3, "wdir": 10, "ceil": 200, "cover": "BKN", "visib": 6.21, "fltcat": "VFR", "altim": 1006.2, "wx": "VCSH", "rawOb": "SKLT 202000Z 01003KT 9999 5000N VCSH FEW012CB SCT020 BKN200 35/25 A2971 RMK CB VCSH NW/N"}, "geometry": {"type": "Point", "coordinates": [-69.942, -4.192]}}]}